{"type": "FeatureCollection", "features": [{"type": "Feature", "properties": {"kind": "strip", "label": "Straight up the 7.5 m strip of parcel _3", "pct_length_outside_own_land": 0, "length_m": 405, "gain_m": 117.8, "z_start": 720.8, "z_end": 838.6, "mean_grade_pct": 29.1, "max_grade_pct": 105.3, "pct_length_over_12": 47, "pct_length_over_15": 47, "pct_length_over_20": 43, "profile": null}, "geometry": {"type": "LineString", "coordinates": [[-70.45851689010227, 18.721058933887594], [-70.45848403762032, 18.721091539428706], [-70.45845118512581, 18.721124144964804], [-70.45841833261875, 18.721156750495883], [-70.45838548009908, 18.72118935602195], [-70.45835262756688, 18.721221961543], [-70.45831977502209, 18.72125456705903], [-70.45828692246475, 18.72128717257005], [-70.45825406989485, 18.721319778076055], [-70.45822121731237, 18.721352383577045], [-70.45818836471733, 18.721384989073027], [-70.45815551210973, 18.72141759456398], [-70.45812265948953, 18.72145020004993], [-70.45808980685679, 18.721482805530858], [-70.4580569542115, 18.721515411006774], [-70.45802410155362, 18.72154801647767], [-70.45799124888318, 18.721580621943552], [-70.45795839620017, 18.721613227404426], [-70.45792554350459, 18.72164583286028], [-70.45789269079646, 18.72167843831112], [-70.45785983807575, 18.721711043756944], [-70.45782698534248, 18.72174364919775], [-70.45779413259663, 18.721776254633536], [-70.45776127983822, 18.721808860064318], [-70.45772842706725, 18.72184146549008], [-70.45769557428372, 18.721874070910832], [-70.45766272148761, 18.721906676326558], [-70.45762986867894, 18.72193928173727], [-70.4575970158577, 18.72197188714297], [-70.45756416302389, 18.722004492543654], [-70.45753131017752, 18.722037097939324], [-70.45749845731858, 18.72206970332998], [-70.45746560444707, 18.722102308715616], [-70.45743275156299, 18.72213491409623], [-70.45739989866635, 18.722167519471842], [-70.45736704575714, 18.72220012484243], [-70.45733419283538, 18.722232730208006], [-70.45730133990102, 18.722265335568558], [-70.45726848695412, 18.722297940924108], [-70.45723563399464, 18.722330546274627], [-70.4572027810226, 18.722363151620137], [-70.45716992803798, 18.722395756960633], [-70.4571370750408, 18.722428362296107], [-70.45710422203106, 18.72246096762657], [-70.45707136900876, 18.722493572952015], [-70.45703851597388, 18.722526178272442], [-70.45700566292643, 18.72255878358786], [-70.45697280986641, 18.722591388898255], [-70.45693995679383, 18.722623994203637], [-70.45690710370869, 18.722656599504], [-70.45687425061098, 18.722689204799348], [-70.4568413975007, 18.72272181008968], [-70.45680854437784, 18.722754415374997], [-70.45677569124241, 18.722787020655296], [-70.45674283809444, 18.722819625930576], [-70.4567099849339, 18.722852231200843], [-70.45667713176077, 18.72288483646609], [-70.45664427857508, 18.722917441726327], [-70.45661142537682, 18.72295004698154], [-70.456578572166, 18.722982652231746], [-70.45654571894262, 18.723015257476927], [-70.45651286570666, 18.72304786271709], [-70.45648001245813, 18.723080467952247], [-70.45644715919703, 18.723113073182375], [-70.45641430592337, 18.723145678407494], [-70.45638145263715, 18.72317828362759], [-70.45634859933836, 18.723210888842672], [-70.45631574602699, 18.723243494052742], [-70.45628289270304, 18.72327609925779], [-70.45625003936655, 18.72330870445782], [-70.45621718601748, 18.723341309652838], [-70.45618433265585, 18.72337391484284], [-70.45615147928164, 18.72340652002781], [-70.45611862589487, 18.723439125207783], [-70.45608577249554, 18.72347173038273], [-70.45605291908363, 18.723504335552658], [-70.45602006565915, 18.72353694071757], [-70.45598721222211, 18.72356954587747], [-70.4559543587725, 18.723602151032345], [-70.45592150531031, 18.723634756182207], [-70.45588865183556, 18.723667361327045], [-70.45585579834825, 18.723699966466878]]}}, {"type": "Feature", "properties": {"kind": "route", "start": "A strip foot (parcel _3, 7.5 m strip)", "target": "top of Parcela 2", "design_grade_pct": 12, "pct_length_outside_own_land": 0, "length_m": 1321, "gain_m": 121.0, "z_start": 720.8, "z_end": 841.8, "mean_grade_pct": 9.2, "max_grade_pct": 16.0, "pct_length_over_12": 21, "pct_length_over_15": 3, "pct_length_over_20": 0}, "geometry": {"type": "LineString", "coordinates": [[-70.4585076401623, 18.721086112759988], [-70.45841281600538, 18.72108685108758], [-70.45850841507838, 18.721176462883097], [-70.45860401425209, 18.721266074622104], [-70.45869961352646, 18.7213556863046], [-70.4587952129015, 18.721445297930586], [-70.45870038855651, 18.721446036417362], [-70.45879598798632, 18.721535648038632], [-70.45870116359099, 18.721536386529223], [-70.45879676307557, 18.72162599814576], [-70.45889236266083, 18.72171560970579], [-70.45879753816925, 18.721716348252002], [-70.45889313780928, 18.721805959807305], [-70.45879831326735, 18.72180669835734], [-70.45889391296215, 18.72189630990792], [-70.4587990883699, 18.721897048461773], [-70.4587042637732, 18.721897786967656], [-70.45879986347687, 18.7219873985653], [-70.45870503882983, 18.721988137075005], [-70.45861021417838, 18.72198887553674], [-70.4587058138909, 18.72207848718146], [-70.4588014137041, 18.722168098769664], [-70.45889701361797, 18.722257710301356], [-70.45899261363255, 18.722347321776528], [-70.45908821374778, 18.72243693319519], [-70.45899338886234, 18.722437671867908], [-70.45889856397247, 18.72243841049266], [-70.45899416409658, 18.7225280219584], [-70.45889933915636, 18.722528760586968], [-70.45899493933524, 18.72261837204797], [-70.45890011434469, 18.722619110680366], [-70.45899571457834, 18.722708722136655], [-70.45890088953745, 18.722709460772872], [-70.45899648982586, 18.722799072224426], [-70.45909131491267, 18.72279833353642], [-70.45918613999504, 18.722797594800443], [-70.45928096507299, 18.722796856016494], [-70.45937579014651, 18.72279611718458], [-70.45928174047597, 18.722887206091904], [-70.45937656559984, 18.722886467256163], [-70.45947139071926, 18.722885728372454], [-70.45937734105759, 18.72297681732685], [-70.45947216622736, 18.722976078439316], [-70.45937811651979, 18.723067167396632], [-70.45947294173989, 18.723066428505273], [-70.4593788919864, 18.72315751746551], [-70.45947371725686, 18.723156778570324], [-70.45956931809462, 18.723246389687514], [-70.45947449277826, 18.72324712863449], [-70.45957009367079, 18.72333673974694], [-70.45947526830409, 18.723337478697736], [-70.45938121841286, 18.723428567666748], [-70.45947681936904, 18.723518178821546], [-70.45938199389721, 18.723518917732015], [-70.45928716842094, 18.723519656594515], [-70.459382769386, 18.72360926779639], [-70.45928794385938, 18.72361000666271], [-70.45919311832833, 18.723610745481064], [-70.45909829279287, 18.723611484251443], [-70.45900346725296, 18.72361222297385], [-70.45890864170862, 18.72361296164829], [-70.45881381615986, 18.723613700274754], [-70.45871899060667, 18.723614438853243], [-70.458814591351, 18.723704050361157], [-70.45871976574746, 18.723704788943472], [-70.45881536654657, 18.72379440044666], [-70.45872054089268, 18.72379513903279], [-70.45862571523438, 18.723795877570954], [-70.45872131604234, 18.723885489121226], [-70.45862649033369, 18.723886227663208], [-70.45872209119644, 18.723975839208745], [-70.45862726543743, 18.723976577754552], [-70.45853243967397, 18.723977316252377], [-70.45843838891359, 18.724068404800317], [-70.45834278813382, 18.723978793104116], [-70.45824873726387, 18.72406988156375], [-70.45824796235709, 18.72397953145803], [-70.45815391143238, 18.72407061987351], [-70.45815313657593, 18.723980269763967], [-70.45815236172393, 18.72388991965352], [-70.45805831079035, 18.723981008021926], [-70.4580575359887, 18.723890657907663], [-70.45796348500035, 18.723981746231917], [-70.45796271024903, 18.723891396113835], [-70.45786865920591, 18.723982484393932], [-70.45786788450494, 18.72389213427203], [-70.45777228411022, 18.723802522255628], [-70.45767823300348, 18.723893610444506], [-70.45758418179604, 18.723984698592147], [-70.4575834072461, 18.723894348458785], [-70.45748780698915, 18.723804736287008], [-70.45748858148431, 18.723895086425088], [-70.45739298127327, 18.723805474201516], [-70.45739375571807, 18.72389582434342], [-70.45729815555296, 18.72380621206806], [-70.45720332982823, 18.723806949886626], [-70.45710850409907, 18.72380768765722], [-70.4570136783655, 18.72380842537984], [-70.45710927839286, 18.72389803781058], [-70.45701445260893, 18.72389877553702], [-70.45691962682058, 18.723899513215482], [-70.45701522685677, 18.723989125693286], [-70.45692040101808, 18.723989863375564], [-70.45682480102779, 18.72390025084598], [-70.45682557517495, 18.72399060100988], [-70.45672997523059, 18.723900988428493], [-70.45673074932742, 18.72399133859621], [-70.45673152342864, 18.72408168876303], [-70.45663747158164, 18.724172776474933], [-70.45654264562455, 18.72417351397296], [-70.45644781966304, 18.724174251423005], [-70.45635221979283, 18.724084638643898]]}}, {"type": "Feature", "properties": {"kind": "route", "start": "A strip foot (parcel _3, 7.5 m strip)", "target": "centre of Parcela 2", "design_grade_pct": 12, "pct_length_outside_own_land": 0, "length_m": 845, "gain_m": 73.1, "z_start": 720.8, "z_end": 793.2, "mean_grade_pct": 8.9, "max_grade_pct": 15.5, "pct_length_over_12": 21, "pct_length_over_15": 1, "pct_length_over_20": 0}, "geometry": {"type": "LineString", "coordinates": [[-70.4585076401623, 18.721086112759988], [-70.45841281600538, 18.72108685108758], [-70.45850841507838, 18.721176462883097], [-70.45860401425209, 18.721266074622104], [-70.45869961352646, 18.7213556863046], [-70.4587952129015, 18.721445297930586], [-70.45870038855651, 18.721446036417362], [-70.45879598798632, 18.721535648038632], [-70.45870116359099, 18.721536386529223], [-70.45879676307557, 18.72162599814576], [-70.45889236266083, 18.72171560970579], [-70.45879753816925, 18.721716348252002], [-70.45889313780928, 18.721805959807305], [-70.45879831326735, 18.72180669835734], [-70.45889391296215, 18.72189630990792], [-70.4587990883699, 18.721897048461773], [-70.4587042637732, 18.721897786967656], [-70.45879986347687, 18.7219873985653], [-70.45870503882983, 18.721988137075005], [-70.45861021417838, 18.72198887553674], [-70.4587058138909, 18.72207848718146], [-70.4588014137041, 18.722168098769664], [-70.45889701361797, 18.722257710301356], [-70.45899261363255, 18.722347321776528], [-70.45908821374778, 18.72243693319519], [-70.45899338886234, 18.722437671867908], [-70.45889856397247, 18.72243841049266], [-70.45899416409658, 18.7225280219584], [-70.45889933915636, 18.722528760586968], [-70.45899493933524, 18.72261837204797], [-70.45890011434469, 18.722619110680366], [-70.45899571457834, 18.722708722136655], [-70.45890088953745, 18.722709460772872], [-70.45899648982586, 18.722799072224426], [-70.45909131491267, 18.72279833353642], [-70.45918613999504, 18.722797594800443], [-70.45928096507299, 18.722796856016494], [-70.45937579014651, 18.72279611718458], [-70.45928174047597, 18.722887206091904], [-70.45937656559984, 18.722886467256163], [-70.45947139071926, 18.722885728372454], [-70.45937734105759, 18.72297681732685], [-70.45947216622736, 18.722976078439316], [-70.45937811651979, 18.723067167396632], [-70.45947294173989, 18.723066428505273], [-70.4593788919864, 18.72315751746551], [-70.45947371725686, 18.723156778570324], [-70.45956931809462, 18.723246389687514], [-70.45947449277826, 18.72324712863449], [-70.45957009367079, 18.72333673974694], [-70.45947526830409, 18.723337478697736], [-70.45938121841286, 18.723428567666748], [-70.45947681936904, 18.723518178821546], [-70.45938199389721, 18.723518917732015], [-70.45928716842094, 18.723519656594515], [-70.459382769386, 18.72360926779639], [-70.45928794385938, 18.72361000666271], [-70.45919311832833, 18.723610745481064], [-70.45909829279287, 18.723611484251443], [-70.45900346725296, 18.72361222297385], [-70.45890864170862, 18.72361296164829], [-70.45881381615986, 18.723613700274754], [-70.45871899060667, 18.723614438853243], [-70.45862338996302, 18.72352482728881], [-70.45852778942007, 18.723435215667866], [-70.4584321889778, 18.723345603990403], [-70.45833658863621, 18.72325599225643], [-70.45824098839532, 18.72316638046593], [-70.45814538825512, 18.72307676861893], [-70.4580497882156, 18.72298715671542], [-70.45795496297939, 18.722987894883396]]}}, {"type": "Feature", "properties": {"kind": "route", "start": "B field of parcel _3 (greenhouses)", "target": "top of Parcela 2", "design_grade_pct": 12, "pct_length_outside_own_land": 0, "length_m": 1715, "gain_m": 139.4, "z_start": 702.4, "z_end": 841.8, "mean_grade_pct": 8.5, "max_grade_pct": 16.0, "pct_length_over_12": 18, "pct_length_over_15": 2, "pct_length_over_20": 0}, "geometry": {"type": "LineString", "coordinates": [[-70.46000388326651, 18.718634840981974], [-70.4600046588683, 18.718725191068252], [-70.46000543447451, 18.71881554115364], [-70.46000621008514, 18.718905891238112], [-70.46000698570022, 18.718996241321687], [-70.46000776131974, 18.71908659140436], [-70.46000853694369, 18.719176941486133], [-70.45991448949272, 18.71926803058556], [-70.45982044194108, 18.719359119643766], [-70.45982121747767, 18.719449469730492], [-70.45972716977947, 18.719540558750403], [-70.4596331219806, 18.719631647729106], [-70.45953907408108, 18.719722736666597], [-70.45953984948439, 18.719813086761185], [-70.45944580143829, 18.719904175660375], [-70.45944657680015, 18.71999452575698], [-70.45935252860748, 18.72008561461788], [-70.45935330392786, 18.720175964716507], [-70.45935407925266, 18.720266314814232], [-70.4593548545819, 18.720356664911055], [-70.45935562991558, 18.720447015006975], [-70.45935640525367, 18.720537365101997], [-70.45926235673083, 18.720628453936285], [-70.45916830810731, 18.720719542729356], [-70.45907348418274, 18.720720281377417], [-70.45897943540378, 18.720811370085123], [-70.45907425938313, 18.720810631481196], [-70.45898021055827, 18.720901720191833], [-70.45888616163272, 18.720992808861237], [-70.45879133754386, 18.720993547376864], [-70.45869651345055, 18.72099428584454], [-70.45879211260652, 18.721083897489414], [-70.45869728846289, 18.721084635960906], [-70.45860246431481, 18.72108537438443], [-70.4585076401623, 18.721086112759988], [-70.45841281600538, 18.72108685108758], [-70.45850841507838, 18.721176462883097], [-70.45860401425209, 18.721266074622104], [-70.45869961352646, 18.7213556863046], [-70.4587952129015, 18.721445297930586], [-70.45870038855651, 18.721446036417362], [-70.45879598798632, 18.721535648038632], [-70.45870116359099, 18.721536386529223], [-70.45879676307557, 18.72162599814576], [-70.45889236266083, 18.72171560970579], [-70.45879753816925, 18.721716348252002], [-70.45889313780928, 18.721805959807305], [-70.45879831326735, 18.72180669835734], [-70.45889391296215, 18.72189630990792], [-70.4587990883699, 18.721897048461773], [-70.4587042637732, 18.721897786967656], [-70.45879986347687, 18.7219873985653], [-70.45870503882983, 18.721988137075005], [-70.45861021417838, 18.72198887553674], [-70.4587058138909, 18.72207848718146], [-70.4588014137041, 18.722168098769664], [-70.45889701361797, 18.722257710301356], [-70.45899261363255, 18.722347321776528], [-70.45908821374778, 18.72243693319519], [-70.45899338886234, 18.722437671867908], [-70.45889856397247, 18.72243841049266], [-70.45899416409658, 18.7225280219584], [-70.45889933915636, 18.722528760586968], [-70.45899493933524, 18.72261837204797], [-70.45890011434469, 18.722619110680366], [-70.45899571457834, 18.722708722136655], [-70.45890088953745, 18.722709460772872], [-70.45899648982586, 18.722799072224426], [-70.45909131491267, 18.72279833353642], [-70.45918613999504, 18.722797594800443], [-70.45928096507299, 18.722796856016494], [-70.45937579014651, 18.72279611718458], [-70.45928174047597, 18.722887206091904], [-70.45937656559984, 18.722886467256163], [-70.45947139071926, 18.722885728372454], [-70.45937734105759, 18.72297681732685], [-70.45947216622736, 18.722976078439316], [-70.45937811651979, 18.723067167396632], [-70.45947294173989, 18.723066428505273], [-70.4593788919864, 18.72315751746551], [-70.45947371725686, 18.723156778570324], [-70.45956931809462, 18.723246389687514], [-70.45947449277826, 18.72324712863449], [-70.45957009367079, 18.72333673974694], [-70.45947526830409, 18.723337478697736], [-70.45938121841286, 18.723428567666748], [-70.45947681936904, 18.723518178821546], [-70.45938199389721, 18.723518917732015], [-70.45928716842094, 18.723519656594515], [-70.459382769386, 18.72360926779639], [-70.45928794385938, 18.72361000666271], [-70.45919311832833, 18.723610745481064], [-70.45909829279287, 18.723611484251443], [-70.45900346725296, 18.72361222297385], [-70.45890864170862, 18.72361296164829], [-70.45881381615986, 18.723613700274754], [-70.45871899060667, 18.723614438853243], [-70.458814591351, 18.723704050361157], [-70.45871976574746, 18.723704788943472], [-70.45881536654657, 18.72379440044666], [-70.45872054089268, 18.72379513903279], [-70.45862571523438, 18.723795877570954], [-70.45872131604234, 18.723885489121226], [-70.45862649033369, 18.723886227663208], [-70.45872209119644, 18.723975839208745], [-70.45862726543743, 18.723976577754552], [-70.45853243967397, 18.723977316252377], [-70.45843838891359, 18.724068404800317], [-70.45834278813382, 18.723978793104116], [-70.45824873726387, 18.72406988156375], [-70.45824796235709, 18.72397953145803], [-70.45815391143238, 18.72407061987351], [-70.45815313657593, 18.723980269763967], [-70.45815236172393, 18.72388991965352], [-70.45805831079035, 18.723981008021926], [-70.4580575359887, 18.723890657907663], [-70.45796348500035, 18.723981746231917], [-70.45796271024903, 18.723891396113835], [-70.45786865920591, 18.723982484393932], [-70.45786788450494, 18.72389213427203], [-70.45777228411022, 18.723802522255628], [-70.45767823300348, 18.723893610444506], [-70.45758418179604, 18.723984698592147], [-70.4575834072461, 18.723894348458785], [-70.45748780698915, 18.723804736287008], [-70.45748858148431, 18.723895086425088], [-70.45739298127327, 18.723805474201516], [-70.45739375571807, 18.72389582434342], [-70.45729815555296, 18.72380621206806], [-70.45720332982823, 18.723806949886626], [-70.45710850409907, 18.72380768765722], [-70.4570136783655, 18.72380842537984], [-70.45710927839286, 18.72389803781058], [-70.45701445260893, 18.72389877553702], [-70.45691962682058, 18.723899513215482], [-70.45701522685677, 18.723989125693286], [-70.45692040101808, 18.723989863375564], [-70.45682480102779, 18.72390025084598], [-70.45682557517495, 18.72399060100988], [-70.45672997523059, 18.723900988428493], [-70.45673074932742, 18.72399133859621], [-70.45673152342864, 18.72408168876303], [-70.45663747158164, 18.724172776474933], [-70.45654264562455, 18.72417351397296], [-70.45644781966304, 18.724174251423005], [-70.45635221979283, 18.724084638643898]]}}, {"type": "Feature", "properties": {"kind": "route", "start": "B field of parcel _3 (greenhouses)", "target": "centre of Parcela 2", "design_grade_pct": 12, "pct_length_outside_own_land": 0, "length_m": 1239, "gain_m": 91.5, "z_start": 702.4, "z_end": 793.2, "mean_grade_pct": 8.1, "max_grade_pct": 15.5, "pct_length_over_12": 17, "pct_length_over_15": 1, "pct_length_over_20": 0}, "geometry": {"type": "LineString", "coordinates": [[-70.46000388326651, 18.718634840981974], [-70.4600046588683, 18.718725191068252], [-70.46000543447451, 18.71881554115364], [-70.46000621008514, 18.718905891238112], [-70.46000698570022, 18.718996241321687], [-70.46000776131974, 18.71908659140436], [-70.46000853694369, 18.719176941486133], [-70.45991448949272, 18.71926803058556], [-70.45982044194108, 18.719359119643766], [-70.45982121747767, 18.719449469730492], [-70.45972716977947, 18.719540558750403], [-70.4596331219806, 18.719631647729106], [-70.45953907408108, 18.719722736666597], [-70.45953984948439, 18.719813086761185], [-70.45944580143829, 18.719904175660375], [-70.45944657680015, 18.71999452575698], [-70.45935252860748, 18.72008561461788], [-70.45935330392786, 18.720175964716507], [-70.45935407925266, 18.720266314814232], [-70.4593548545819, 18.720356664911055], [-70.45935562991558, 18.720447015006975], [-70.45935640525367, 18.720537365101997], [-70.45926235673083, 18.720628453936285], [-70.45916830810731, 18.720719542729356], [-70.45907348418274, 18.720720281377417], [-70.45897943540378, 18.720811370085123], [-70.45907425938313, 18.720810631481196], [-70.45898021055827, 18.720901720191833], [-70.45888616163272, 18.720992808861237], [-70.45879133754386, 18.720993547376864], [-70.45869651345055, 18.72099428584454], [-70.45879211260652, 18.721083897489414], [-70.45869728846289, 18.721084635960906], [-70.45860246431481, 18.72108537438443], [-70.4585076401623, 18.721086112759988], [-70.45841281600538, 18.72108685108758], [-70.45850841507838, 18.721176462883097], [-70.45860401425209, 18.721266074622104], [-70.45869961352646, 18.7213556863046], [-70.4587952129015, 18.721445297930586], [-70.45870038855651, 18.721446036417362], [-70.45879598798632, 18.721535648038632], [-70.45870116359099, 18.721536386529223], [-70.45879676307557, 18.72162599814576], [-70.45889236266083, 18.72171560970579], [-70.45879753816925, 18.721716348252002], [-70.45889313780928, 18.721805959807305], [-70.45879831326735, 18.72180669835734], [-70.45889391296215, 18.72189630990792], [-70.4587990883699, 18.721897048461773], [-70.4587042637732, 18.721897786967656], [-70.45879986347687, 18.7219873985653], [-70.45870503882983, 18.721988137075005], [-70.45861021417838, 18.72198887553674], [-70.4587058138909, 18.72207848718146], [-70.4588014137041, 18.722168098769664], [-70.45889701361797, 18.722257710301356], [-70.45899261363255, 18.722347321776528], [-70.45908821374778, 18.72243693319519], [-70.45899338886234, 18.722437671867908], [-70.45889856397247, 18.72243841049266], [-70.45899416409658, 18.7225280219584], [-70.45889933915636, 18.722528760586968], [-70.45899493933524, 18.72261837204797], [-70.45890011434469, 18.722619110680366], [-70.45899571457834, 18.722708722136655], [-70.45890088953745, 18.722709460772872], [-70.45899648982586, 18.722799072224426], [-70.45909131491267, 18.72279833353642], [-70.45918613999504, 18.722797594800443], [-70.45928096507299, 18.722796856016494], [-70.45937579014651, 18.72279611718458], [-70.45928174047597, 18.722887206091904], [-70.45937656559984, 18.722886467256163], [-70.45947139071926, 18.722885728372454], [-70.45937734105759, 18.72297681732685], [-70.45947216622736, 18.722976078439316], [-70.45937811651979, 18.723067167396632], [-70.45947294173989, 18.723066428505273], [-70.4593788919864, 18.72315751746551], [-70.45947371725686, 18.723156778570324], [-70.45956931809462, 18.723246389687514], [-70.45947449277826, 18.72324712863449], [-70.45957009367079, 18.72333673974694], [-70.45947526830409, 18.723337478697736], [-70.45938121841286, 18.723428567666748], [-70.45947681936904, 18.723518178821546], [-70.45938199389721, 18.723518917732015], [-70.45928716842094, 18.723519656594515], [-70.459382769386, 18.72360926779639], [-70.45928794385938, 18.72361000666271], [-70.45919311832833, 18.723610745481064], [-70.45909829279287, 18.723611484251443], [-70.45900346725296, 18.72361222297385], [-70.45890864170862, 18.72361296164829], [-70.45881381615986, 18.723613700274754], [-70.45871899060667, 18.723614438853243], [-70.45862338996302, 18.72352482728881], [-70.45852778942007, 18.723435215667866], [-70.4584321889778, 18.723345603990403], [-70.45833658863621, 18.72325599225643], [-70.45824098839532, 18.72316638046593], [-70.45814538825512, 18.72307676861893], [-70.4580497882156, 18.72298715671542], [-70.45795496297939, 18.722987894883396]]}}, {"type": "Feature", "properties": {"kind": "route", "start": "C nearest existing road (OSM way 983294969)", "target": "top of Parcela 2", "design_grade_pct": 12, "pct_length_outside_own_land": 29, "length_m": 1193, "gain_m": 95.4, "z_start": 746.3, "z_end": 841.8, "mean_grade_pct": 8.0, "max_grade_pct": 16.0, "pct_length_over_12": 11, "pct_length_over_15": 3, "pct_length_over_20": 0}, "geometry": {"type": "LineString", "coordinates": [[-70.46090152981073, 18.72377813941463], [-70.46090075350756, 18.723687789413265], [-70.46089997720881, 18.723597439410987], [-70.46089920091453, 18.723507089407814], [-70.46089842462466, 18.72341673940375], [-70.46089764833923, 18.723326389398768], [-70.46089687205823, 18.723236039392898], [-70.46089609578169, 18.723145689386115], [-70.46089531950958, 18.723055339378433], [-70.46080127057775, 18.723146429000856], [-70.46080049435596, 18.72305607898935], [-70.46070644536937, 18.723147168567632], [-70.46070566919794, 18.723056818552298], [-70.46070489303095, 18.722966468536065], [-70.46070411686838, 18.722876118518926], [-70.46070334071027, 18.722785768500888], [-70.46070256455658, 18.72269541848195], [-70.46060851569882, 18.722786508004383], [-70.46051291462994, 18.72269689743332], [-70.46051369068293, 18.72278724745991], [-70.46041808965997, 18.722697636837054], [-70.46041886566263, 18.722787986867466], [-70.46041964166972, 18.72287833689698], [-70.46042041768125, 18.7229686869256], [-70.46032481659462, 18.722879076260398], [-70.46022999151509, 18.72287981557584], [-70.46013516643113, 18.72288055484331], [-70.46004034134273, 18.722881294062816], [-70.4599455162499, 18.722882033234345], [-70.45985069115265, 18.722882772357906], [-70.45975586605095, 18.722883511433498], [-70.45966104094482, 18.722884250461117], [-70.45956621583426, 18.72288498944077], [-70.45947139071926, 18.722885728372454], [-70.45937734105759, 18.72297681732685], [-70.45947216622736, 18.722976078439316], [-70.45937811651979, 18.723067167396632], [-70.45947294173989, 18.723066428505273], [-70.4593788919864, 18.72315751746551], [-70.45947371725686, 18.723156778570324], [-70.45956931809462, 18.723246389687514], [-70.45947449277826, 18.72324712863449], [-70.45957009367079, 18.72333673974694], [-70.45947526830409, 18.723337478697736], [-70.45938121841286, 18.723428567666748], [-70.45947681936904, 18.723518178821546], [-70.45938199389721, 18.723518917732015], [-70.45928716842094, 18.723519656594515], [-70.459382769386, 18.72360926779639], [-70.45928794385938, 18.72361000666271], [-70.45919311832833, 18.723610745481064], [-70.45909829279287, 18.723611484251443], [-70.45900346725296, 18.72361222297385], [-70.45890864170862, 18.72361296164829], [-70.45881381615986, 18.723613700274754], [-70.45871899060667, 18.723614438853243], [-70.458814591351, 18.723704050361157], [-70.45871976574746, 18.723704788943472], [-70.45881536654657, 18.72379440044666], [-70.45872054089268, 18.72379513903279], [-70.45862571523438, 18.723795877570954], [-70.45872131604234, 18.723885489121226], [-70.45862649033369, 18.723886227663208], [-70.45872209119644, 18.723975839208745], [-70.45862726543743, 18.723976577754552], [-70.45853243967397, 18.723977316252377], [-70.45843838891359, 18.724068404800317], [-70.45834278813382, 18.723978793104116], [-70.45824873726387, 18.72406988156375], [-70.45824796235709, 18.72397953145803], [-70.45815391143238, 18.72407061987351], [-70.45815313657593, 18.723980269763967], [-70.45815236172393, 18.72388991965352], [-70.45805831079035, 18.723981008021926], [-70.4580575359887, 18.723890657907663], [-70.45796348500035, 18.723981746231917], [-70.45796271024903, 18.723891396113835], [-70.45786865920591, 18.723982484393932], [-70.45786788450494, 18.72389213427203], [-70.45777228411022, 18.723802522255628], [-70.45767823300348, 18.723893610444506], [-70.45758418179604, 18.723984698592147], [-70.4575834072461, 18.723894348458785], [-70.45748780698915, 18.723804736287008], [-70.45748858148431, 18.723895086425088], [-70.45739298127327, 18.723805474201516], [-70.45739375571807, 18.72389582434342], [-70.45729815555296, 18.72380621206806], [-70.45720332982823, 18.723806949886626], [-70.45710850409907, 18.72380768765722], [-70.4570136783655, 18.72380842537984], [-70.45710927839286, 18.72389803781058], [-70.45701445260893, 18.72389877553702], [-70.45691962682058, 18.723899513215482], [-70.45701522685677, 18.723989125693286], [-70.45692040101808, 18.723989863375564], [-70.45682480102779, 18.72390025084598], [-70.45682557517495, 18.72399060100988], [-70.45672997523059, 18.723900988428493], [-70.45673074932742, 18.72399133859621], [-70.45673152342864, 18.72408168876303], [-70.45663747158164, 18.724172776474933], [-70.45654264562455, 18.72417351397296], [-70.45644781966304, 18.724174251423005], [-70.45635221979283, 18.724084638643898]]}}, {"type": "Feature", "properties": {"kind": "route", "start": "C nearest existing road (OSM way 983294969)", "target": "centre of Parcela 2", "design_grade_pct": 12, "pct_length_outside_own_land": 48, "length_m": 717, "gain_m": 47.6, "z_start": 746.3, "z_end": 793.2, "mean_grade_pct": 7.0, "max_grade_pct": 13.6, "pct_length_over_12": 5, "pct_length_over_15": 0, "pct_length_over_20": 0}, "geometry": {"type": "LineString", "coordinates": [[-70.46090152981073, 18.72377813941463], [-70.46090075350756, 18.723687789413265], [-70.46089997720881, 18.723597439410987], [-70.46089920091453, 18.723507089407814], [-70.46089842462466, 18.72341673940375], [-70.46089764833923, 18.723326389398768], [-70.46089687205823, 18.723236039392898], [-70.46089609578169, 18.723145689386115], [-70.46089531950958, 18.723055339378433], [-70.46080127057775, 18.723146429000856], [-70.46080049435596, 18.72305607898935], [-70.46070644536937, 18.723147168567632], [-70.46070566919794, 18.723056818552298], [-70.46070489303095, 18.722966468536065], [-70.46070411686838, 18.722876118518926], [-70.46070334071027, 18.722785768500888], [-70.46070256455658, 18.72269541848195], [-70.46060851569882, 18.722786508004383], [-70.46051291462994, 18.72269689743332], [-70.46051369068293, 18.72278724745991], [-70.46041808965997, 18.722697636837054], [-70.46041886566263, 18.722787986867466], [-70.46041964166972, 18.72287833689698], [-70.46042041768125, 18.7229686869256], [-70.46032481659462, 18.722879076260398], [-70.46022999151509, 18.72287981557584], [-70.46013516643113, 18.72288055484331], [-70.46004034134273, 18.722881294062816], [-70.4599455162499, 18.722882033234345], [-70.45985069115265, 18.722882772357906], [-70.45975586605095, 18.722883511433498], [-70.45966104094482, 18.722884250461117], [-70.45956621583426, 18.72288498944077], [-70.45947139071926, 18.722885728372454], [-70.45937734105759, 18.72297681732685], [-70.45947216622736, 18.722976078439316], [-70.45937811651979, 18.723067167396632], [-70.45947294173989, 18.723066428505273], [-70.4593788919864, 18.72315751746551], [-70.45947371725686, 18.723156778570324], [-70.45956931809462, 18.723246389687514], [-70.45947449277826, 18.72324712863449], [-70.45957009367079, 18.72333673974694], [-70.45947526830409, 18.723337478697736], [-70.45938121841286, 18.723428567666748], [-70.45947681936904, 18.723518178821546], [-70.45938199389721, 18.723518917732015], [-70.45928716842094, 18.723519656594515], [-70.459382769386, 18.72360926779639], [-70.45928794385938, 18.72361000666271], [-70.45919311832833, 18.723610745481064], [-70.45909829279287, 18.723611484251443], [-70.45900346725296, 18.72361222297385], [-70.45890864170862, 18.72361296164829], [-70.45881381615986, 18.723613700274754], [-70.45871899060667, 18.723614438853243], [-70.45862338996302, 18.72352482728881], [-70.45852778942007, 18.723435215667866], [-70.4584321889778, 18.723345603990403], [-70.45833658863621, 18.72325599225643], [-70.45824098839532, 18.72316638046593], [-70.45814538825512, 18.72307676861893], [-70.4580497882156, 18.72298715671542], [-70.45795496297939, 18.722987894883396]]}}, {"type": "Feature", "properties": {"kind": "route", "start": "D end of the road on the IGN map (north side of the hill)", "target": "top of Parcela 2", "design_grade_pct": 12, "pct_length_outside_own_land": 20, "length_m": 347, "gain_m": 28.4, "z_start": 813.4, "z_end": 841.8, "mean_grade_pct": 8.2, "max_grade_pct": 16.0, "pct_length_over_12": 20, "pct_length_over_15": 9, "pct_length_over_20": 0}, "geometry": {"type": "LineString", "coordinates": [[-70.45759037835485, 18.724707499626586], [-70.45758960376949, 18.72461714950044], [-70.45758882918858, 18.724526799373383], [-70.45758805461209, 18.72443644924543], [-70.45758728004002, 18.724346099116577], [-70.45758650547239, 18.724255748986824], [-70.45758573090917, 18.724165398856165], [-70.4575849563504, 18.724075048724604], [-70.45758418179604, 18.723984698592147], [-70.4575834072461, 18.723894348458785], [-70.45748780698915, 18.723804736287008], [-70.45748858148431, 18.723895086425088], [-70.45739298127327, 18.723805474201516], [-70.45739375571807, 18.72389582434342], [-70.45729815555296, 18.72380621206806], [-70.45720332982823, 18.723806949886626], [-70.45710850409907, 18.72380768765722], [-70.4570136783655, 18.72380842537984], [-70.45710927839286, 18.72389803781058], [-70.45701445260893, 18.72389877553702], [-70.45691962682058, 18.723899513215482], [-70.45701522685677, 18.723989125693286], [-70.45692040101808, 18.723989863375564], [-70.45682480102779, 18.72390025084598], [-70.45682557517495, 18.72399060100988], [-70.45672997523059, 18.723900988428493], [-70.45673074932742, 18.72399133859621], [-70.45673152342864, 18.72408168876303], [-70.45663747158164, 18.724172776474933], [-70.45654264562455, 18.72417351397296], [-70.45644781966304, 18.724174251423005], [-70.45635221979283, 18.724084638643898]]}}, {"type": "Feature", "properties": {"kind": "route", "start": "D end of the road on the IGN map (north side of the hill)", "target": "centre of Parcela 2", "design_grade_pct": 12, "pct_length_outside_own_land": 16, "length_m": 446, "gain_m": 24.9, "z_start": 813.4, "z_end": 793.2, "mean_grade_pct": 7.6, "max_grade_pct": 12.1, "pct_length_over_12": 3, "pct_length_over_15": 0, "pct_length_over_20": 0}, "geometry": {"type": "LineString", "coordinates": [[-70.45759037835485, 18.724707499626586], [-70.45758960376949, 18.72461714950044], [-70.45758882918858, 18.724526799373383], [-70.45758805461209, 18.72443644924543], [-70.45758728004002, 18.724346099116577], [-70.45758650547239, 18.724255748986824], [-70.45758573090917, 18.724165398856165], [-70.4575849563504, 18.724075048724604], [-70.45758418179604, 18.723984698592147], [-70.45767823300348, 18.723893610444506], [-70.45777228411022, 18.723802522255628], [-70.4576766838162, 18.723712910182712], [-70.45777150946846, 18.7237121721281], [-70.45767590922921, 18.723622560050465], [-70.45777073483112, 18.72362182199967], [-70.45767513464664, 18.723532209917316], [-70.4577699601982, 18.72353147187034], [-70.45786478574533, 18.72353073377539], [-70.4577691855697, 18.723441121740112], [-70.4578640110665, 18.723440383648985], [-70.45776841094565, 18.723350771608978], [-70.4578632363921, 18.72335003352167], [-70.45776763632601, 18.723260421476947], [-70.45767281092549, 18.723261159512465], [-70.45757798552052, 18.72326189750002], [-70.45748316011115, 18.723262635439596], [-70.45738833469734, 18.723263373331203], [-70.4572935092791, 18.723264111174835], [-70.4571979095433, 18.723174498814647], [-70.45729273491561, 18.723173761022807], [-70.45719713523458, 18.723084148657904], [-70.45729196055655, 18.723083410869876], [-70.45719636093028, 18.72299379850026], [-70.45729118620191, 18.722993060716053], [-70.45738601146913, 18.722992322883865], [-70.45748083673189, 18.72299158500372], [-70.45757566199025, 18.722990847075597], [-70.45767048724417, 18.722990109099502], [-70.45776531249366, 18.72298937107544], [-70.45786013773875, 18.722988633003403], [-70.45795496297939, 18.722987894883396]]}}, {"type": "Feature", "properties": {"kind": "route", "start": "A strip foot (parcel _3, 7.5 m strip)", "target": "top of Parcela 2", "design_grade_pct": 15, "pct_length_outside_own_land": 0, "length_m": 973, "gain_m": 121.0, "z_start": 720.8, "z_end": 841.8, "mean_grade_pct": 12.4, "max_grade_pct": 15.6, "pct_length_over_12": 67, "pct_length_over_15": 4, "pct_length_over_20": 0}, "geometry": {"type": "LineString", "coordinates": [[-70.4585076401623, 18.721086112759988], [-70.45841281600538, 18.72108685108758], [-70.45850841507838, 18.721176462883097], [-70.45860401425209, 18.721266074622104], [-70.45850996492386, 18.721357163126612], [-70.45860556420708, 18.721446774856176], [-70.45870116359099, 18.721536386529223], [-70.45879676307557, 18.72162599814576], [-70.45889236266083, 18.72171560970579], [-70.45879753816925, 18.721716348252002], [-70.45870271367325, 18.721717086750242], [-70.45879831326735, 18.72180669835734], [-70.45870348872101, 18.7218074368594], [-70.4587990883699, 18.721897048461773], [-70.45889468811947, 18.72198666000763], [-70.45899028796971, 18.722076271496977], [-70.45889546328121, 18.722077010106442], [-70.45880063858826, 18.72207774866793], [-70.4587058138909, 18.72207848718146], [-70.4586109891891, 18.72207922564702], [-70.45851616448287, 18.72207996406461], [-70.45842133977222, 18.72208070243423], [-70.45832651505714, 18.722081440755883], [-70.45823169033761, 18.72208217902957], [-70.45813686561367, 18.722082917255285], [-70.45804204088529, 18.72208365543304], [-70.4579472161525, 18.72208439356282], [-70.45785239141527, 18.72208513164463], [-70.45775756667362, 18.722085869678477], [-70.45766274192754, 18.722086607664355], [-70.45756791717703, 18.72208734560226], [-70.45766351643927, 18.72217695781193], [-70.45756869163843, 18.722177695753654], [-70.45747386683315, 18.72217843364741], [-70.45756946610426, 18.722268045904144], [-70.45747464124864, 18.72226878380172], [-70.45737981638861, 18.722269521651327], [-70.45728499152413, 18.72227025945297], [-70.45719016665524, 18.72227099720664], [-70.45728576584337, 18.722360609614004], [-70.45719094092414, 18.722361347371493], [-70.45709611600047, 18.722362085081013], [-70.45719171519745, 18.722451697535448], [-70.45709689022345, 18.722452435248783], [-70.45700206524504, 18.72245317291415], [-70.45709766445086, 18.722542785415666], [-70.45700283942209, 18.722543523084845], [-70.4569080143889, 18.722544260706062], [-70.45700361360358, 18.72263387325463], [-70.45690878852004, 18.722634610879663], [-70.45700438778948, 18.72272422342352], [-70.45690956265561, 18.722724961052364], [-70.45700516197981, 18.722814573591506], [-70.45691033679559, 18.72281531122417], [-70.45700593617457, 18.72290492375858], [-70.45691111094, 18.722905661395064], [-70.45700671037375, 18.72299527392477], [-70.45691188508884, 18.72299601156507], [-70.45700748457736, 18.72308562409005], [-70.45691265924211, 18.723086361734165], [-70.45700825878538, 18.723175974254424], [-70.4569134333998, 18.723176711902358], [-70.45700903299785, 18.723266324417907], [-70.45691420756191, 18.72326706206966], [-70.45700980721473, 18.723356674580483], [-70.45691498172845, 18.723357412236044], [-70.45701058143604, 18.72344702474216], [-70.4569157558994, 18.723447762401545], [-70.45682093035835, 18.723448500012957], [-70.45672610481287, 18.72344923757639], [-70.456631279263, 18.723449975091857], [-70.45672687888758, 18.72353958774861], [-70.45663205328734, 18.723540325267894], [-70.45653722768267, 18.723541062739205], [-70.45663282731611, 18.723630675443037], [-70.4565380016611, 18.72363141291816], [-70.45663360134931, 18.72372102561727], [-70.45653877564395, 18.723721763096215], [-70.45663437538693, 18.723811375790607], [-70.45653954963122, 18.723812113273365], [-70.45663514942896, 18.723901725963042], [-70.45663592347543, 18.723992076134575], [-70.45654109761904, 18.723992813624967], [-70.45644627175824, 18.72399355106738], [-70.45635221979283, 18.724084638643898]]}}, {"type": "Feature", "properties": {"kind": "route", "start": "A strip foot (parcel _3, 7.5 m strip)", "target": "centre of Parcela 2", "design_grade_pct": 15, "pct_length_outside_own_land": 0, "length_m": 717, "gain_m": 72.4, "z_start": 720.8, "z_end": 793.2, "mean_grade_pct": 10.2, "max_grade_pct": 15.6, "pct_length_over_12": 44, "pct_length_over_15": 3, "pct_length_over_20": 0}, "geometry": {"type": "LineString", "coordinates": [[-70.4585076401623, 18.721086112759988], [-70.45841281600538, 18.72108685108758], [-70.45850841507838, 18.721176462883097], [-70.45860401425209, 18.721266074622104], [-70.45850996492386, 18.721357163126612], [-70.45860556420708, 18.721446774856176], [-70.45870116359099, 18.721536386529223], [-70.45879676307557, 18.72162599814576], [-70.45889236266083, 18.72171560970579], [-70.45879753816925, 18.721716348252002], [-70.45870271367325, 18.721717086750242], [-70.45879831326735, 18.72180669835734], [-70.45870348872101, 18.7218074368594], [-70.4587990883699, 18.721897048461773], [-70.45889468811947, 18.72198666000763], [-70.45899028796971, 18.722076271496977], [-70.45889546328121, 18.722077010106442], [-70.45899106318623, 18.722166621591068], [-70.45889623844738, 18.722167360204345], [-70.4588014137041, 18.722168098769664], [-70.45889701361797, 18.722257710301356], [-70.45899261363255, 18.722347321776528], [-70.45908821374778, 18.72243693319519], [-70.45899338886234, 18.722437671867908], [-70.45889856397247, 18.72243841049266], [-70.45899416409658, 18.7225280219584], [-70.45889933915636, 18.722528760586968], [-70.45899493933524, 18.72261837204797], [-70.45890011434469, 18.722619110680366], [-70.45899571457834, 18.722708722136655], [-70.45890088953745, 18.722709460772872], [-70.45899648982586, 18.722799072224426], [-70.45890166473461, 18.722799810864462], [-70.45899726507781, 18.722889422311304], [-70.45890243993624, 18.722890160955163], [-70.45899804033421, 18.72297977239728], [-70.45890321514227, 18.722980511044963], [-70.45899881559502, 18.723070122482348], [-70.45890399035275, 18.723070861133852], [-70.45899959086026, 18.72316047256652], [-70.45890476556765, 18.723161211221843], [-70.45900036612994, 18.723250822649796], [-70.45890554078699, 18.723251561308942], [-70.45900114140406, 18.723341172732155], [-70.45890631601074, 18.723341911395128], [-70.45900191668258, 18.723431522813627], [-70.45890709123894, 18.72343226148042], [-70.45881226579087, 18.723433000099238], [-70.45871744033836, 18.72343373867009], [-70.45881304097314, 18.723523350187442], [-70.4587182154703, 18.723524088762115], [-70.45862261488142, 18.72343447719296], [-70.45852701439324, 18.723344865567288], [-70.45843141400576, 18.72325525388511], [-70.45833581371895, 18.723165642146405], [-70.45824021353283, 18.723076030351194], [-70.45814461344739, 18.722986418499474], [-70.4580497882156, 18.72298715671542], [-70.45795496297939, 18.722987894883396]]}}, {"type": "Feature", "properties": {"kind": "route", "start": "B field of parcel _3 (greenhouses)", "target": "top of Parcela 2", "design_grade_pct": 15, "pct_length_outside_own_land": 0, "length_m": 1312, "gain_m": 139.4, "z_start": 702.4, "z_end": 841.8, "mean_grade_pct": 11.2, "max_grade_pct": 15.6, "pct_length_over_12": 58, "pct_length_over_15": 4, "pct_length_over_20": 0}, "geometry": {"type": "LineString", "coordinates": [[-70.46000388326651, 18.718634840981974], [-70.4600046588683, 18.718725191068252], [-70.46000543447451, 18.71881554115364], [-70.46000621008514, 18.718905891238112], [-70.46000698570022, 18.718996241321687], [-70.46000776131974, 18.71908659140436], [-70.46000853694369, 18.719176941486133], [-70.46000931257207, 18.71926729156701], [-70.45991526507518, 18.719358380669348], [-70.45991604066211, 18.71944873075225], [-70.45982199301868, 18.719539819816305], [-70.45972794527458, 18.719630908839143], [-70.45963389742982, 18.71972199782077], [-70.45953984948439, 18.719813086761185], [-70.45954062489213, 18.719903436854867], [-70.45944657680015, 18.71999452575698], [-70.45944735216642, 18.72008487585268], [-70.45944812753714, 18.72017522594749], [-70.45944890291227, 18.720265576041392], [-70.45944967829185, 18.720355926134392], [-70.45945045367586, 18.720446276226493], [-70.45945122906429, 18.72053662631769], [-70.45935718059621, 18.720627715196116], [-70.45926313202746, 18.72071880403333], [-70.45916908335803, 18.720809892829315], [-70.45907503458795, 18.720900981584087], [-70.45898098571718, 18.720992070297633], [-70.45888693674573, 18.721083158969957], [-70.4589825360483, 18.72117277050654], [-70.45888848698505, 18.721263859184702], [-70.45879366274515, 18.7212645977118], [-70.45869883850084, 18.72126533619094], [-70.45860401425209, 18.721266074622104], [-70.45850996492386, 18.721357163126612], [-70.45860556420708, 18.721446774856176], [-70.45870116359099, 18.721536386529223], [-70.45860633919122, 18.721537124971853], [-70.4587019386299, 18.72162673664018], [-70.45879753816925, 18.721716348252002], [-70.45870271367325, 18.721717086750242], [-70.45879831326735, 18.72180669835734], [-70.45870348872101, 18.7218074368594], [-70.4587990883699, 18.721897048461773], [-70.45889468811947, 18.72198666000763], [-70.45899028796971, 18.722076271496977], [-70.45889546328121, 18.722077010106442], [-70.45880063858826, 18.72207774866793], [-70.4587058138909, 18.72207848718146], [-70.4586109891891, 18.72207922564702], [-70.45851616448287, 18.72207996406461], [-70.45842133977222, 18.72208070243423], [-70.45832651505714, 18.722081440755883], [-70.45823169033761, 18.72208217902957], [-70.45813686561367, 18.722082917255285], [-70.45804204088529, 18.72208365543304], [-70.4579472161525, 18.72208439356282], [-70.45785239141527, 18.72208513164463], [-70.45775756667362, 18.722085869678477], [-70.45766274192754, 18.722086607664355], [-70.45756791717703, 18.72208734560226], [-70.45766351643927, 18.72217695781193], [-70.45756869163843, 18.722177695753654], [-70.45747386683315, 18.72217843364741], [-70.45756946610426, 18.722268045904144], [-70.45747464124864, 18.72226878380172], [-70.45737981638861, 18.722269521651327], [-70.45728499152413, 18.72227025945297], [-70.45719016665524, 18.72227099720664], [-70.45728576584337, 18.722360609614004], [-70.45719094092414, 18.722361347371493], [-70.45709611600047, 18.722362085081013], [-70.45719171519745, 18.722451697535448], [-70.45709689022345, 18.722452435248783], [-70.45700206524504, 18.72245317291415], [-70.45709766445086, 18.722542785415666], [-70.45700283942209, 18.722543523084845], [-70.4569080143889, 18.722544260706062], [-70.45700361360358, 18.72263387325463], [-70.45690878852004, 18.722634610879663], [-70.45700438778948, 18.72272422342352], [-70.45690956265561, 18.722724961052364], [-70.45700516197981, 18.722814573591506], [-70.45691033679559, 18.72281531122417], [-70.45700593617457, 18.72290492375858], [-70.45691111094, 18.722905661395064], [-70.45700671037375, 18.72299527392477], [-70.45691188508884, 18.72299601156507], [-70.45700748457736, 18.72308562409005], [-70.45691265924211, 18.723086361734165], [-70.45700825878538, 18.723175974254424], [-70.4569134333998, 18.723176711902358], [-70.45700903299785, 18.723266324417907], [-70.45691420756191, 18.72326706206966], [-70.45700980721473, 18.723356674580483], [-70.45691498172845, 18.723357412236044], [-70.45701058143604, 18.72344702474216], [-70.4569157558994, 18.723447762401545], [-70.45682093035835, 18.723448500012957], [-70.45672610481287, 18.72344923757639], [-70.456631279263, 18.723449975091857], [-70.45672687888758, 18.72353958774861], [-70.45663205328734, 18.723540325267894], [-70.45653722768267, 18.723541062739205], [-70.45663282731611, 18.723630675443037], [-70.4565380016611, 18.72363141291816], [-70.45663360134931, 18.72372102561727], [-70.45653877564395, 18.723721763096215], [-70.45663437538693, 18.723811375790607], [-70.45653954963122, 18.723812113273365], [-70.45663514942896, 18.723901725963042], [-70.45663592347543, 18.723992076134575], [-70.45654109761904, 18.723992813624967], [-70.45644627175824, 18.72399355106738], [-70.45635221979283, 18.724084638643898]]}}, {"type": "Feature", "properties": {"kind": "route", "start": "B field of parcel _3 (greenhouses)", "target": "centre of Parcela 2", "design_grade_pct": 15, "pct_length_outside_own_land": 0, "length_m": 1056, "gain_m": 90.9, "z_start": 702.4, "z_end": 793.2, "mean_grade_pct": 9.4, "max_grade_pct": 15.6, "pct_length_over_12": 41, "pct_length_over_15": 4, "pct_length_over_20": 0}, "geometry": {"type": "LineString", "coordinates": [[-70.46000388326651, 18.718634840981974], [-70.4600046588683, 18.718725191068252], [-70.46000543447451, 18.71881554115364], [-70.46000621008514, 18.718905891238112], [-70.46000698570022, 18.718996241321687], [-70.46000776131974, 18.71908659140436], [-70.46000853694369, 18.719176941486133], [-70.46000931257207, 18.71926729156701], [-70.45991526507518, 18.719358380669348], [-70.45991604066211, 18.71944873075225], [-70.45982199301868, 18.719539819816305], [-70.45972794527458, 18.719630908839143], [-70.45963389742982, 18.71972199782077], [-70.45953984948439, 18.719813086761185], [-70.45954062489213, 18.719903436854867], [-70.45944657680015, 18.71999452575698], [-70.45944735216642, 18.72008487585268], [-70.45944812753714, 18.72017522594749], [-70.45944890291227, 18.720265576041392], [-70.45944967829185, 18.720355926134392], [-70.45945045367586, 18.720446276226493], [-70.45945122906429, 18.72053662631769], [-70.45935718059621, 18.720627715196116], [-70.45926313202746, 18.72071880403333], [-70.45916908335803, 18.720809892829315], [-70.45907503458795, 18.720900981584087], [-70.45898098571718, 18.720992070297633], [-70.45888693674573, 18.721083158969957], [-70.4589825360483, 18.72117277050654], [-70.45888848698505, 18.721263859184702], [-70.45879366274515, 18.7212645977118], [-70.45869883850084, 18.72126533619094], [-70.45860401425209, 18.721266074622104], [-70.45850996492386, 18.721357163126612], [-70.45860556420708, 18.721446774856176], [-70.45870116359099, 18.721536386529223], [-70.45860633919122, 18.721537124971853], [-70.4587019386299, 18.72162673664018], [-70.45879753816925, 18.721716348252002], [-70.45870271367325, 18.721717086750242], [-70.45879831326735, 18.72180669835734], [-70.45870348872101, 18.7218074368594], [-70.4587990883699, 18.721897048461773], [-70.45889468811947, 18.72198666000763], [-70.45899028796971, 18.722076271496977], [-70.45889546328121, 18.722077010106442], [-70.45899106318623, 18.722166621591068], [-70.45889623844738, 18.722167360204345], [-70.4588014137041, 18.722168098769664], [-70.45889701361797, 18.722257710301356], [-70.45899261363255, 18.722347321776528], [-70.45908821374778, 18.72243693319519], [-70.45899338886234, 18.722437671867908], [-70.45889856397247, 18.72243841049266], [-70.45899416409658, 18.7225280219584], [-70.45889933915636, 18.722528760586968], [-70.45899493933524, 18.72261837204797], [-70.45890011434469, 18.722619110680366], [-70.45899571457834, 18.722708722136655], [-70.45890088953745, 18.722709460772872], [-70.45899648982586, 18.722799072224426], [-70.45890166473461, 18.722799810864462], [-70.45899726507781, 18.722889422311304], [-70.45890243993624, 18.722890160955163], [-70.45899804033421, 18.72297977239728], [-70.45890321514227, 18.722980511044963], [-70.45899881559502, 18.723070122482348], [-70.45890399035275, 18.723070861133852], [-70.45899959086026, 18.72316047256652], [-70.45890476556765, 18.723161211221843], [-70.45900036612994, 18.723250822649796], [-70.45890554078699, 18.723251561308942], [-70.45900114140406, 18.723341172732155], [-70.45890631601074, 18.723341911395128], [-70.45900191668258, 18.723431522813627], [-70.45890709123894, 18.72343226148042], [-70.45881226579087, 18.723433000099238], [-70.45871744033836, 18.72343373867009], [-70.45881304097314, 18.723523350187442], [-70.4587182154703, 18.723524088762115], [-70.45862261488142, 18.72343447719296], [-70.45852701439324, 18.723344865567288], [-70.45843141400576, 18.72325525388511], [-70.45833581371895, 18.723165642146405], [-70.45824021353283, 18.723076030351194], [-70.45814461344739, 18.722986418499474], [-70.4580497882156, 18.72298715671542], [-70.45795496297939, 18.722987894883396]]}}, {"type": "Feature", "properties": {"kind": "route", "start": "C nearest existing road (OSM way 983294969)", "target": "top of Parcela 2", "design_grade_pct": 15, "pct_length_outside_own_land": 28, "length_m": 952, "gain_m": 95.4, "z_start": 746.3, "z_end": 841.8, "mean_grade_pct": 10.1, "max_grade_pct": 16.0, "pct_length_over_12": 47, "pct_length_over_15": 9, "pct_length_over_20": 0}, "geometry": {"type": "LineString", "coordinates": [[-70.46090152981073, 18.72377813941463], [-70.46080592800155, 18.72368852905097], [-70.46071032629304, 18.723598918630774], [-70.46070955009944, 18.72350856861995], [-70.46070877391027, 18.723418218608224], [-70.46070799772554, 18.72332786859559], [-70.46070722154523, 18.723237518582064], [-70.46070644536937, 18.723147168567632], [-70.46070566919794, 18.723056818552298], [-70.46070489303095, 18.722966468536065], [-70.46070411686838, 18.722876118518926], [-70.46070334071027, 18.722785768500888], [-70.46060773959547, 18.72269615798162], [-70.46051291462994, 18.72269689743332], [-70.46041808965997, 18.722697636837054], [-70.46032326468556, 18.722698376192813], [-70.46032404063787, 18.72278872622705], [-70.46032481659462, 18.722879076260398], [-70.46022999151509, 18.72287981557584], [-70.46013516643113, 18.72288055484331], [-70.46004034134273, 18.722881294062816], [-70.4599455162499, 18.722882033234345], [-70.45985069115265, 18.722882772357906], [-70.45975586605095, 18.722883511433498], [-70.45966104094482, 18.722884250461117], [-70.45956621583426, 18.72288498944077], [-70.45947139071926, 18.722885728372454], [-70.45937734105759, 18.72297681732685], [-70.45947216622736, 18.722976078439316], [-70.45937811651979, 18.723067167396632], [-70.45947294173989, 18.723066428505273], [-70.45956854252289, 18.723156039627174], [-70.45947371725686, 18.723156778570324], [-70.45937966745745, 18.72324786753349], [-70.45928561755737, 18.72333895645542], [-70.45919156755659, 18.72343004533613], [-70.45928716842094, 18.723519656594515], [-70.45919234294024, 18.723520395409047], [-70.45928794385938, 18.72361000666271], [-70.45919311832833, 18.723610745481064], [-70.45928871930225, 18.72370035673001], [-70.45938432037684, 18.723789967922436], [-70.45938509587891, 18.7238803179841], [-70.45929027020128, 18.723881056861895], [-70.4591954445192, 18.72388179569172], [-70.45910061883268, 18.723882534473564], [-70.45900579314174, 18.723883273207438], [-70.45891096744637, 18.72388401189334], [-70.45881614174658, 18.72388475053127], [-70.45872131604234, 18.723885489121226], [-70.45862649033369, 18.723886227663208], [-70.4585316646206, 18.72388696615721], [-70.45843761390611, 18.723978054702233], [-70.45834356309095, 18.724069143206023], [-70.45824796235709, 18.72397953145803], [-70.45824718745475, 18.7238891813514], [-70.45815313657593, 18.723980269763967], [-70.45815236172393, 18.72388991965352], [-70.45805676119146, 18.72380030779249], [-70.45796271024903, 18.723891396113835], [-70.4578671098084, 18.72380178414922], [-70.45777305875643, 18.723892872382255], [-70.45767745840763, 18.72380326031406], [-70.4575826327006, 18.723803998324517], [-70.45748780698915, 18.723804736287008], [-70.45748858148431, 18.723895086425088], [-70.45739298127327, 18.723805474201516], [-70.45739375571807, 18.72389582434342], [-70.45729815555296, 18.72380621206806], [-70.45720332982823, 18.723806949886626], [-70.45710850409907, 18.72380768765722], [-70.4570136783655, 18.72380842537984], [-70.45710927839286, 18.72389803781058], [-70.45711005269105, 18.72398838796303], [-70.45701522685677, 18.723989125693286], [-70.45692040101808, 18.723989863375564], [-70.45682480102779, 18.72390025084598], [-70.45682557517495, 18.72399060100988], [-70.45672997523059, 18.723900988428493], [-70.45673074932742, 18.72399133859621], [-70.45673152342864, 18.72408168876303], [-70.45663669752632, 18.724082426305202], [-70.45654187161959, 18.724083163799406], [-70.45644704570843, 18.724083901245642], [-70.45635221979283, 18.724084638643898]]}}, {"type": "Feature", "properties": {"kind": "route", "start": "C nearest existing road (OSM way 983294969)", "target": "centre of Parcela 2", "design_grade_pct": 15, "pct_length_outside_own_land": 46, "length_m": 566, "gain_m": 46.9, "z_start": 746.3, "z_end": 793.2, "mean_grade_pct": 8.5, "max_grade_pct": 15.0, "pct_length_over_12": 36, "pct_length_over_15": 0, "pct_length_over_20": 0}, "geometry": {"type": "LineString", "coordinates": [[-70.46090152981073, 18.72377813941463], [-70.46080592800155, 18.72368852905097], [-70.46071032629304, 18.723598918630774], [-70.46070955009944, 18.72350856861995], [-70.46070877391027, 18.723418218608224], [-70.46070799772554, 18.72332786859559], [-70.46070722154523, 18.723237518582064], [-70.46070644536937, 18.723147168567632], [-70.46070566919794, 18.723056818552298], [-70.46070489303095, 18.722966468536065], [-70.46070411686838, 18.722876118518926], [-70.46070334071027, 18.722785768500888], [-70.46060773959547, 18.72269615798162], [-70.46051291462994, 18.72269689743332], [-70.46041808965997, 18.722697636837054], [-70.46032326468556, 18.722698376192813], [-70.46032404063787, 18.72278872622705], [-70.46032481659462, 18.722879076260398], [-70.46022999151509, 18.72287981557584], [-70.46013516643113, 18.72288055484331], [-70.46004034134273, 18.722881294062816], [-70.4599455162499, 18.722882033234345], [-70.45985069115265, 18.722882772357906], [-70.45975586605095, 18.722883511433498], [-70.45966104094482, 18.722884250461117], [-70.45956621583426, 18.72288498944077], [-70.45947139071926, 18.722885728372454], [-70.45937734105759, 18.72297681732685], [-70.45928329129525, 18.72306790624001], [-70.4591892414322, 18.723158995111955], [-70.45909441614845, 18.723159733863223], [-70.45899959086026, 18.72316047256652], [-70.45890476556765, 18.723161211221843], [-70.45900036612994, 18.723250822649796], [-70.45890554078699, 18.723251561308942], [-70.45900114140406, 18.723341172732155], [-70.45890631601074, 18.723341911395128], [-70.45900191668258, 18.723431522813627], [-70.45890709123894, 18.72343226148042], [-70.45881226579087, 18.723433000099238], [-70.45871744033836, 18.72343373867009], [-70.45881304097314, 18.723523350187442], [-70.4587182154703, 18.723524088762115], [-70.45862261488142, 18.72343447719296], [-70.45852701439324, 18.723344865567288], [-70.45843141400576, 18.72325525388511], [-70.45833581371895, 18.723165642146405], [-70.45824021353283, 18.723076030351194], [-70.45814461344739, 18.722986418499474], [-70.4580497882156, 18.72298715671542], [-70.45795496297939, 18.722987894883396]]}}, {"type": "Feature", "properties": {"kind": "route", "start": "D end of the road on the IGN map (north side of the hill)", "target": "top of Parcela 2", "design_grade_pct": 15, "pct_length_outside_own_land": 22, "length_m": 325, "gain_m": 28.4, "z_start": 813.4, "z_end": 841.8, "mean_grade_pct": 8.7, "max_grade_pct": 16.0, "pct_length_over_12": 34, "pct_length_over_15": 12, "pct_length_over_20": 0}, "geometry": {"type": "LineString", "coordinates": [[-70.45759037835485, 18.724707499626586], [-70.45758960376949, 18.72461714950044], [-70.45758882918858, 18.724526799373383], [-70.45758805461209, 18.72443644924543], [-70.45758728004002, 18.724346099116577], [-70.45758650547239, 18.724255748986824], [-70.45758573090917, 18.724165398856165], [-70.4575849563504, 18.724075048724604], [-70.45758418179604, 18.723984698592147], [-70.4575834072461, 18.723894348458785], [-70.45748780698915, 18.723804736287008], [-70.45748858148431, 18.723895086425088], [-70.45739298127327, 18.723805474201516], [-70.45739375571807, 18.72389582434342], [-70.45729815555296, 18.72380621206806], [-70.45720332982823, 18.723806949886626], [-70.45710850409907, 18.72380768765722], [-70.4570136783655, 18.72380842537984], [-70.45710927839286, 18.72389803781058], [-70.45711005269105, 18.72398838796303], [-70.45701522685677, 18.723989125693286], [-70.45692040101808, 18.723989863375564], [-70.45682480102779, 18.72390025084598], [-70.45682557517495, 18.72399060100988], [-70.45672997523059, 18.723900988428493], [-70.45673074932742, 18.72399133859621], [-70.45673152342864, 18.72408168876303], [-70.45663669752632, 18.724082426305202], [-70.45654187161959, 18.724083163799406], [-70.45644704570843, 18.724083901245642], [-70.45635221979283, 18.724084638643898]]}}, {"type": "Feature", "properties": {"kind": "route", "start": "D end of the road on the IGN map (north side of the hill)", "target": "centre of Parcela 2", "design_grade_pct": 15, "pct_length_outside_own_land": 23, "length_m": 306, "gain_m": 24.3, "z_start": 813.4, "z_end": 793.2, "mean_grade_pct": 9.3, "max_grade_pct": 16.2, "pct_length_over_12": 40, "pct_length_over_15": 8, "pct_length_over_20": 0}, "geometry": {"type": "LineString", "coordinates": [[-70.45759037835485, 18.724707499626586], [-70.45758960376949, 18.72461714950044], [-70.45758882918858, 18.724526799373383], [-70.45758805461209, 18.72443644924543], [-70.45758728004002, 18.724346099116577], [-70.45758650547239, 18.724255748986824], [-70.45758573090917, 18.724165398856165], [-70.4575849563504, 18.724075048724604], [-70.45767900760376, 18.723983960574046], [-70.45777305875643, 18.723892872382255], [-70.4578671098084, 18.72380178414922], [-70.45796271024903, 18.723891396113835], [-70.45805676119146, 18.72380030779249], [-70.45805598639865, 18.723709957676427], [-70.45805521161029, 18.723619607559456], [-70.45805443682632, 18.72352925744158], [-70.45795883655887, 18.723439645509885], [-70.4580536620468, 18.723438907322805], [-70.45795806183412, 18.723349295386384], [-70.4580528872717, 18.723348557203135], [-70.45795728711379, 18.723258945261993], [-70.45805211250104, 18.72325820708256], [-70.4579565123979, 18.72316859513669], [-70.4580513377348, 18.723167856961076], [-70.45795573768643, 18.723078245010495], [-70.458050562973, 18.723077506838703], [-70.45795496297939, 18.722987894883396]]}}, {"type": "Feature", "properties": {"kind": "route", "start": "A strip foot (parcel _3, 7.5 m strip)", "target": "top of Parcela 2", "design_grade_pct": 20, "pct_length_outside_own_land": 0, "length_m": 776, "gain_m": 121.0, "z_start": 720.8, "z_end": 841.8, "mean_grade_pct": 15.6, "max_grade_pct": 20.8, "pct_length_over_12": 79, "pct_length_over_15": 62, "pct_length_over_20": 9}, "geometry": {"type": "LineString", "coordinates": [[-70.4585076401623, 18.721086112759988], [-70.45850841507838, 18.721176462883097], [-70.4585091899989, 18.721266813005304], [-70.45850996492386, 18.721357163126612], [-70.45860556420708, 18.721446774856176], [-70.45851151478703, 18.72153786336652], [-70.45841746526631, 18.72162895183564], [-70.45851306466793, 18.72171856360282], [-70.45860866417023, 18.72180817531349], [-70.4587042637732, 18.721897786967656], [-70.45879986347687, 18.7219873985653], [-70.45889546328121, 18.722077010106442], [-70.45899106318623, 18.722166621591068], [-70.45889623844738, 18.722167360204345], [-70.45899183840716, 18.722256971684253], [-70.45889701361797, 18.722257710301356], [-70.45899261363255, 18.722347321776528], [-70.45889778879301, 18.72234806039746], [-70.45899338886234, 18.722437671867908], [-70.45889856397247, 18.72243841049266], [-70.45899416409658, 18.7225280219584], [-70.45889933915636, 18.722528760586968], [-70.45899493933524, 18.72261837204797], [-70.45890011434469, 18.722619110680366], [-70.45899571457834, 18.722708722136655], [-70.45890088953745, 18.722709460772872], [-70.45899648982586, 18.722799072224426], [-70.45909209021497, 18.722888683619473], [-70.45899804033421, 18.72297977239728], [-70.45909364083286, 18.723069383782875], [-70.4591892414322, 18.723158995111955], [-70.45909519146846, 18.723250083942677], [-70.45900114140406, 18.723341172732155], [-70.45890631601074, 18.723341911395128], [-70.45881149061302, 18.72334265001012], [-70.45871666521086, 18.723343388577153], [-70.45871744033836, 18.72343373867009], [-70.4587182154703, 18.723524088762115], [-70.45871899060667, 18.723614438853243], [-70.45862416504905, 18.72361517738376], [-70.4586249401395, 18.72370552747781], [-70.45862571523438, 18.723795877570954], [-70.45853088957162, 18.723796616061147], [-70.45843606390444, 18.72379735450336], [-70.45834201318112, 18.72388844300131], [-70.45824796235709, 18.72397953145803], [-70.45815313657593, 18.723980269763967], [-70.45805831079035, 18.723981008021926], [-70.45796348500035, 18.723981746231917], [-70.45786865920591, 18.723982484393932], [-70.45777383340705, 18.72398322250798], [-70.45767900760376, 18.723983960574046], [-70.45758418179604, 18.723984698592147], [-70.45748858148431, 18.723895086425088], [-70.45739298127327, 18.723805474201516], [-70.45729815555296, 18.72380621206806], [-70.45729892994743, 18.72389656221378], [-70.45720410417236, 18.723897300036164], [-70.45710927839286, 18.72389803781058], [-70.45701445260893, 18.72389877553702], [-70.45691962682058, 18.723899513215482], [-70.45682480102779, 18.72390025084598], [-70.45672997523059, 18.723900988428493], [-70.45663514942896, 18.723901725963042], [-70.45654032362292, 18.723902463449615], [-70.45644627175824, 18.72399355106738], [-70.45635221979283, 18.724084638643898]]}}, {"type": "Feature", "properties": {"kind": "route", "start": "A strip foot (parcel _3, 7.5 m strip)", "target": "centre of Parcela 2", "design_grade_pct": 20, "pct_length_outside_own_land": 0, "length_m": 552, "gain_m": 72.4, "z_start": 720.8, "z_end": 793.2, "mean_grade_pct": 13.2, "max_grade_pct": 20.8, "pct_length_over_12": 62, "pct_length_over_15": 46, "pct_length_over_20": 10}, "geometry": {"type": "LineString", "coordinates": [[-70.4585076401623, 18.721086112759988], [-70.45850841507838, 18.721176462883097], [-70.4585091899989, 18.721266813005304], [-70.45850996492386, 18.721357163126612], [-70.45860556420708, 18.721446774856176], [-70.45851151478703, 18.72153786336652], [-70.45841746526631, 18.72162895183564], [-70.45851306466793, 18.72171856360282], [-70.45860866417023, 18.72180817531349], [-70.4587042637732, 18.721897786967656], [-70.45879986347687, 18.7219873985653], [-70.45889546328121, 18.722077010106442], [-70.45899106318623, 18.722166621591068], [-70.45889623844738, 18.722167360204345], [-70.45899183840716, 18.722256971684253], [-70.45889701361797, 18.722257710301356], [-70.45899261363255, 18.722347321776528], [-70.45889778879301, 18.72234806039746], [-70.45899338886234, 18.722437671867908], [-70.45889856397247, 18.72243841049266], [-70.45899416409658, 18.7225280219584], [-70.45889933915636, 18.722528760586968], [-70.45899493933524, 18.72261837204797], [-70.45890011434469, 18.722619110680366], [-70.45899571457834, 18.722708722136655], [-70.45890088953745, 18.722709460772872], [-70.45899648982586, 18.722799072224426], [-70.45909209021497, 18.722888683619473], [-70.45899804033421, 18.72297977239728], [-70.45909364083286, 18.723069383782875], [-70.4591892414322, 18.723158995111955], [-70.45909519146846, 18.723250083942677], [-70.45900114140406, 18.723341172732155], [-70.45890631601074, 18.723341911395128], [-70.45881149061302, 18.72334265001012], [-70.45871666521086, 18.723343388577153], [-70.45871744033836, 18.72343373867009], [-70.45862261488142, 18.72343447719296], [-70.45852701439324, 18.723344865567288], [-70.45843141400576, 18.72325525388511], [-70.45833581371895, 18.723165642146405], [-70.45824021353283, 18.723076030351194], [-70.45814461344739, 18.722986418499474], [-70.4580497882156, 18.72298715671542], [-70.45795496297939, 18.722987894883396]]}}, {"type": "Feature", "properties": {"kind": "route", "start": "B field of parcel _3 (greenhouses)", "target": "top of Parcela 2", "design_grade_pct": 20, "pct_length_outside_own_land": 0, "length_m": 1104, "gain_m": 139.4, "z_start": 702.4, "z_end": 841.8, "mean_grade_pct": 13.7, "max_grade_pct": 20.8, "pct_length_over_12": 66, "pct_length_over_15": 48, "pct_length_over_20": 5}, "geometry": {"type": "LineString", "coordinates": [[-70.46000388326651, 18.718634840981974], [-70.4600046588683, 18.718725191068252], [-70.46000543447451, 18.71881554115364], [-70.46000621008514, 18.718905891238112], [-70.46000698570022, 18.718996241321687], [-70.46000776131974, 18.71908659140436], [-70.46000853694369, 18.719176941486133], [-70.46000931257207, 18.71926729156701], [-70.46001008820488, 18.71935764164698], [-70.45991604066211, 18.71944873075225], [-70.45982199301868, 18.719539819816305], [-70.45972794527458, 18.719630908839143], [-70.45963389742982, 18.71972199782077], [-70.45953984948439, 18.719813086761185], [-70.45954062489213, 18.719903436854867], [-70.45944657680015, 18.71999452575698], [-70.45944735216642, 18.72008487585268], [-70.45944812753714, 18.72017522594749], [-70.45935407925266, 18.720266314814232], [-70.4593548545819, 18.720356664911055], [-70.45926080615087, 18.7204477537395], [-70.45916675761916, 18.720538842526725], [-70.45907270898678, 18.720629931272732], [-70.45897866025372, 18.72072101997752], [-70.45888461142, 18.720812108641077], [-70.45888538652416, 18.72090245875161], [-70.45888616163272, 18.720992808861237], [-70.45888693674573, 18.721083158969957], [-70.45888771186317, 18.721173509077783], [-70.45879366274515, 18.7212645977118], [-70.45869961352646, 18.7213556863046], [-70.45860556420708, 18.721446774856176], [-70.45851151478703, 18.72153786336652], [-70.45841746526631, 18.72162895183564], [-70.45851306466793, 18.72171856360282], [-70.45860866417023, 18.72180817531349], [-70.4587042637732, 18.721897786967656], [-70.45879986347687, 18.7219873985653], [-70.45889546328121, 18.722077010106442], [-70.45899106318623, 18.722166621591068], [-70.45889623844738, 18.722167360204345], [-70.45899183840716, 18.722256971684253], [-70.45889701361797, 18.722257710301356], [-70.45899261363255, 18.722347321776528], [-70.45889778879301, 18.72234806039746], [-70.45899338886234, 18.722437671867908], [-70.45889856397247, 18.72243841049266], [-70.45899416409658, 18.7225280219584], [-70.45889933915636, 18.722528760586968], [-70.45899493933524, 18.72261837204797], [-70.45890011434469, 18.722619110680366], [-70.45899571457834, 18.722708722136655], [-70.45890088953745, 18.722709460772872], [-70.45899648982586, 18.722799072224426], [-70.45909209021497, 18.722888683619473], [-70.45899804033421, 18.72297977239728], [-70.45909364083286, 18.723069383782875], [-70.4591892414322, 18.723158995111955], [-70.45909519146846, 18.723250083942677], [-70.45900114140406, 18.723341172732155], [-70.45890631601074, 18.723341911395128], [-70.45881149061302, 18.72334265001012], [-70.45871666521086, 18.723343388577153], [-70.45871744033836, 18.72343373867009], [-70.4587182154703, 18.723524088762115], [-70.45871899060667, 18.723614438853243], [-70.45862416504905, 18.72361517738376], [-70.4586249401395, 18.72370552747781], [-70.45862571523438, 18.723795877570954], [-70.45853088957162, 18.723796616061147], [-70.45843606390444, 18.72379735450336], [-70.45834201318112, 18.72388844300131], [-70.45824796235709, 18.72397953145803], [-70.45815313657593, 18.723980269763967], [-70.45805831079035, 18.723981008021926], [-70.45796348500035, 18.723981746231917], [-70.45786865920591, 18.723982484393932], [-70.45777383340705, 18.72398322250798], [-70.45767900760376, 18.723983960574046], [-70.45758418179604, 18.723984698592147], [-70.45748858148431, 18.723895086425088], [-70.45739298127327, 18.723805474201516], [-70.45729815555296, 18.72380621206806], [-70.45729892994743, 18.72389656221378], [-70.45720410417236, 18.723897300036164], [-70.45710927839286, 18.72389803781058], [-70.45701445260893, 18.72389877553702], [-70.45691962682058, 18.723899513215482], [-70.45682480102779, 18.72390025084598], [-70.45672997523059, 18.723900988428493], [-70.45663514942896, 18.723901725963042], [-70.45654032362292, 18.723902463449615], [-70.45644627175824, 18.72399355106738], [-70.45635221979283, 18.724084638643898]]}}, {"type": "Feature", "properties": {"kind": "route", "start": "B field of parcel _3 (greenhouses)", "target": "centre of Parcela 2", "design_grade_pct": 20, "pct_length_outside_own_land": 0, "length_m": 880, "gain_m": 90.9, "z_start": 702.4, "z_end": 793.2, "mean_grade_pct": 11.7, "max_grade_pct": 20.8, "pct_length_over_12": 52, "pct_length_over_15": 35, "pct_length_over_20": 5}, "geometry": {"type": "LineString", "coordinates": [[-70.46000388326651, 18.718634840981974], [-70.4600046588683, 18.718725191068252], [-70.46000543447451, 18.71881554115364], [-70.46000621008514, 18.718905891238112], [-70.46000698570022, 18.718996241321687], [-70.46000776131974, 18.71908659140436], [-70.46000853694369, 18.719176941486133], [-70.46000931257207, 18.71926729156701], [-70.46001008820488, 18.71935764164698], [-70.45991604066211, 18.71944873075225], [-70.45982199301868, 18.719539819816305], [-70.45972794527458, 18.719630908839143], [-70.45963389742982, 18.71972199782077], [-70.45953984948439, 18.719813086761185], [-70.45954062489213, 18.719903436854867], [-70.45944657680015, 18.71999452575698], [-70.45944735216642, 18.72008487585268], [-70.45944812753714, 18.72017522594749], [-70.45935407925266, 18.720266314814232], [-70.4593548545819, 18.720356664911055], [-70.45926080615087, 18.7204477537395], [-70.45916675761916, 18.720538842526725], [-70.45907270898678, 18.720629931272732], [-70.45897866025372, 18.72072101997752], [-70.45888461142, 18.720812108641077], [-70.45888538652416, 18.72090245875161], [-70.45888616163272, 18.720992808861237], [-70.45888693674573, 18.721083158969957], [-70.45888771186317, 18.721173509077783], [-70.45879366274515, 18.7212645977118], [-70.45869961352646, 18.7213556863046], [-70.45860556420708, 18.721446774856176], [-70.45851151478703, 18.72153786336652], [-70.45841746526631, 18.72162895183564], [-70.45851306466793, 18.72171856360282], [-70.45860866417023, 18.72180817531349], [-70.4587042637732, 18.721897786967656], [-70.45879986347687, 18.7219873985653], [-70.45889546328121, 18.722077010106442], [-70.45899106318623, 18.722166621591068], [-70.45889623844738, 18.722167360204345], [-70.45899183840716, 18.722256971684253], [-70.45889701361797, 18.722257710301356], [-70.45899261363255, 18.722347321776528], [-70.45889778879301, 18.72234806039746], [-70.45899338886234, 18.722437671867908], [-70.45889856397247, 18.72243841049266], [-70.45899416409658, 18.7225280219584], [-70.45889933915636, 18.722528760586968], [-70.45899493933524, 18.72261837204797], [-70.45890011434469, 18.722619110680366], [-70.45899571457834, 18.722708722136655], [-70.45890088953745, 18.722709460772872], [-70.45899648982586, 18.722799072224426], [-70.45909209021497, 18.722888683619473], [-70.45899804033421, 18.72297977239728], [-70.45909364083286, 18.723069383782875], [-70.4591892414322, 18.723158995111955], [-70.45909519146846, 18.723250083942677], [-70.45900114140406, 18.723341172732155], [-70.45890631601074, 18.723341911395128], [-70.45881149061302, 18.72334265001012], [-70.45871666521086, 18.723343388577153], [-70.45871744033836, 18.72343373867009], [-70.45862261488142, 18.72343447719296], [-70.45852701439324, 18.723344865567288], [-70.45843141400576, 18.72325525388511], [-70.45833581371895, 18.723165642146405], [-70.45824021353283, 18.723076030351194], [-70.45814461344739, 18.722986418499474], [-70.4580497882156, 18.72298715671542], [-70.45795496297939, 18.722987894883396]]}}, {"type": "Feature", "properties": {"kind": "route", "start": "C nearest existing road (OSM way 983294969)", "target": "top of Parcela 2", "design_grade_pct": 20, "pct_length_outside_own_land": 32, "length_m": 613, "gain_m": 95.4, "z_start": 746.3, "z_end": 841.8, "mean_grade_pct": 15.6, "max_grade_pct": 20.0, "pct_length_over_12": 81, "pct_length_over_15": 71, "pct_length_over_20": 2}, "geometry": {"type": "LineString", "coordinates": [[-70.46090152981073, 18.72377813941463], [-70.46080670425435, 18.72377887905616], [-70.46071187869357, 18.723779618649715], [-70.46061705312835, 18.72378035819531], [-70.4605230036649, 18.7238714477087], [-70.46042740198459, 18.723781837142564], [-70.46033180040494, 18.723692226519912], [-70.46023619892601, 18.723602615840722], [-70.46014214933527, 18.723693705171684], [-70.46004654794815, 18.7236040943889], [-70.46004577210695, 18.723513744351294], [-70.4600449962702, 18.72342339431279], [-70.46004422043787, 18.723333044273378], [-70.46004344460998, 18.723242694233072], [-70.45994784354265, 18.723153083374864], [-70.45985301829435, 18.723153822509897], [-70.45975896871406, 18.723244911649648], [-70.45966491903309, 18.72333600074817], [-70.45957009367079, 18.72333673974694], [-70.45947526830409, 18.723337478697736], [-70.45938044293295, 18.723338217600563], [-70.45928639298694, 18.723429306525425], [-70.45919234294024, 18.723520395409047], [-70.45909829279287, 18.723611484251443], [-70.4590042425448, 18.723702573052616], [-70.45891019219603, 18.723793661812554], [-70.45881536654657, 18.72379440044666], [-70.45872131604234, 18.723885489121226], [-70.45862649033369, 18.723886227663208], [-70.4585316646206, 18.72388696615721], [-70.45843683890307, 18.723887704603246], [-70.45834201318112, 18.72388844300131], [-70.45824796235709, 18.72397953145803], [-70.45815313657593, 18.723980269763967], [-70.45805831079035, 18.723981008021926], [-70.45796348500035, 18.723981746231917], [-70.45786865920591, 18.723982484393932], [-70.45777383340705, 18.72398322250798], [-70.45767900760376, 18.723983960574046], [-70.45758418179604, 18.723984698592147], [-70.45748858148431, 18.723895086425088], [-70.45739298127327, 18.723805474201516], [-70.45729815555296, 18.72380621206806], [-70.45729892994743, 18.72389656221378], [-70.45720410417236, 18.723897300036164], [-70.45710927839286, 18.72389803781058], [-70.45701445260893, 18.72389877553702], [-70.45691962682058, 18.723899513215482], [-70.45682480102779, 18.72390025084598], [-70.45672997523059, 18.723900988428493], [-70.45663514942896, 18.723901725963042], [-70.45654032362292, 18.723902463449615], [-70.45644627175824, 18.72399355106738], [-70.45635221979283, 18.724084638643898]]}}, {"type": "Feature", "properties": {"kind": "route", "start": "C nearest existing road (OSM way 983294969)", "target": "centre of Parcela 2", "design_grade_pct": 20, "pct_length_outside_own_land": 47, "length_m": 412, "gain_m": 46.9, "z_start": 746.3, "z_end": 793.2, "mean_grade_pct": 11.8, "max_grade_pct": 20.0, "pct_length_over_12": 56, "pct_length_over_15": 49, "pct_length_over_20": 3}, "geometry": {"type": "LineString", "coordinates": [[-70.46090152981073, 18.72377813941463], [-70.46080670425435, 18.72377887905616], [-70.46071187869357, 18.723779618649715], [-70.46061705312835, 18.72378035819531], [-70.4605230036649, 18.7238714477087], [-70.46042740198459, 18.723781837142564], [-70.46033180040494, 18.723692226519912], [-70.46023619892601, 18.723602615840722], [-70.46014214933527, 18.723693705171684], [-70.46004654794815, 18.7236040943889], [-70.46004577210695, 18.723513744351294], [-70.4600449962702, 18.72342339431279], [-70.46004422043787, 18.723333044273378], [-70.46004344460998, 18.723242694233072], [-70.45994784354265, 18.723153083374864], [-70.45985301829435, 18.723153822509897], [-70.45975896871406, 18.723244911649648], [-70.45966491903309, 18.72333600074817], [-70.45957009367079, 18.72333673974694], [-70.45947526830409, 18.723337478697736], [-70.45938044293295, 18.723338217600563], [-70.45928561755737, 18.72333895645542], [-70.45919079217735, 18.723339695262307], [-70.45909596679292, 18.723340434021214], [-70.45900191668258, 18.723431522813627], [-70.45890709123894, 18.72343226148042], [-70.45881226579087, 18.723433000099238], [-70.45871744033836, 18.72343373867009], [-70.45862261488142, 18.72343447719296], [-70.45852701439324, 18.723344865567288], [-70.45843141400576, 18.72325525388511], [-70.45833581371895, 18.723165642146405], [-70.45824021353283, 18.723076030351194], [-70.45814461344739, 18.722986418499474], [-70.4580497882156, 18.72298715671542], [-70.45795496297939, 18.722987894883396]]}}, {"type": "Feature", "properties": {"kind": "route", "start": "D end of the road on the IGN map (north side of the hill)", "target": "top of Parcela 2", "design_grade_pct": 20, "pct_length_outside_own_land": 30, "length_m": 237, "gain_m": 28.4, "z_start": 813.4, "z_end": 841.8, "mean_grade_pct": 12.0, "max_grade_pct": 19.1, "pct_length_over_12": 52, "pct_length_over_15": 37, "pct_length_over_20": 0}, "geometry": {"type": "LineString", "coordinates": [[-70.45759037835485, 18.724707499626586], [-70.45758960376949, 18.72461714950044], [-70.45758882918858, 18.724526799373383], [-70.45758805461209, 18.72443644924543], [-70.45758728004002, 18.724346099116577], [-70.45758650547239, 18.724255748986824], [-70.45758573090917, 18.724165398856165], [-70.4575849563504, 18.724075048724604], [-70.45758418179604, 18.723984698592147], [-70.45748858148431, 18.723895086425088], [-70.45739298127327, 18.723805474201516], [-70.45729815555296, 18.72380621206806], [-70.45729892994743, 18.72389656221378], [-70.45720410417236, 18.723897300036164], [-70.45710927839286, 18.72389803781058], [-70.45701445260893, 18.72389877553702], [-70.45691962682058, 18.723899513215482], [-70.45682480102779, 18.72390025084598], [-70.45672997523059, 18.723900988428493], [-70.45663514942896, 18.723901725963042], [-70.45654032362292, 18.723902463449615], [-70.45644627175824, 18.72399355106738], [-70.45635221979283, 18.724084638643898]]}}, {"type": "Feature", "properties": {"kind": "route", "start": "D end of the road on the IGN map (north side of the hill)", "target": "centre of Parcela 2", "design_grade_pct": 20, "pct_length_outside_own_land": 27, "length_m": 255, "gain_m": 24.3, "z_start": 813.4, "z_end": 793.2, "mean_grade_pct": 11.1, "max_grade_pct": 19.1, "pct_length_over_12": 52, "pct_length_over_15": 39, "pct_length_over_20": 0}, "geometry": {"type": "LineString", "coordinates": [[-70.45759037835485, 18.724707499626586], [-70.45758960376949, 18.72461714950044], [-70.45758882918858, 18.724526799373383], [-70.45758805461209, 18.72443644924543], [-70.45758728004002, 18.724346099116577], [-70.45758650547239, 18.724255748986824], [-70.45758573090917, 18.724165398856165], [-70.4575849563504, 18.724075048724604], [-70.45767900760376, 18.723983960574046], [-70.45777383340705, 18.72398322250798], [-70.45786865920591, 18.723982484393932], [-70.45796348500035, 18.723981746231917], [-70.4580575359887, 18.723890657907663], [-70.45815158687635, 18.723799569542166], [-70.4581508120332, 18.723709219429917], [-70.45815003719447, 18.723618869316766], [-70.45814926236018, 18.723528519202713], [-70.45814848753031, 18.723438169087764], [-70.45814771270487, 18.723347818971906], [-70.45814693788387, 18.723257468855152], [-70.4580513377348, 18.723167856961076], [-70.45795573768643, 18.723078245010495], [-70.458050562973, 18.723077506838703], [-70.45795496297939, 18.722987894883396]]}}]}