{
"type": "FeatureCollection",
"name": "buildings_osm",
"crs": { "type": "name", "properties": { "name": "urn:ogc:def:crs:OGC:1.3:CRS84" } },
"features": [
{ "type": "Feature", "properties": { "osm_id": "way/369553860", "building": "yes" }, "geometry": { "type": "MultiPolygon", "coordinates": [ [ [ [ -70.4131894, 18.7250377 ], [ -70.4127509, 18.7248325 ], [ -70.4130058, 18.7243438 ], [ -70.4134444, 18.724549 ], [ -70.4131894, 18.7250377 ] ] ] ] } },
{ "type": "Feature", "properties": { "osm_id": "way/513212557", "building": "greenhouse" }, "geometry": { "type": "MultiPolygon", "coordinates": [ [ [ [ -70.416786, 18.7190197 ], [ -70.4167679, 18.7191964 ], [ -70.4166678, 18.7193687 ], [ -70.4161948, 18.7192567 ], [ -70.4164404, 18.7188431 ], [ -70.416786, 18.7190197 ] ] ] ] } },
{ "type": "Feature", "properties": { "osm_id": "way/531300204", "building": "yes" }, "geometry": { "type": "MultiPolygon", "coordinates": [ [ [ [ -70.4999007, 18.7968065 ], [ -70.4998833, 18.7967938 ], [ -70.4998658, 18.7967836 ], [ -70.4998591, 18.7967696 ], [ -70.4998685, 18.7967557 ], [ -70.4998806, 18.7967442 ], [ -70.499898, 18.7967442 ], [ -70.4999128, 18.7967506 ], [ -70.4999262, 18.7967595 ], [ -70.4999356, 18.7967734 ], [ -70.4999248, 18.7967874 ], [ -70.4999128, 18.7968026 ], [ -70.4999007, 18.7968065 ] ] ] ] } },
{ "type": "Feature", "properties": { "osm_id": "way/531300206", "building": "yes" }, "geometry": { "type": "MultiPolygon", "coordinates": [ [ [ [ -70.4652097, 18.7639903 ], [ -70.4651882, 18.7639599 ], [ -70.4651775, 18.7639268 ], [ -70.4651694, 18.7638938 ], [ -70.4651989, 18.7638735 ], [ -70.4652311, 18.7638634 ], [ -70.4652499, 18.7638938 ], [ -70.4652606, 18.7639268 ], [ -70.465274, 18.7639548 ], [ -70.4652097, 18.7639903 ] ] ] ] } },
{ "type": "Feature", "properties": { "osm_id": "way/531300208", "building": "yes" }, "geometry": { "type": "MultiPolygon", "coordinates": [ [ [ [ -70.4325917, 18.7381248 ], [ -70.4325521, 18.7381162 ], [ -70.432521, 18.7381094 ], [ -70.432482, 18.738101 ], [ -70.4324304, 18.7380898 ], [ -70.4324098, 18.7380853 ], [ -70.4324165, 18.7380576 ], [ -70.4324216, 18.7380365 ], [ -70.4324259, 18.7380188 ], [ -70.4324306, 18.7379995 ], [ -70.4324727, 18.7380086 ], [ -70.4324694, 18.7380222 ], [ -70.4326092, 18.7380526 ], [ -70.432606, 18.7380658 ], [ -70.4325917, 18.7381248 ] ] ] ] } },
{ "type": "Feature", "properties": { "osm_id": "way/531300211", "building": "yes" }, "geometry": { "type": "MultiPolygon", "coordinates": [ [ [ [ -70.4330518, 18.7380431 ], [ -70.4330278, 18.7380392 ], [ -70.4330102, 18.7380363 ], [ -70.4329887, 18.7380327 ], [ -70.43297, 18.7380296 ], [ -70.4329542, 18.738027 ], [ -70.4329352, 18.7380239 ], [ -70.4329179, 18.738021 ], [ -70.4328999, 18.7380181 ], [ -70.4329054, 18.7379882 ], [ -70.4329092, 18.7379677 ], [ -70.4329261, 18.7379704 ], [ -70.4329503, 18.7379744 ], [ -70.4329852, 18.7379802 ], [ -70.4330147, 18.7379851 ], [ -70.4330306, 18.7379877 ], [ -70.4330473, 18.7379905 ], [ -70.433061, 18.7379927 ], [ -70.4330518, 18.7380431 ] ] ] ] } },
{ "type": "Feature", "properties": { "osm_id": "way/531300213", "building": "yes" }, "geometry": { "type": "MultiPolygon", "coordinates": [ [ [ [ -70.4328726, 18.7379458 ], [ -70.4328674, 18.7379454 ], [ -70.43285, 18.737944 ], [ -70.4328248, 18.7379419 ], [ -70.4328159, 18.7379411 ], [ -70.4327954, 18.7379395 ], [ -70.4327735, 18.7379377 ], [ -70.4327523, 18.7379359 ], [ -70.4327586, 18.7378674 ], [ -70.432795, 18.7378704 ], [ -70.4328124, 18.7378718 ], [ -70.4328462, 18.7378746 ], [ -70.4328625, 18.7378759 ], [ -70.4328789, 18.7378773 ], [ -70.4328726, 18.7379458 ] ] ] ] } },
{ "type": "Feature", "properties": { "osm_id": "way/531300215", "building": "yes" }, "geometry": { "type": "MultiPolygon", "coordinates": [ [ [ [ -70.4330649, 18.7379524 ], [ -70.4330249, 18.7379539 ], [ -70.4330063, 18.7379545 ], [ -70.4329851, 18.7379553 ], [ -70.4329603, 18.7379562 ], [ -70.4329584, 18.7379105 ], [ -70.4329725, 18.73791 ], [ -70.4329956, 18.7379091 ], [ -70.4330148, 18.7379084 ], [ -70.4330322, 18.7379078 ], [ -70.4330509, 18.7379071 ], [ -70.4330631, 18.7379067 ], [ -70.4330649, 18.7379524 ] ] ] ] } },
{ "type": "Feature", "properties": { "osm_id": "way/531300217", "building": "yes" }, "geometry": { "type": "MultiPolygon", "coordinates": [ [ [ [ -70.4323908, 18.7380715 ], [ -70.4323968, 18.7380511 ], [ -70.4324017, 18.738034 ], [ -70.4324069, 18.7380164 ], [ -70.432354, 18.7380026 ], [ -70.4322994, 18.7379884 ], [ -70.4322936, 18.7380084 ], [ -70.4322884, 18.7380265 ], [ -70.4322834, 18.7380436 ], [ -70.4323908, 18.7380715 ] ] ] ] } },
{ "type": "Feature", "properties": { "osm_id": "way/531300219", "building": "yes" }, "geometry": { "type": "MultiPolygon", "coordinates": [ [ [ [ -70.4325449, 18.7380006 ], [ -70.4324991, 18.73799 ], [ -70.4324716, 18.7379837 ], [ -70.4324236, 18.7379726 ], [ -70.4324404, 18.7379073 ], [ -70.4325002, 18.7379211 ], [ -70.4325363, 18.7379294 ], [ -70.4325536, 18.7379334 ], [ -70.4325617, 18.7379352 ], [ -70.4325449, 18.7380006 ] ] ] ] } },
{ "type": "Feature", "properties": { "osm_id": "way/531300222", "building": "yes" }, "geometry": { "type": "MultiPolygon", "coordinates": [ [ [ [ -70.4323913, 18.7379632 ], [ -70.4323512, 18.737949 ], [ -70.4323359, 18.7379436 ], [ -70.4323044, 18.7379324 ], [ -70.4322794, 18.7379235 ], [ -70.4322443, 18.7379111 ], [ -70.4322501, 18.7378965 ], [ -70.4322565, 18.7378803 ], [ -70.4322713, 18.7378429 ], [ -70.4322851, 18.7378478 ], [ -70.4323045, 18.7378547 ], [ -70.432333, 18.7378648 ], [ -70.432364, 18.7378758 ], [ -70.4323949, 18.7378867 ], [ -70.4324182, 18.737895 ], [ -70.4323913, 18.7379632 ] ] ] ] } },
{ "type": "Feature", "properties": { "osm_id": "way/531300224", "building": "yes" }, "geometry": { "type": "MultiPolygon", "coordinates": [ [ [ [ -70.4328585, 18.7380146 ], [ -70.4328611, 18.7379928 ], [ -70.4328632, 18.737975 ], [ -70.432865, 18.7379599 ], [ -70.4327854, 18.7379514 ], [ -70.4327552, 18.7379482 ], [ -70.4327524, 18.7379718 ], [ -70.4327506, 18.737987 ], [ -70.4327487, 18.7380029 ], [ -70.4328585, 18.7380146 ] ] ] ] } },
{ "type": "Feature", "properties": { "osm_id": "way/531300226", "building": "yes" }, "geometry": { "type": "MultiPolygon", "coordinates": [ [ [ [ -70.4330517, 18.7378819 ], [ -70.4330307, 18.7378769 ], [ -70.4330005, 18.7378698 ], [ -70.4330144, 18.7378172 ], [ -70.4330348, 18.737822 ], [ -70.4330509, 18.7378258 ], [ -70.4330656, 18.7378293 ], [ -70.4330517, 18.7378819 ] ] ] ] } },
{ "type": "Feature", "properties": { "osm_id": "way/531300228", "building": "yes" }, "geometry": { "type": "MultiPolygon", "coordinates": [ [ [ [ -70.432849, 18.7378654 ], [ -70.4328261, 18.7378626 ], [ -70.4327881, 18.7378579 ], [ -70.4327525, 18.7378535 ], [ -70.4327564, 18.7378251 ], [ -70.432759, 18.7378061 ], [ -70.4327608, 18.7377932 ], [ -70.4327894, 18.7377967 ], [ -70.4328207, 18.7378006 ], [ -70.4328372, 18.7378027 ], [ -70.4328573, 18.7378052 ], [ -70.432849, 18.7378654 ] ] ] ] } },
{ "type": "Feature", "properties": { "osm_id": "way/531300230", "building": "yes" }, "geometry": { "type": "MultiPolygon", "coordinates": [ [ [ [ -70.4327672, 18.7377771 ], [ -70.4327744, 18.7377216 ], [ -70.4328865, 18.7377347 ], [ -70.4328792, 18.7377902 ], [ -70.4327672, 18.7377771 ] ] ] ] } },
{ "type": "Feature", "properties": { "osm_id": "way/531300232", "building": "yes" }, "geometry": { "type": "MultiPolygon", "coordinates": [ [ [ [ -70.4330655, 18.7377973 ], [ -70.4330415, 18.7377952 ], [ -70.4330085, 18.7377924 ], [ -70.4330136, 18.7377393 ], [ -70.4330504, 18.7377425 ], [ -70.4330706, 18.7377443 ], [ -70.4330655, 18.7377973 ] ] ] ] } },
{ "type": "Feature", "properties": { "osm_id": "way/531300234", "building": "yes" }, "geometry": { "type": "MultiPolygon", "coordinates": [ [ [ [ -70.4327857, 18.7376897 ], [ -70.4327892, 18.7376646 ], [ -70.4327931, 18.7376359 ], [ -70.4328175, 18.7376389 ], [ -70.4328528, 18.7376432 ], [ -70.4328914, 18.737648 ], [ -70.4328874, 18.7376775 ], [ -70.432884, 18.7377019 ], [ -70.4327857, 18.7376897 ] ] ] ] } },
{ "type": "Feature", "properties": { "osm_id": "way/531300237", "building": "yes" }, "geometry": { "type": "MultiPolygon", "coordinates": [ [ [ [ -70.4330857, 18.737638 ], [ -70.4330856, 18.7376146 ], [ -70.4330855, 18.7375943 ], [ -70.4330854, 18.7375827 ], [ -70.4330681, 18.7375828 ], [ -70.433048, 18.7375829 ], [ -70.4330307, 18.737583 ], [ -70.4330308, 18.737607 ], [ -70.4330309, 18.7376222 ], [ -70.433031, 18.7376383 ], [ -70.4330857, 18.737638 ] ] ] ] } },
{ "type": "Feature", "properties": { "osm_id": "way/531300239", "building": "yes" }, "geometry": { "type": "MultiPolygon", "coordinates": [ [ [ [ -70.4328053, 18.7375968 ], [ -70.4328071, 18.7375701 ], [ -70.4328089, 18.737544 ], [ -70.432829, 18.7375452 ], [ -70.4328656, 18.7375474 ], [ -70.4328916, 18.737549 ], [ -70.4328881, 18.7376019 ], [ -70.4328053, 18.7375968 ] ] ] ] } },
{ "type": "Feature", "properties": { "osm_id": "way/531300241", "building": "yes" }, "geometry": { "type": "MultiPolygon", "coordinates": [ [ [ [ -70.4326289, 18.7376654 ], [ -70.4326345, 18.7376236 ], [ -70.4326593, 18.7376266 ], [ -70.4326982, 18.7376313 ], [ -70.4326947, 18.7376568 ], [ -70.4326925, 18.7376732 ], [ -70.4326289, 18.7376654 ] ] ] ] } },
{ "type": "Feature", "properties": { "osm_id": "way/531300243", "building": "yes" }, "geometry": { "type": "MultiPolygon", "coordinates": [ [ [ [ -70.4325827, 18.7376038 ], [ -70.4325864, 18.7375381 ], [ -70.4327005, 18.7375438 ], [ -70.4326968, 18.7376095 ], [ -70.4325827, 18.7376038 ] ] ] ] } },
{ "type": "Feature", "properties": { "osm_id": "way/531300245", "building": "yes" }, "geometry": { "type": "MultiPolygon", "coordinates": [ [ [ [ -70.4328215, 18.7375135 ], [ -70.4328244, 18.7374905 ], [ -70.4328282, 18.7374611 ], [ -70.4328462, 18.7374632 ], [ -70.4328771, 18.7374667 ], [ -70.4329043, 18.7374698 ], [ -70.4329189, 18.7374715 ], [ -70.4329161, 18.7374936 ], [ -70.4329142, 18.7375083 ], [ -70.4329122, 18.7375239 ], [ -70.4328215, 18.7375135 ] ] ] ] } },
{ "type": "Feature", "properties": { "osm_id": "way/531300250", "building": "yes" }, "geometry": { "type": "MultiPolygon", "coordinates": [ [ [ [ -70.4330977, 18.7375601 ], [ -70.4331066, 18.737502 ], [ -70.4330331, 18.737492 ], [ -70.4330242, 18.73755 ], [ -70.4330977, 18.7375601 ] ] ] ] } },
{ "type": "Feature", "properties": { "osm_id": "way/531300251", "building": "yes" }, "geometry": { "type": "MultiPolygon", "coordinates": [ [ [ [ -70.4327065, 18.737517 ], [ -70.4327142, 18.7374694 ], [ -70.432619, 18.7374556 ], [ -70.4326113, 18.7375033 ], [ -70.4327065, 18.737517 ] ] ] ] } },
{ "type": "Feature", "properties": { "osm_id": "way/531300253", "building": "yes" }, "geometry": { "type": "MultiPolygon", "coordinates": [ [ [ [ -70.4329561, 18.7373782 ], [ -70.4329681, 18.7373056 ], [ -70.4328428, 18.7372871 ], [ -70.4328308, 18.7373597 ], [ -70.4329561, 18.7373782 ] ] ] ] } },
{ "type": "Feature", "properties": { "osm_id": "way/563838400", "building": "roof" }, "geometry": { "type": "MultiPolygon", "coordinates": [ [ [ [ -70.3867359, 18.6813828 ], [ -70.3866654, 18.6813799 ], [ -70.3866689, 18.6813028 ], [ -70.3867421, 18.6812993 ], [ -70.3867359, 18.6813828 ] ] ] ] } },
{ "type": "Feature", "properties": { "osm_id": "way/563838402", "building": "residential" }, "geometry": { "type": "MultiPolygon", "coordinates": [ [ [ [ -70.386816, 18.6816207 ], [ -70.3867634, 18.6815567 ], [ -70.3868173, 18.681517 ], [ -70.3868699, 18.6815809 ], [ -70.386816, 18.6816207 ] ] ] ] } },
{ "type": "Feature", "properties": { "osm_id": "way/563838404", "building": "residential" }, "geometry": { "type": "MultiPolygon", "coordinates": [ [ [ [ -70.3867578, 18.6815212 ], [ -70.3866034, 18.6815179 ], [ -70.3866047, 18.6814639 ], [ -70.386648, 18.6814648 ], [ -70.38665, 18.6813802 ], [ -70.3866654, 18.6813799 ], [ -70.3867359, 18.6813828 ], [ -70.3867324, 18.6814755 ], [ -70.3867588, 18.681476 ], [ -70.3867578, 18.6815212 ] ] ] ] } },
{ "type": "Feature", "properties": { "osm_id": "way/563838406", "name": "Cafe Samir", "building": "service" }, "geometry": { "type": "MultiPolygon", "coordinates": [ [ [ [ -70.3857306, 18.6803693 ], [ -70.3855239, 18.6803078 ], [ -70.3855906, 18.6801067 ], [ -70.3857195, 18.6801451 ], [ -70.3856854, 18.6802479 ], [ -70.3857632, 18.6802711 ], [ -70.3857306, 18.6803693 ] ] ] ] } },
{ "type": "Feature", "properties": { "osm_id": "way/563839814", "building": "residential" }, "geometry": { "type": "MultiPolygon", "coordinates": [ [ [ [ -70.3860167, 18.6816277 ], [ -70.3859658, 18.6815882 ], [ -70.386132, 18.6813962 ], [ -70.3861828, 18.6814357 ], [ -70.3860167, 18.6816277 ] ] ] ] } },
{ "type": "Feature", "properties": { "osm_id": "way/563839815", "building": "residential" }, "geometry": { "type": "MultiPolygon", "coordinates": [ [ [ [ -70.385873, 18.6808916 ], [ -70.3854516, 18.6806698 ], [ -70.385479, 18.6806231 ], [ -70.3859004, 18.6808449 ], [ -70.385873, 18.6808916 ] ] ] ] } },
{ "type": "Feature", "properties": { "osm_id": "way/563839816", "building": "residential" }, "geometry": { "type": "MultiPolygon", "coordinates": [ [ [ [ -70.3859467, 18.6807828 ], [ -70.3857156, 18.6806667 ], [ -70.3857567, 18.6805934 ], [ -70.3859878, 18.6807095 ], [ -70.3859467, 18.6807828 ] ] ] ] } },
{ "type": "Feature", "properties": { "osm_id": "way/563839817", "building": "service" }, "geometry": { "type": "MultiPolygon", "coordinates": [ [ [ [ -70.3859327, 18.6803801 ], [ -70.3858603, 18.6803188 ], [ -70.3858123, 18.6803697 ], [ -70.3858847, 18.680431 ], [ -70.3859327, 18.6803801 ] ] ] ] } },
{ "type": "Feature", "properties": { "osm_id": "way/563839818", "building": "shed" }, "geometry": { "type": "MultiPolygon", "coordinates": [ [ [ [ -70.3864466, 18.6809501 ], [ -70.3863422, 18.6807904 ], [ -70.3862855, 18.6808237 ], [ -70.3863899, 18.6809834 ], [ -70.3864466, 18.6809501 ] ] ] ] } },
{ "type": "Feature", "properties": { "osm_id": "way/563839819", "building": "service" }, "geometry": { "type": "MultiPolygon", "coordinates": [ [ [ [ -70.3858732, 18.6799461 ], [ -70.385668, 18.6800109 ], [ -70.3855942, 18.6798013 ], [ -70.3857994, 18.6797365 ], [ -70.3858732, 18.6799461 ] ] ] ] } },
{ "type": "Feature", "properties": { "osm_id": "way/563839820", "building": "service" }, "geometry": { "type": "MultiPolygon", "coordinates": [ [ [ [ -70.3862091, 18.6800929 ], [ -70.3861568, 18.6800433 ], [ -70.3862064, 18.6799963 ], [ -70.3862587, 18.6800459 ], [ -70.3862091, 18.6800929 ] ] ] ] } },
{ "type": "Feature", "properties": { "osm_id": "way/563839821", "building": "service" }, "geometry": { "type": "MultiPolygon", "coordinates": [ [ [ [ -70.3860757, 18.6801824 ], [ -70.3860381, 18.6801189 ], [ -70.3860086, 18.6801367 ], [ -70.3858852, 18.6799792 ], [ -70.3859979, 18.6798953 ], [ -70.3861561, 18.6801215 ], [ -70.3860757, 18.6801824 ] ] ] ] } },
{ "type": "Feature", "properties": { "osm_id": "way/563848004", "building": "residential" }, "geometry": { "type": "MultiPolygon", "coordinates": [ [ [ [ -70.3865638, 18.6815418 ], [ -70.3865021, 18.6815418 ], [ -70.3865021, 18.6814707 ], [ -70.3865638, 18.6814707 ], [ -70.3865638, 18.6815418 ] ] ] ] } },
{ "type": "Feature", "properties": { "osm_id": "way/642872733", "building": "farm" }, "geometry": { "type": "MultiPolygon", "coordinates": [ [ [ [ -70.5609397, 18.7091752 ], [ -70.5609169, 18.7092022 ], [ -70.5609112, 18.7092381 ], [ -70.5609928, 18.7092794 ], [ -70.5610231, 18.7092057 ], [ -70.5609397, 18.7091752 ] ] ] ] } },
{ "type": "Feature", "properties": { "osm_id": "way/642878655", "building": "farm" }, "geometry": { "type": "MultiPolygon", "coordinates": [ [ [ [ -70.5608217, 18.7092039 ], [ -70.5608047, 18.7092473 ], [ -70.5607664, 18.7092339 ], [ -70.5607835, 18.7091905 ], [ -70.5608217, 18.7092039 ] ] ] ] } },
{ "type": "Feature", "properties": { "osm_id": "way/642878773", "building": "farm" }, "geometry": { "type": "MultiPolygon", "coordinates": [ [ [ [ -70.5608099, 18.7090926 ], [ -70.5607919, 18.7091465 ], [ -70.5607625, 18.7091294 ], [ -70.5607767, 18.7090746 ], [ -70.5608099, 18.7090926 ] ] ] ] } },
{ "type": "Feature", "properties": { "osm_id": "way/642878788", "building": "farm" }, "geometry": { "type": "MultiPolygon", "coordinates": [ [ [ [ -70.5600988, 18.7105436 ], [ -70.560066, 18.7105821 ], [ -70.5600349, 18.7105708 ], [ -70.5600741, 18.7105248 ], [ -70.5600988, 18.7105436 ] ] ] ] } },
{ "type": "Feature", "properties": { "osm_id": "way/642878924", "building": "farm" }, "geometry": { "type": "MultiPolygon", "coordinates": [ [ [ [ -70.5594777, 18.7119338 ], [ -70.5594406, 18.7119617 ], [ -70.5594206, 18.711938 ], [ -70.5594577, 18.71191 ], [ -70.5594777, 18.7119338 ] ] ] ] } },
{ "type": "Feature", "properties": { "osm_id": "way/642879806", "building": "farm" }, "geometry": { "type": "MultiPolygon", "coordinates": [ [ [ [ -70.5590401, 18.7130499 ], [ -70.5590042, 18.7130832 ], [ -70.5589606, 18.7130409 ], [ -70.5589966, 18.7130076 ], [ -70.5590401, 18.7130499 ] ] ] ] } },
{ "type": "Feature", "properties": { "osm_id": "way/642879968", "building": "farm" }, "geometry": { "type": "MultiPolygon", "coordinates": [ [ [ [ -70.5584921, 18.7140576 ], [ -70.5584317, 18.714147 ], [ -70.5583674, 18.714108 ], [ -70.558439, 18.7140019 ], [ -70.5584921, 18.7140576 ] ] ] ] } },
{ "type": "Feature", "properties": { "osm_id": "way/642880054", "building": "farm" }, "geometry": { "type": "MultiPolygon", "coordinates": [ [ [ [ -70.5586625, 18.7135551 ], [ -70.5586398, 18.7135897 ], [ -70.5585878, 18.7135591 ], [ -70.5586106, 18.7135245 ], [ -70.5586625, 18.7135551 ] ] ] ] } },
{ "type": "Feature", "properties": { "osm_id": "way/642880405", "building": "farm" }, "geometry": { "type": "MultiPolygon", "coordinates": [ [ [ [ -70.5610444, 18.7144334 ], [ -70.5610171, 18.7145157 ], [ -70.5608302, 18.7144616 ], [ -70.5608542, 18.7143869 ], [ -70.5610444, 18.7144334 ] ] ] ] } },
{ "type": "Feature", "properties": { "osm_id": "way/642880495", "building": "farm" }, "geometry": { "type": "MultiPolygon", "coordinates": [ [ [ [ -70.5610538, 18.7143916 ], [ -70.5611065, 18.7143389 ], [ -70.5610619, 18.7142989 ], [ -70.5610092, 18.7143516 ], [ -70.5610538, 18.7143916 ] ] ] ] } },
{ "type": "Feature", "properties": { "osm_id": "way/642880582", "building": "farm_auxiliary" }, "geometry": { "type": "MultiPolygon", "coordinates": [ [ [ [ -70.5598161, 18.716044 ], [ -70.5598014, 18.7160795 ], [ -70.5597491, 18.7160465 ], [ -70.5597612, 18.7160046 ], [ -70.5598161, 18.716044 ] ] ] ] } },
{ "type": "Feature", "properties": { "osm_id": "way/642885263", "building": "farm_auxiliary" }, "geometry": { "type": "MultiPolygon", "coordinates": [ [ [ [ -70.5584672, 18.713874 ], [ -70.5584449, 18.7139185 ], [ -70.5583906, 18.7138997 ], [ -70.5583595, 18.7138778 ], [ -70.5583707, 18.7138506 ], [ -70.5583867, 18.7138324 ], [ -70.5584393, 18.7138536 ], [ -70.5584672, 18.713874 ] ] ] ] } },
{ "type": "Feature", "properties": { "osm_id": "way/642885272", "building": "farm_auxiliary" }, "geometry": { "type": "MultiPolygon", "coordinates": [ [ [ [ -70.5585757, 18.7131448 ], [ -70.5585397, 18.7131627 ], [ -70.5585207, 18.713116 ], [ -70.5585776, 18.7130963 ], [ -70.5586004, 18.7131304 ], [ -70.5585757, 18.7131448 ] ] ] ] } },
{ "type": "Feature", "properties": { "osm_id": "way/642886353", "building": "farm_auxiliary" }, "geometry": { "type": "MultiPolygon", "coordinates": [ [ [ [ -70.5689362, 18.7118621 ], [ -70.5689204, 18.7119027 ], [ -70.5688798, 18.7118728 ], [ -70.5689046, 18.7118194 ], [ -70.568934, 18.7118444 ], [ -70.5689362, 18.7118621 ] ] ] ] } },
{ "type": "Feature", "properties": { "osm_id": "way/642890544", "building": "yes" }, "geometry": { "type": "MultiPolygon", "coordinates": [ [ [ [ -70.4491021, 18.7021822 ], [ -70.4480374, 18.7025449 ], [ -70.4478879, 18.7021999 ], [ -70.4489807, 18.7018637 ], [ -70.4490461, 18.7019699 ], [ -70.4491021, 18.7021822 ] ] ] ] } },
{ "type": "Feature", "properties": { "osm_id": "way/642890545", "building": "greenhouse" }, "geometry": { "type": "MultiPolygon", "coordinates": [ [ [ [ -70.4459451, 18.7014153 ], [ -70.4450391, 18.7017237 ], [ -70.4447082, 18.7008643 ], [ -70.4456214, 18.7005535 ], [ -70.4459451, 18.7014153 ] ] ] ] } },
{ "type": "Feature", "properties": { "osm_id": "way/642890546", "name": "Greenhouse", "building": "yes" }, "geometry": { "type": "MultiPolygon", "coordinates": [ [ [ [ -70.4548041, 18.6988367 ], [ -70.4546176, 18.6989615 ], [ -70.4528057, 18.6993741 ], [ -70.4520347, 18.6977228 ], [ -70.4531007, 18.6974038 ], [ -70.4532027, 18.6977094 ], [ -70.4542093, 18.6974082 ], [ -70.4542534, 18.6975404 ], [ -70.4543952, 18.6979657 ], [ -70.4545431, 18.6981525 ], [ -70.4547441, 18.6985613 ], [ -70.4548041, 18.6988367 ] ] ] ] } },
{ "type": "Feature", "properties": { "osm_id": "way/642890548", "building": "greenhouse" }, "geometry": { "type": "MultiPolygon", "coordinates": [ [ [ [ -70.4566353, 18.7070531 ], [ -70.4563002, 18.7074627 ], [ -70.4544938, 18.7058121 ], [ -70.455034, 18.7054593 ], [ -70.4556735, 18.7061649 ], [ -70.456077, 18.7066001 ], [ -70.4562695, 18.7067412 ], [ -70.4566353, 18.7070531 ] ] ] ] } },
{ "type": "Feature", "properties": { "osm_id": "way/642890550", "building": "greenhouse" }, "geometry": { "type": "MultiPolygon", "coordinates": [ [ [ [ -70.454286, 18.7102773 ], [ -70.4530309, 18.7103854 ], [ -70.4529595, 18.7092641 ], [ -70.4526315, 18.7092911 ], [ -70.45266, 18.7088994 ], [ -70.4527028, 18.7084941 ], [ -70.453416, 18.7083049 ], [ -70.4534873, 18.7085481 ], [ -70.454015, 18.7085076 ], [ -70.454286, 18.7102773 ] ] ] ] } },
{ "type": "Feature", "properties": { "osm_id": "way/642890551", "building": "yes" }, "geometry": { "type": "MultiPolygon", "coordinates": [ [ [ [ -70.4474463, 18.6992325 ], [ -70.4472726, 18.6992183 ], [ -70.4472937, 18.6989864 ], [ -70.4474674, 18.6990006 ], [ -70.4474463, 18.6992325 ] ] ] ] } },
{ "type": "Feature", "properties": { "osm_id": "way/642890552", "building": "yes" }, "geometry": { "type": "MultiPolygon", "coordinates": [ [ [ [ -70.4476842, 18.6991256 ], [ -70.4475276, 18.6991023 ], [ -70.4475389, 18.6990343 ], [ -70.4476955, 18.6990576 ], [ -70.4476842, 18.6991256 ] ] ] ] } },
{ "type": "Feature", "properties": { "osm_id": "way/642890553", "building": "house" }, "geometry": { "type": "MultiPolygon", "coordinates": [ [ [ [ -70.4524048, 18.7031998 ], [ -70.4524762, 18.7031234 ], [ -70.4523614, 18.7030028 ], [ -70.4522807, 18.703091 ], [ -70.4524048, 18.7031998 ] ] ] ] } },
{ "type": "Feature", "properties": { "osm_id": "way/642890554", "building": "house" }, "geometry": { "type": "MultiPolygon", "coordinates": [ [ [ [ -70.4526916, 18.7033822 ], [ -70.4526267, 18.7034111 ], [ -70.4525793, 18.7033157 ], [ -70.45261, 18.7032866 ], [ -70.4526489, 18.7032963 ], [ -70.4526916, 18.7033822 ] ] ] ] } },
{ "type": "Feature", "properties": { "osm_id": "way/642890555", "building": "house" }, "geometry": { "type": "MultiPolygon", "coordinates": [ [ [ [ -70.452615, 18.7034098 ], [ -70.4524554, 18.70352 ], [ -70.4523927, 18.7034384 ], [ -70.4525523, 18.7033282 ], [ -70.452615, 18.7034098 ] ] ] ] } },
{ "type": "Feature", "properties": { "osm_id": "way/642890557", "building": "house" }, "geometry": { "type": "MultiPolygon", "coordinates": [ [ [ [ -70.4528592, 18.7036312 ], [ -70.4528253, 18.7035856 ], [ -70.4527557, 18.7036414 ], [ -70.4527201, 18.7036126 ], [ -70.4526951, 18.7036397 ], [ -70.4527076, 18.7036734 ], [ -70.452745, 18.7037022 ], [ -70.4527754, 18.7037275 ], [ -70.4528288, 18.7036886 ], [ -70.4528128, 18.7036582 ], [ -70.4528592, 18.7036312 ] ] ] ] } },
{ "type": "Feature", "properties": { "osm_id": "way/642890559", "building": "house" }, "geometry": { "type": "MultiPolygon", "coordinates": [ [ [ [ -70.4529586, 18.7036206 ], [ -70.4529132, 18.7036478 ], [ -70.4528558, 18.7035621 ], [ -70.4529012, 18.7035348 ], [ -70.4529586, 18.7036206 ] ] ] ] } },
{ "type": "Feature", "properties": { "osm_id": "way/642890560", "building": "yes" }, "geometry": { "type": "MultiPolygon", "coordinates": [ [ [ [ -70.4457795, 18.7003001 ], [ -70.4456101, 18.7003691 ], [ -70.4455866, 18.7003112 ], [ -70.4456877, 18.7002644 ], [ -70.4457465, 18.7002466 ], [ -70.4457795, 18.7003001 ] ] ] ] } },
{ "type": "Feature", "properties": { "osm_id": "way/642890562", "building": "yes" }, "geometry": { "type": "MultiPolygon", "coordinates": [ [ [ [ -70.4452781, 18.7005496 ], [ -70.4451652, 18.7005856 ], [ -70.4451364, 18.7005048 ], [ -70.4452494, 18.7004687 ], [ -70.4452781, 18.7005496 ] ] ] ] } },
{ "type": "Feature", "properties": { "osm_id": "way/642890564", "building": "yes" }, "geometry": { "type": "MultiPolygon", "coordinates": [ [ [ [ -70.4448756, 18.70001 ], [ -70.4448116, 18.7000413 ], [ -70.4447498, 18.6999279 ], [ -70.4448138, 18.6998966 ], [ -70.4448756, 18.70001 ] ] ] ] } },
{ "type": "Feature", "properties": { "osm_id": "way/642890567", "building": "yes" }, "geometry": { "type": "MultiPolygon", "coordinates": [ [ [ [ -70.4463813, 18.6995761 ], [ -70.4463403, 18.699593 ], [ -70.4462904, 18.6996318 ], [ -70.4463456, 18.6996943 ], [ -70.4463938, 18.6996757 ], [ -70.4464312, 18.6996453 ], [ -70.4464241, 18.69962 ], [ -70.4463813, 18.6995761 ] ] ] ] } },
{ "type": "Feature", "properties": { "osm_id": "way/642890569", "building": "yes" }, "geometry": { "type": "MultiPolygon", "coordinates": [ [ [ [ -70.4462476, 18.6994239 ], [ -70.446178, 18.699468 ], [ -70.4461691, 18.6994967 ], [ -70.4461347, 18.6995134 ], [ -70.4461549, 18.6995507 ], [ -70.4461977, 18.6995136 ], [ -70.446228, 18.6995204 ], [ -70.4462886, 18.6994819 ], [ -70.4462476, 18.6994239 ] ] ] ] } },
{ "type": "Feature", "properties": { "osm_id": "way/642890570", "building": "yes" }, "geometry": { "type": "MultiPolygon", "coordinates": [ [ [ [ -70.4461549, 18.6993211 ], [ -70.4461103, 18.6993278 ], [ -70.4460132, 18.699367 ], [ -70.446042, 18.6994301 ], [ -70.4461103, 18.6994021 ], [ -70.4461584, 18.6993988 ], [ -70.446178, 18.6993819 ], [ -70.4461905, 18.6993548 ], [ -70.4461691, 18.6993396 ], [ -70.4461549, 18.6993211 ] ] ] ] } },
{ "type": "Feature", "properties": { "osm_id": "way/642890571", "building": "yes" }, "geometry": { "type": "MultiPolygon", "coordinates": [ [ [ [ -70.4454535, 18.6992872 ], [ -70.4453979, 18.6992791 ], [ -70.4453754, 18.6993043 ], [ -70.4453918, 18.6993625 ], [ -70.4454402, 18.6993695 ], [ -70.4454535, 18.6992872 ] ] ] ] } },
{ "type": "Feature", "properties": { "osm_id": "way/642890572", "building": "yes" }, "geometry": { "type": "MultiPolygon", "coordinates": [ [ [ [ -70.4456033, 18.6984662 ], [ -70.4455233, 18.6985219 ], [ -70.4454998, 18.6985242 ], [ -70.4454786, 18.6985554 ], [ -70.4454433, 18.698513 ], [ -70.4454363, 18.6984907 ], [ -70.4454119, 18.6984987 ], [ -70.4453978, 18.6984887 ], [ -70.4454519, 18.6984251 ], [ -70.4454601, 18.698404 ], [ -70.4455154, 18.698355 ], [ -70.4455413, 18.6983694 ], [ -70.4456033, 18.6984662 ] ] ] ] } },
{ "type": "Feature", "properties": { "osm_id": "way/642890573", "building": "yes" }, "geometry": { "type": "MultiPolygon", "coordinates": [ [ [ [ -70.4451818, 18.6986702 ], [ -70.4450827, 18.6986343 ], [ -70.4450459, 18.6986672 ], [ -70.4449776, 18.6986463 ], [ -70.4449578, 18.6987041 ], [ -70.4449742, 18.6987409 ], [ -70.444968, 18.6987595 ], [ -70.4450479, 18.6987836 ], [ -70.4451155, 18.6988341 ], [ -70.4451818, 18.6986702 ] ] ] ] } },
{ "type": "Feature", "properties": { "osm_id": "way/642890574", "building": "yes" }, "geometry": { "type": "MultiPolygon", "coordinates": [ [ [ [ -70.4449867, 18.6989764 ], [ -70.4450259, 18.6988962 ], [ -70.445063, 18.6988234 ], [ -70.4449723, 18.6987819 ], [ -70.4449185, 18.6987561 ], [ -70.4448841, 18.6988205 ], [ -70.4448698, 18.6989252 ], [ -70.4449867, 18.6989764 ] ] ] ] } },
{ "type": "Feature", "properties": { "osm_id": "way/642890575", "building": "yes" }, "geometry": { "type": "MultiPolygon", "coordinates": [ [ [ [ -70.4453976, 18.6987156 ], [ -70.4453273, 18.6986669 ], [ -70.4452895, 18.6986593 ], [ -70.4452706, 18.6987361 ], [ -70.4452544, 18.6988077 ], [ -70.445276, 18.6988282 ], [ -70.4453395, 18.6988397 ], [ -70.4453976, 18.6987156 ] ] ] ] } },
{ "type": "Feature", "properties": { "osm_id": "way/642890576", "building": "yes" }, "geometry": { "type": "MultiPolygon", "coordinates": [ [ [ [ -70.4458384, 18.698805 ], [ -70.4457668, 18.6988294 ], [ -70.4457006, 18.698869 ], [ -70.4457222, 18.6989228 ], [ -70.4457222, 18.698933 ], [ -70.4457979, 18.6988985 ], [ -70.44581, 18.6989202 ], [ -70.4458479, 18.6989049 ], [ -70.4458708, 18.6989125 ], [ -70.4458897, 18.6988921 ], [ -70.4458384, 18.698805 ] ] ] ] } },
{ "type": "Feature", "properties": { "osm_id": "way/642890577", "building": "yes" }, "geometry": { "type": "MultiPolygon", "coordinates": [ [ [ [ -70.446784, 18.6983881 ], [ -70.4465723, 18.6983168 ], [ -70.446537, 18.6984215 ], [ -70.4465111, 18.698504 ], [ -70.4464617, 18.6986288 ], [ -70.4466146, 18.6987536 ], [ -70.4466758, 18.6986087 ], [ -70.446784, 18.6983881 ] ] ] ] } },
{ "type": "Feature", "properties": { "osm_id": "way/642890578", "building": "yes" }, "geometry": { "type": "MultiPolygon", "coordinates": [ [ [ [ -70.4461785, 18.6989822 ], [ -70.4460904, 18.6990346 ], [ -70.4459823, 18.6988716 ], [ -70.4460048, 18.6988231 ], [ -70.4460621, 18.6988095 ], [ -70.4461785, 18.6989822 ] ] ] ] } },
{ "type": "Feature", "properties": { "osm_id": "way/642890579", "building": "yes" }, "geometry": { "type": "MultiPolygon", "coordinates": [ [ [ [ -70.4463489, 18.6991393 ], [ -70.4462464, 18.6991936 ], [ -70.4462014, 18.6991315 ], [ -70.4462772, 18.6990947 ], [ -70.4462956, 18.6990733 ], [ -70.4463284, 18.6990791 ], [ -70.4463489, 18.6991393 ] ] ] ] } },
{ "type": "Feature", "properties": { "osm_id": "way/642890580", "building": "yes" }, "geometry": { "type": "MultiPolygon", "coordinates": [ [ [ [ -70.4463489, 18.6990384 ], [ -70.446271, 18.6990733 ], [ -70.4462239, 18.6990015 ], [ -70.4462403, 18.6989802 ], [ -70.4463058, 18.6989647 ], [ -70.4463489, 18.6990384 ] ] ] ] } },
{ "type": "Feature", "properties": { "osm_id": "way/642891033", "building": "farm_auxiliary" }, "geometry": { "type": "MultiPolygon", "coordinates": [ [ [ [ -70.5655034, 18.7279094 ], [ -70.5654313, 18.7279094 ], [ -70.5654179, 18.7278636 ], [ -70.5655034, 18.7278411 ], [ -70.5655034, 18.7279094 ] ] ] ] } },
{ "type": "Feature", "properties": { "osm_id": "way/642893217", "building": "greenhouse" }, "geometry": { "type": "MultiPolygon", "coordinates": [ [ [ [ -70.4614726, 18.7265696 ], [ -70.4617491, 18.7264387 ], [ -70.4618466, 18.7263925 ], [ -70.4620011, 18.7266774 ], [ -70.46218, 18.7268776 ], [ -70.4621068, 18.7270393 ], [ -70.4618954, 18.7271856 ], [ -70.4615864, 18.727278 ], [ -70.4614645, 18.7273011 ], [ -70.461188, 18.7272857 ], [ -70.4609766, 18.7272703 ], [ -70.4607408, 18.727278 ], [ -70.4602774, 18.7272318 ], [ -70.4600253, 18.7272395 ], [ -70.4598302, 18.7272549 ], [ -70.4596838, 18.7272164 ], [ -70.4597732, 18.7269007 ], [ -70.4598627, 18.7265157 ], [ -70.4598627, 18.726354 ], [ -70.4599277, 18.7261076 ], [ -70.4599928, 18.7258688 ], [ -70.4600904, 18.7256532 ], [ -70.4602448, 18.72553 ], [ -70.4604725, 18.7254068 ], [ -70.4608384, 18.7252605 ], [ -70.4610254, 18.7251373 ], [ -70.4611311, 18.7251835 ], [ -70.4610661, 18.7255685 ], [ -70.4610579, 18.725838 ], [ -70.4611311, 18.7260691 ], [ -70.4611474, 18.7262539 ], [ -70.4611311, 18.7264464 ], [ -70.461123, 18.7265311 ], [ -70.4611311, 18.7266004 ], [ -70.4612612, 18.7266697 ], [ -70.4613344, 18.7266851 ], [ -70.4614726, 18.7265696 ] ] ] ] } },
{ "type": "Feature", "properties": { "osm_id": "way/642893218", "building": "greenhouse" }, "geometry": { "type": "MultiPolygon", "coordinates": [ [ [ [ -70.4622145, 18.724116 ], [ -70.4618765, 18.7240551 ], [ -70.4609968, 18.7237553 ], [ -70.4611255, 18.7233946 ], [ -70.4611577, 18.7232625 ], [ -70.4612435, 18.723227 ], [ -70.4613455, 18.7231965 ], [ -70.461442, 18.7232574 ], [ -70.4616083, 18.7233946 ], [ -70.4617424, 18.7235623 ], [ -70.4620375, 18.7236385 ], [ -70.4622306, 18.7237045 ], [ -70.4623432, 18.723735 ], [ -70.4622574, 18.7239281 ], [ -70.4622145, 18.724116 ] ] ] ] } },
{ "type": "Feature", "properties": { "osm_id": "way/642893219", "building": "greenhouse" }, "geometry": { "type": "MultiPolygon", "coordinates": [ [ [ [ -70.4640276, 18.7187397 ], [ -70.4638613, 18.718944 ], [ -70.463738, 18.7190841 ], [ -70.4636025, 18.719014 ], [ -70.4633005, 18.7187747 ], [ -70.4629678, 18.7185588 ], [ -70.4628014, 18.7184654 ], [ -70.4628507, 18.7183487 ], [ -70.4629554, 18.718232 ], [ -70.4630602, 18.7181153 ], [ -70.4631156, 18.7180335 ], [ -70.4640276, 18.7187397 ] ] ] ] } },
{ "type": "Feature", "properties": { "osm_id": "way/642894610", "building": "yes" }, "geometry": { "type": "MultiPolygon", "coordinates": [ [ [ [ -70.5685598, 18.6547536 ], [ -70.5685115, 18.6546926 ], [ -70.5684525, 18.6547231 ], [ -70.5684954, 18.6547841 ], [ -70.5685598, 18.6547536 ] ] ] ] } },
{ "type": "Feature", "properties": { "osm_id": "way/642894944", "building": "yes" }, "geometry": { "type": "MultiPolygon", "coordinates": [ [ [ [ -70.5674024, 18.6526316 ], [ -70.5673675, 18.6526875 ], [ -70.5672817, 18.6526367 ], [ -70.5673165, 18.6525808 ], [ -70.5674024, 18.6526316 ] ] ] ] } },
{ "type": "Feature", "properties": { "osm_id": "way/642894945", "building": "yes" }, "geometry": { "type": "MultiPolygon", "coordinates": [ [ [ [ -70.5672441, 18.6528425 ], [ -70.5672227, 18.652718 ], [ -70.5671342, 18.6527409 ], [ -70.5671529, 18.652868 ], [ -70.567169, 18.6529417 ], [ -70.5672093, 18.6529391 ], [ -70.5671878, 18.6528603 ], [ -70.5672441, 18.6528425 ] ] ] ] } },
{ "type": "Feature", "properties": { "osm_id": "way/642896449", "building": "yes" }, "geometry": { "type": "MultiPolygon", "coordinates": [ [ [ [ -70.5657622, 18.6519378 ], [ -70.56573, 18.6518895 ], [ -70.5656683, 18.6519226 ], [ -70.5657059, 18.6519683 ], [ -70.5657622, 18.6519378 ] ] ] ] } },
{ "type": "Feature", "properties": { "osm_id": "way/642896450", "building": "yes" }, "geometry": { "type": "MultiPolygon", "coordinates": [ [ [ [ -70.5661619, 18.6517167 ], [ -70.5661189, 18.6516405 ], [ -70.5660331, 18.6517091 ], [ -70.5660787, 18.6517701 ], [ -70.5661619, 18.6517167 ] ] ] ] } },
{ "type": "Feature", "properties": { "osm_id": "way/642896451", "building": "yes" }, "geometry": { "type": "MultiPolygon", "coordinates": [ [ [ [ -70.5660492, 18.6517803 ], [ -70.5660143, 18.6517116 ], [ -70.5659205, 18.6517853 ], [ -70.5659553, 18.6518387 ], [ -70.5660492, 18.6517803 ] ] ] ] } },
{ "type": "Feature", "properties": { "osm_id": "way/642896452", "building": "yes" }, "geometry": { "type": "MultiPolygon", "coordinates": [ [ [ [ -70.565258, 18.6522631 ], [ -70.5652311, 18.6522072 ], [ -70.5651882, 18.6522377 ], [ -70.5652016, 18.652286 ], [ -70.565258, 18.6522631 ] ] ] ] } },
{ "type": "Feature", "properties": { "osm_id": "way/642896453", "building": "yes" }, "geometry": { "type": "MultiPolygon", "coordinates": [ [ [ [ -70.565274, 18.6522504 ], [ -70.5652499, 18.652197 ], [ -70.5653411, 18.6521411 ], [ -70.5653679, 18.6522021 ], [ -70.565274, 18.6522504 ] ] ] ] } },
{ "type": "Feature", "properties": { "osm_id": "way/642897596", "building": "yes" }, "geometry": { "type": "MultiPolygon", "coordinates": [ [ [ [ -70.5671114, 18.6514169 ], [ -70.5670658, 18.651333 ], [ -70.5669397, 18.6514321 ], [ -70.566988, 18.6514804 ], [ -70.5671114, 18.6514169 ] ] ] ] } },
{ "type": "Feature", "properties": { "osm_id": "way/642897597", "building": "yes" }, "geometry": { "type": "MultiPolygon", "coordinates": [ [ [ [ -70.5682352, 18.651793 ], [ -70.5682057, 18.6516913 ], [ -70.5681145, 18.6516939 ], [ -70.5681145, 18.6517574 ], [ -70.5681682, 18.6517625 ], [ -70.5681896, 18.6518158 ], [ -70.5682352, 18.651793 ] ] ] ] } },
{ "type": "Feature", "properties": { "osm_id": "way/642897598", "building": "yes" }, "geometry": { "type": "MultiPolygon", "coordinates": [ [ [ [ -70.5686322, 18.6519022 ], [ -70.5685839, 18.6518768 ], [ -70.5685517, 18.6519378 ], [ -70.5686, 18.6519607 ], [ -70.5686322, 18.6519022 ] ] ] ] } },
{ "type": "Feature", "properties": { "osm_id": "way/642897600", "building": "yes" }, "geometry": { "type": "MultiPolygon", "coordinates": [ [ [ [ -70.5681547, 18.6516049 ], [ -70.5681467, 18.6515643 ], [ -70.5681011, 18.6515592 ], [ -70.5681065, 18.6516125 ], [ -70.5681547, 18.6516049 ] ] ] ] } },
{ "type": "Feature", "properties": { "osm_id": "way/642897601", "building": "yes" }, "geometry": { "type": "MultiPolygon", "coordinates": [ [ [ [ -70.5684659, 18.6510128 ], [ -70.5684203, 18.6509696 ], [ -70.5683854, 18.6509975 ], [ -70.5684283, 18.6510407 ], [ -70.5684659, 18.6510128 ] ] ] ] } },
{ "type": "Feature", "properties": { "osm_id": "way/642897602", "building": "yes" }, "geometry": { "type": "MultiPolygon", "coordinates": [ [ [ [ -70.5683854, 18.6508959 ], [ -70.5683398, 18.6508476 ], [ -70.5682781, 18.6508933 ], [ -70.5683291, 18.6509391 ], [ -70.5683854, 18.6508959 ] ] ] ] } },
{ "type": "Feature", "properties": { "osm_id": "way/642897603", "building": "yes" }, "geometry": { "type": "MultiPolygon", "coordinates": [ [ [ [ -70.5675539, 18.6509416 ], [ -70.5675271, 18.6508832 ], [ -70.5674574, 18.6509111 ], [ -70.5674949, 18.6509594 ], [ -70.5675539, 18.6509416 ] ] ] ] } },
{ "type": "Feature", "properties": { "osm_id": "way/642897604", "building": "yes" }, "geometry": { "type": "MultiPolygon", "coordinates": [ [ [ [ -70.5674413, 18.6507485 ], [ -70.5674144, 18.6507002 ], [ -70.5673528, 18.6507256 ], [ -70.5673876, 18.6507739 ], [ -70.5674413, 18.6507485 ] ] ] ] } },
{ "type": "Feature", "properties": { "osm_id": "way/642898031", "building": "yes" }, "geometry": { "type": "MultiPolygon", "coordinates": [ [ [ [ -70.5689299, 18.6519772 ], [ -70.5689192, 18.6519315 ], [ -70.5688602, 18.6519518 ], [ -70.5688709, 18.6520026 ], [ -70.5689299, 18.6519772 ] ] ] ] } },
{ "type": "Feature", "properties": { "osm_id": "way/642898032", "building": "yes" }, "geometry": { "type": "MultiPolygon", "coordinates": [ [ [ [ -70.5690908, 18.6518502 ], [ -70.5690586, 18.6517942 ], [ -70.5689996, 18.6518247 ], [ -70.5690372, 18.6518806 ], [ -70.5690908, 18.6518502 ] ] ] ] } },
{ "type": "Feature", "properties": { "osm_id": "way/642898033", "building": "yes" }, "geometry": { "type": "MultiPolygon", "coordinates": [ [ [ [ -70.5693912, 18.6518095 ], [ -70.5693591, 18.6517841 ], [ -70.5693108, 18.6518451 ], [ -70.5693537, 18.6518654 ], [ -70.5693912, 18.6518095 ] ] ] ] } },
{ "type": "Feature", "properties": { "osm_id": "way/642898034", "building": "yes" }, "geometry": { "type": "MultiPolygon", "coordinates": [ [ [ [ -70.5691552, 18.651779 ], [ -70.5691284, 18.6517282 ], [ -70.5690801, 18.6517637 ], [ -70.5691177, 18.6518095 ], [ -70.5691552, 18.651779 ] ] ] ] } },
{ "type": "Feature", "properties": { "osm_id": "way/659593663", "building": "house" }, "geometry": { "type": "MultiPolygon", "coordinates": [ [ [ [ -70.3922155, 18.7709112 ], [ -70.3921679, 18.7709215 ], [ -70.3921574, 18.7708778 ], [ -70.392205, 18.7708675 ], [ -70.3922155, 18.7709112 ] ] ] ] } },
{ "type": "Feature", "properties": { "osm_id": "way/932977623", "building": "greenhouse" }, "geometry": { "type": "MultiPolygon", "coordinates": [ [ [ [ -70.4300791, 18.7393848 ], [ -70.4298516, 18.7391209 ], [ -70.429786, 18.7391716 ], [ -70.4296365, 18.7389982 ], [ -70.4301699, 18.7385858 ], [ -70.4305469, 18.7390232 ], [ -70.4300791, 18.7393848 ] ] ] ] } },
{ "type": "Feature", "properties": { "osm_id": "way/932977624", "building": "greenhouse" }, "geometry": { "type": "MultiPolygon", "coordinates": [ [ [ [ -70.4296388, 18.7389905 ], [ -70.4293343, 18.7388712 ], [ -70.4295051, 18.7384807 ], [ -70.4298095, 18.7386001 ], [ -70.4296388, 18.7389905 ] ] ] ] } },
{ "type": "Feature", "properties": { "osm_id": "way/932977625", "building": "yes" }, "geometry": { "type": "MultiPolygon", "coordinates": [ [ [ [ -70.4299231, 18.7381561 ], [ -70.4299244, 18.7381117 ], [ -70.4300049, 18.7381139 ], [ -70.4300035, 18.7381583 ], [ -70.4299231, 18.7381561 ] ] ] ] } },
{ "type": "Feature", "properties": { "osm_id": "way/932977626", "building": "yes" }, "geometry": { "type": "MultiPolygon", "coordinates": [ [ [ [ -70.4293987, 18.7379009 ], [ -70.4293545, 18.7379364 ], [ -70.429301, 18.7378767 ], [ -70.4293452, 18.7378412 ], [ -70.4293987, 18.7379009 ] ] ] ] } },
{ "type": "Feature", "properties": { "osm_id": "way/932977629", "building": "yes" }, "geometry": { "type": "MultiPolygon", "coordinates": [ [ [ [ -70.4302664, 18.7369204 ], [ -70.4303522, 18.7368188 ], [ -70.4304291, 18.736877 ], [ -70.4303433, 18.7369786 ], [ -70.4302664, 18.7369204 ] ] ] ] } },
{ "type": "Feature", "properties": { "osm_id": "way/932977630", "building": "yes" }, "geometry": { "type": "MultiPolygon", "coordinates": [ [ [ [ -70.4326764, 18.7383936 ], [ -70.4325543, 18.738353 ], [ -70.4325819, 18.7382788 ], [ -70.4327039, 18.7383194 ], [ -70.4326764, 18.7383936 ] ] ] ] } },
{ "type": "Feature", "properties": { "osm_id": "way/932977631", "building": "yes" }, "geometry": { "type": "MultiPolygon", "coordinates": [ [ [ [ -70.4331605, 18.7380342 ], [ -70.4332588, 18.7380382 ], [ -70.4332561, 18.7380979 ], [ -70.4331578, 18.7380939 ], [ -70.4331605, 18.7380342 ] ] ] ] } },
{ "type": "Feature", "properties": { "osm_id": "way/932977632", "building": "yes" }, "geometry": { "type": "MultiPolygon", "coordinates": [ [ [ [ -70.4331297, 18.7381409 ], [ -70.433135, 18.7381066 ], [ -70.4332611, 18.7381243 ], [ -70.4332557, 18.7381586 ], [ -70.4331297, 18.7381409 ] ] ] ] } },
{ "type": "Feature", "properties": { "osm_id": "way/932977633", "building": "yes" }, "geometry": { "type": "MultiPolygon", "coordinates": [ [ [ [ -70.4333791, 18.7386007 ], [ -70.4334073, 18.7385537 ], [ -70.4334653, 18.7385848 ], [ -70.4334371, 18.7386318 ], [ -70.4333791, 18.7386007 ] ] ] ] } },
{ "type": "Feature", "properties": { "osm_id": "way/932977634", "building": "yes" }, "geometry": { "type": "MultiPolygon", "coordinates": [ [ [ [ -70.4335333, 18.7387315 ], [ -70.4334367, 18.7386953 ], [ -70.4335024, 18.7385378 ], [ -70.4335991, 18.738574 ], [ -70.4335333, 18.7387315 ] ] ] ] } },
{ "type": "Feature", "properties": { "osm_id": "way/932977635", "building": "yes" }, "geometry": { "type": "MultiPolygon", "coordinates": [ [ [ [ -70.4333241, 18.7385943 ], [ -70.433207, 18.7385311 ], [ -70.4332727, 18.7384219 ], [ -70.4333898, 18.7384851 ], [ -70.4333241, 18.7385943 ] ] ] ] } },
{ "type": "Feature", "properties": { "osm_id": "way/932977636", "building": "yes" }, "geometry": { "type": "MultiPolygon", "coordinates": [ [ [ [ -70.4331458, 18.7386388 ], [ -70.433076, 18.7386222 ], [ -70.4331002, 18.7385308 ], [ -70.4331699, 18.7385473 ], [ -70.4331458, 18.7386388 ] ] ] ] } },
{ "type": "Feature", "properties": { "osm_id": "way/932977637", "building": "yes" }, "geometry": { "type": "MultiPolygon", "coordinates": [ [ [ [ -70.4331672, 18.7385245 ], [ -70.4330908, 18.7385118 ], [ -70.433108, 18.7384185 ], [ -70.4331845, 18.7384312 ], [ -70.4331672, 18.7385245 ] ] ] ] } },
{ "type": "Feature", "properties": { "osm_id": "way/932977638", "building": "yes" }, "geometry": { "type": "MultiPolygon", "coordinates": [ [ [ [ -70.4329446, 18.7384737 ], [ -70.4328547, 18.7384495 ], [ -70.4328838, 18.7383526 ], [ -70.4329736, 18.7383767 ], [ -70.4329446, 18.7384737 ] ] ] ] } },
{ "type": "Feature", "properties": { "osm_id": "way/932977639", "building": "yes" }, "geometry": { "type": "MultiPolygon", "coordinates": [ [ [ [ -70.4330412, 18.7385626 ], [ -70.4329406, 18.738527 ], [ -70.4329916, 18.7383975 ], [ -70.4330922, 18.738433 ], [ -70.4330412, 18.7385626 ] ] ] ] } },
{ "type": "Feature", "properties": { "osm_id": "way/932977640", "building": "yes" }, "geometry": { "type": "MultiPolygon", "coordinates": [ [ [ [ -70.432958, 18.7386388 ], [ -70.4328476, 18.7386 ], [ -70.4328784, 18.7385212 ], [ -70.4329889, 18.73856 ], [ -70.432958, 18.7386388 ] ] ] ] } },
{ "type": "Feature", "properties": { "osm_id": "way/932977641", "building": "yes" }, "geometry": { "type": "MultiPolygon", "coordinates": [ [ [ [ -70.4330572, 18.7389016 ], [ -70.4330572, 18.7388166 ], [ -70.4331927, 18.7388166 ], [ -70.4331927, 18.7389016 ], [ -70.4330572, 18.7389016 ] ] ] ] } },
{ "type": "Feature", "properties": { "osm_id": "way/932977642", "building": "yes" }, "geometry": { "type": "MultiPolygon", "coordinates": [ [ [ [ -70.4331927, 18.7388115 ], [ -70.4330767, 18.738801 ], [ -70.4330915, 18.7386549 ], [ -70.4332075, 18.7386654 ], [ -70.4331927, 18.7388115 ] ] ] ] } },
{ "type": "Feature", "properties": { "osm_id": "way/932977643", "building": "house" }, "geometry": { "type": "MultiPolygon", "coordinates": [ [ [ [ -70.4344936, 18.7382743 ], [ -70.434382, 18.7381994 ], [ -70.4345027, 18.7380381 ], [ -70.4346143, 18.738113 ], [ -70.4344936, 18.7382743 ] ] ] ] } },
{ "type": "Feature", "properties": { "osm_id": "way/932977644", "building": "yes" }, "geometry": { "type": "MultiPolygon", "coordinates": [ [ [ [ -70.434503, 18.7386591 ], [ -70.4343568, 18.7384737 ], [ -70.4344374, 18.7384167 ], [ -70.4345836, 18.7386021 ], [ -70.434503, 18.7386591 ] ] ] ] } },
{ "type": "Feature", "properties": { "osm_id": "way/932977645", "building": "yes" }, "geometry": { "type": "MultiPolygon", "coordinates": [ [ [ [ -70.4344976, 18.7394338 ], [ -70.4344788, 18.7393652 ], [ -70.4345868, 18.7393387 ], [ -70.4346056, 18.7394073 ], [ -70.4344976, 18.7394338 ] ] ] ] } },
{ "type": "Feature", "properties": { "osm_id": "way/932977646", "building": "yes" }, "geometry": { "type": "MultiPolygon", "coordinates": [ [ [ [ -70.4345217, 18.739543 ], [ -70.4344882, 18.7394706 ], [ -70.4345769, 18.7394338 ], [ -70.4346105, 18.7395061 ], [ -70.4345217, 18.739543 ] ] ] ] } },
{ "type": "Feature", "properties": { "osm_id": "way/932977647", "building": "yes" }, "geometry": { "type": "MultiPolygon", "coordinates": [ [ [ [ -70.4346854, 18.7398923 ], [ -70.4345727, 18.7396383 ], [ -70.4347301, 18.7395757 ], [ -70.4348427, 18.7398297 ], [ -70.4346854, 18.7398923 ] ] ] ] } },
{ "type": "Feature", "properties": { "osm_id": "way/932977648", "building": "yes" }, "geometry": { "type": "MultiPolygon", "coordinates": [ [ [ [ -70.4351373, 18.7397348 ], [ -70.4350629, 18.7397465 ], [ -70.4350442, 18.7396398 ], [ -70.4351185, 18.7396281 ], [ -70.4351373, 18.7397348 ] ] ] ] } },
{ "type": "Feature", "properties": { "osm_id": "way/932977649", "building": "yes" }, "geometry": { "type": "MultiPolygon", "coordinates": [ [ [ [ -70.4353854, 18.7399646 ], [ -70.4353412, 18.7398948 ], [ -70.4354482, 18.7398339 ], [ -70.4354925, 18.7399038 ], [ -70.4353854, 18.7399646 ] ] ] ] } },
{ "type": "Feature", "properties": { "osm_id": "way/932977650", "building": "yes" }, "geometry": { "type": "MultiPolygon", "coordinates": [ [ [ [ -70.4355383, 18.7401424 ], [ -70.4354894, 18.740067 ], [ -70.4355726, 18.7400187 ], [ -70.4356214, 18.7400942 ], [ -70.4355383, 18.7401424 ] ] ] ] } },
{ "type": "Feature", "properties": { "osm_id": "way/932977651", "building": "yes" }, "geometry": { "type": "MultiPolygon", "coordinates": [ [ [ [ -70.4354605, 18.7402034 ], [ -70.4354082, 18.7401221 ], [ -70.4354812, 18.74008 ], [ -70.4355335, 18.7401613 ], [ -70.4354605, 18.7402034 ] ] ] ] } },
{ "type": "Feature", "properties": { "osm_id": "way/932977652", "building": "greenhouse" }, "geometry": { "type": "MultiPolygon", "coordinates": [ [ [ [ -70.4352252, 18.7396423 ], [ -70.4350231, 18.7393915 ], [ -70.4354249, 18.7391012 ], [ -70.435546, 18.7392515 ], [ -70.4355005, 18.7392844 ], [ -70.4355815, 18.7393849 ], [ -70.4352252, 18.7396423 ] ] ] ] } },
{ "type": "Feature", "properties": { "osm_id": "way/932977653", "building": "yes" }, "geometry": { "type": "MultiPolygon", "coordinates": [ [ [ [ -70.4335937, 18.7389309 ], [ -70.4335314, 18.7389119 ], [ -70.4335555, 18.7388408 ], [ -70.4336178, 18.7388597 ], [ -70.4335937, 18.7389309 ] ] ] ] } },
{ "type": "Feature", "properties": { "osm_id": "way/932977654", "building": "yes" }, "geometry": { "type": "MultiPolygon", "coordinates": [ [ [ [ -70.4336473, 18.7387581 ], [ -70.4335849, 18.7387251 ], [ -70.4336547, 18.738607 ], [ -70.4337171, 18.73864 ], [ -70.4336473, 18.7387581 ] ] ] ] } },
{ "type": "Feature", "properties": { "osm_id": "way/932977655", "building": "yes" }, "geometry": { "type": "MultiPolygon", "coordinates": [ [ [ [ -70.433756, 18.7387746 ], [ -70.4336943, 18.7387416 ], [ -70.4337283, 18.7386846 ], [ -70.43379, 18.7387176 ], [ -70.433756, 18.7387746 ] ] ] ] } },
{ "type": "Feature", "properties": { "osm_id": "way/932977656", "building": "yes" }, "geometry": { "type": "MultiPolygon", "coordinates": [ [ [ [ -70.4337962, 18.7389448 ], [ -70.4337137, 18.7388981 ], [ -70.4337915, 18.7387749 ], [ -70.433874, 18.7388216 ], [ -70.4337962, 18.7389448 ] ] ] ] } },
{ "type": "Feature", "properties": { "osm_id": "way/932977657", "building": "yes" }, "geometry": { "type": "MultiPolygon", "coordinates": [ [ [ [ -70.4340215, 18.7391277 ], [ -70.433933, 18.7390541 ], [ -70.4340169, 18.7389636 ], [ -70.4341054, 18.7390373 ], [ -70.4340215, 18.7391277 ] ] ] ] } },
{ "type": "Feature", "properties": { "osm_id": "way/932977658", "building": "yes" }, "geometry": { "type": "MultiPolygon", "coordinates": [ [ [ [ -70.4344037, 18.7391963 ], [ -70.4343672, 18.7391444 ], [ -70.4344155, 18.7391139 ], [ -70.434452, 18.7391658 ], [ -70.4344037, 18.7391963 ] ] ] ] } },
{ "type": "Feature", "properties": { "osm_id": "way/932977659", "building": "yes" }, "geometry": { "type": "MultiPolygon", "coordinates": [ [ [ [ -70.4345378, 18.7393081 ], [ -70.4344909, 18.7392179 ], [ -70.4346229, 18.7391563 ], [ -70.4346698, 18.7392464 ], [ -70.4345378, 18.7393081 ] ] ] ] } },
{ "type": "Feature", "properties": { "osm_id": "way/932977660", "building": "yes" }, "geometry": { "type": "MultiPolygon", "coordinates": [ [ [ [ -70.4342133, 18.7392801 ], [ -70.4341704, 18.7392344 ], [ -70.4342199, 18.7391927 ], [ -70.4342628, 18.7392384 ], [ -70.4342133, 18.7392801 ] ] ] ] } },
{ "type": "Feature", "properties": { "osm_id": "way/932977661", "building": "yes" }, "geometry": { "type": "MultiPolygon", "coordinates": [ [ [ [ -70.4339974, 18.7392585 ], [ -70.4339799, 18.7391899 ], [ -70.4340783, 18.7391675 ], [ -70.4340957, 18.7392361 ], [ -70.4339974, 18.7392585 ] ] ] ] } },
{ "type": "Feature", "properties": { "osm_id": "way/932977662", "building": "yes" }, "geometry": { "type": "MultiPolygon", "coordinates": [ [ [ [ -70.4335937, 18.7394833 ], [ -70.4334993, 18.7394367 ], [ -70.4335489, 18.7393466 ], [ -70.4336433, 18.7393931 ], [ -70.4335937, 18.7394833 ] ] ] ] } },
{ "type": "Feature", "properties": { "osm_id": "way/932977663", "building": "yes" }, "geometry": { "type": "MultiPolygon", "coordinates": [ [ [ [ -70.4335535, 18.739557 ], [ -70.4334778, 18.7395331 ], [ -70.4335006, 18.7394683 ], [ -70.4335763, 18.7394922 ], [ -70.4335535, 18.739557 ] ] ] ] } },
{ "type": "Feature", "properties": { "osm_id": "way/932977664", "building": "yes" }, "geometry": { "type": "MultiPolygon", "coordinates": [ [ [ [ -70.4334795, 18.7397134 ], [ -70.433404, 18.7396708 ], [ -70.4334418, 18.7396109 ], [ -70.4335172, 18.7396535 ], [ -70.4334795, 18.7397134 ] ] ] ] } },
{ "type": "Feature", "properties": { "osm_id": "way/932977665", "building": "yes" }, "geometry": { "type": "MultiPolygon", "coordinates": [ [ [ [ -70.4333818, 18.7397399 ], [ -70.43341, 18.7396827 ], [ -70.4334795, 18.7397134 ], [ -70.4334513, 18.7397706 ], [ -70.4333818, 18.7397399 ] ] ] ] } },
{ "type": "Feature", "properties": { "osm_id": "way/932977666", "building": "yes" }, "geometry": { "type": "MultiPolygon", "coordinates": [ [ [ [ -70.4339558, 18.7397678 ], [ -70.4338995, 18.7397767 ], [ -70.433888, 18.7397114 ], [ -70.4339443, 18.7397025 ], [ -70.4339558, 18.7397678 ] ] ] ] } },
{ "type": "Feature", "properties": { "osm_id": "way/932977667", "building": "yes" }, "geometry": { "type": "MultiPolygon", "coordinates": [ [ [ [ -70.4340564, 18.7397462 ], [ -70.434, 18.7397589 ], [ -70.4339833, 18.7396921 ], [ -70.4340396, 18.7396794 ], [ -70.4340564, 18.7397462 ] ] ] ] } },
{ "type": "Feature", "properties": { "osm_id": "way/932977668", "building": "yes" }, "geometry": { "type": "MultiPolygon", "coordinates": [ [ [ [ -70.4341851, 18.7397043 ], [ -70.4341342, 18.7397145 ], [ -70.4341215, 18.7396574 ], [ -70.4341724, 18.7396473 ], [ -70.4341851, 18.7397043 ] ] ] ] } },
{ "type": "Feature", "properties": { "osm_id": "way/932977669", "building": "yes" }, "geometry": { "type": "MultiPolygon", "coordinates": [ [ [ [ -70.434275, 18.7396738 ], [ -70.4342321, 18.7396891 ], [ -70.4342069, 18.7396255 ], [ -70.4342498, 18.7396102 ], [ -70.434275, 18.7396738 ] ] ] ] } },
{ "type": "Feature", "properties": { "osm_id": "way/932977670", "building": "yes" }, "geometry": { "type": "MultiPolygon", "coordinates": [ [ [ [ -70.4342924, 18.739891 ], [ -70.43422, 18.7398923 ], [ -70.4342187, 18.7398237 ], [ -70.4342911, 18.7398224 ], [ -70.4342924, 18.739891 ] ] ] ] } },
{ "type": "Feature", "properties": { "osm_id": "way/932977671", "building": "yes" }, "geometry": { "type": "MultiPolygon", "coordinates": [ [ [ [ -70.4342428, 18.7399748 ], [ -70.4342388, 18.7399113 ], [ -70.4342944, 18.7399081 ], [ -70.4342984, 18.7399716 ], [ -70.4342428, 18.7399748 ] ] ] ] } },
{ "type": "Feature", "properties": { "osm_id": "way/932977672", "building": "yes" }, "geometry": { "type": "MultiPolygon", "coordinates": [ [ [ [ -70.4341368, 18.7407381 ], [ -70.4341234, 18.7406733 ], [ -70.4342081, 18.7406576 ], [ -70.4342215, 18.7407224 ], [ -70.4341368, 18.7407381 ] ] ] ] } },
{ "type": "Feature", "properties": { "osm_id": "way/932977673", "building": "yes" }, "geometry": { "type": "MultiPolygon", "coordinates": [ [ [ [ -70.4342522, 18.7405209 ], [ -70.4342522, 18.7406035 ], [ -70.4341489, 18.7406035 ], [ -70.4341489, 18.7405209 ], [ -70.4342522, 18.7405209 ] ] ] ] } },
{ "type": "Feature", "properties": { "osm_id": "way/932977674", "building": "yes" }, "geometry": { "type": "MultiPolygon", "coordinates": [ [ [ [ -70.4341288, 18.7404409 ], [ -70.4341073, 18.7403469 ], [ -70.4341943, 18.7403291 ], [ -70.4342157, 18.7404231 ], [ -70.4341288, 18.7404409 ] ] ] ] } },
{ "type": "Feature", "properties": { "osm_id": "way/932977675", "building": "yes" }, "geometry": { "type": "MultiPolygon", "coordinates": [ [ [ [ -70.4341275, 18.7402186 ], [ -70.4341221, 18.7401424 ], [ -70.4341983, 18.7401376 ], [ -70.4342036, 18.7402138 ], [ -70.4341275, 18.7402186 ] ] ] ] } },
{ "type": "Feature", "properties": { "osm_id": "way/932977676", "building": "yes" }, "geometry": { "type": "MultiPolygon", "coordinates": [ [ [ [ -70.434106, 18.7402186 ], [ -70.43405, 18.7402338 ], [ -70.4340312, 18.7401716 ], [ -70.4340872, 18.7401564 ], [ -70.434106, 18.7402186 ] ] ] ] } },
{ "type": "Feature", "properties": { "osm_id": "way/932977677", "building": "yes" }, "geometry": { "type": "MultiPolygon", "coordinates": [ [ [ [ -70.4338592, 18.7402377 ], [ -70.4338364, 18.7401678 ], [ -70.4338991, 18.7401495 ], [ -70.4339219, 18.7402194 ], [ -70.4338592, 18.7402377 ] ] ] ] } },
{ "type": "Feature", "properties": { "osm_id": "way/932977678", "building": "yes" }, "geometry": { "type": "MultiPolygon", "coordinates": [ [ [ [ -70.4337734, 18.7403596 ], [ -70.4337301, 18.7403512 ], [ -70.4337422, 18.7402954 ], [ -70.4337855, 18.7403037 ], [ -70.4337734, 18.7403596 ] ] ] ] } },
{ "type": "Feature", "properties": { "osm_id": "way/932977679", "building": "yes" }, "geometry": { "type": "MultiPolygon", "coordinates": [ [ [ [ -70.4337989, 18.7405019 ], [ -70.433705, 18.7404993 ], [ -70.4337073, 18.7404242 ], [ -70.4338011, 18.7404267 ], [ -70.4337989, 18.7405019 ] ] ] ] } },
{ "type": "Feature", "properties": { "osm_id": "way/932977680", "building": "yes" }, "geometry": { "type": "MultiPolygon", "coordinates": [ [ [ [ -70.4333831, 18.7407254 ], [ -70.4333791, 18.7406555 ], [ -70.4334299, 18.7406529 ], [ -70.4334339, 18.7407228 ], [ -70.4333831, 18.7407254 ] ] ] ] } },
{ "type": "Feature", "properties": { "osm_id": "way/932977681", "building": "yes" }, "geometry": { "type": "MultiPolygon", "coordinates": [ [ [ [ -70.4333536, 18.7405882 ], [ -70.4333536, 18.7405171 ], [ -70.4334261, 18.7405171 ], [ -70.4334261, 18.7405882 ], [ -70.4333536, 18.7405882 ] ] ] ] } },
{ "type": "Feature", "properties": { "osm_id": "way/932977682", "building": "yes" }, "geometry": { "type": "MultiPolygon", "coordinates": [ [ [ [ -70.4331592, 18.7399723 ], [ -70.43321, 18.7399501 ], [ -70.4332446, 18.7400213 ], [ -70.4331937, 18.7400434 ], [ -70.4331592, 18.7399723 ] ] ] ] } },
{ "type": "Feature", "properties": { "osm_id": "way/932977683", "building": "yes" }, "geometry": { "type": "MultiPolygon", "coordinates": [ [ [ [ -70.4329969, 18.7397805 ], [ -70.4329697, 18.7397245 ], [ -70.4330406, 18.7396936 ], [ -70.4330678, 18.7397496 ], [ -70.4329969, 18.7397805 ] ] ] ] } },
{ "type": "Feature", "properties": { "osm_id": "way/932977684", "building": "yes" }, "geometry": { "type": "MultiPolygon", "coordinates": [ [ [ [ -70.4330438, 18.739863 ], [ -70.433009, 18.7397913 ], [ -70.4330674, 18.7397659 ], [ -70.4331022, 18.7398376 ], [ -70.4330438, 18.739863 ] ] ] ] } },
{ "type": "Feature", "properties": { "osm_id": "way/932977685", "building": "yes" }, "geometry": { "type": "MultiPolygon", "coordinates": [ [ [ [ -70.4296026, 18.7570175 ], [ -70.4295447, 18.7569977 ], [ -70.4295685, 18.7569352 ], [ -70.4296264, 18.756955 ], [ -70.4296026, 18.7570175 ] ] ] ] } },
{ "type": "Feature", "properties": { "osm_id": "way/932977686", "building": "yes" }, "geometry": { "type": "MultiPolygon", "coordinates": [ [ [ [ -70.4294068, 18.755646 ], [ -70.4293799, 18.7555482 ], [ -70.4294343, 18.7555347 ], [ -70.4294612, 18.7556326 ], [ -70.4294068, 18.755646 ] ] ] ] } },
{ "type": "Feature", "properties": { "osm_id": "way/932977687", "building": "yes" }, "geometry": { "type": "MultiPolygon", "coordinates": [ [ [ [ -70.4253875, 18.7556828 ], [ -70.4252672, 18.7556881 ], [ -70.4252628, 18.7556003 ], [ -70.4253831, 18.7555949 ], [ -70.4253875, 18.7556828 ] ] ] ] } },
{ "type": "Feature", "properties": { "osm_id": "way/932977689", "building": "yes" }, "geometry": { "type": "MultiPolygon", "coordinates": [ [ [ [ -70.4324283, 18.7512102 ], [ -70.4323585, 18.7512066 ], [ -70.4323633, 18.7511231 ], [ -70.432433, 18.7511267 ], [ -70.4324283, 18.7512102 ] ] ] ] } },
{ "type": "Feature", "properties": { "osm_id": "way/932977690", "building": "house" }, "geometry": { "type": "MultiPolygon", "coordinates": [ [ [ [ -70.4322271, 18.7482271 ], [ -70.4321574, 18.7481611 ], [ -70.4323076, 18.7480188 ], [ -70.4323773, 18.7480849 ], [ -70.4322271, 18.7482271 ] ] ] ] } },
{ "type": "Feature", "properties": { "osm_id": "way/932977692", "building": "yes" }, "geometry": { "type": "MultiPolygon", "coordinates": [ [ [ [ -70.4353599, 18.7407635 ], [ -70.4353143, 18.7406759 ], [ -70.4353928, 18.7406392 ], [ -70.4354384, 18.7407268 ], [ -70.4353599, 18.7407635 ] ] ] ] } },
{ "type": "Feature", "properties": { "osm_id": "way/932977693", "building": "yes" }, "geometry": { "type": "MultiPolygon", "coordinates": [ [ [ [ -70.4352272, 18.7408829 ], [ -70.4352164, 18.7408625 ], [ -70.4352652, 18.7408394 ], [ -70.435276, 18.7408597 ], [ -70.4352272, 18.7408829 ] ] ] ] } },
{ "type": "Feature", "properties": { "osm_id": "way/932977694", "building": "yes" }, "geometry": { "type": "MultiPolygon", "coordinates": [ [ [ [ -70.4351601, 18.7408968 ], [ -70.4351199, 18.74086 ], [ -70.4351725, 18.7408085 ], [ -70.4352127, 18.7408453 ], [ -70.4351601, 18.7408968 ] ] ] ] } },
{ "type": "Feature", "properties": { "osm_id": "way/932977695", "building": "yes" }, "geometry": { "type": "MultiPolygon", "coordinates": [ [ [ [ -70.4349294, 18.7408283 ], [ -70.4349174, 18.7407622 ], [ -70.4350408, 18.740742 ], [ -70.4350529, 18.740808 ], [ -70.4349294, 18.7408283 ] ] ] ] } },
{ "type": "Feature", "properties": { "osm_id": "way/932977696", "building": "yes" }, "geometry": { "type": "MultiPolygon", "coordinates": [ [ [ [ -70.4352245, 18.7409895 ], [ -70.4351842, 18.7409248 ], [ -70.4352924, 18.7408645 ], [ -70.4353326, 18.7409293 ], [ -70.4352245, 18.7409895 ] ] ] ] } },
{ "type": "Feature", "properties": { "osm_id": "way/932977697", "building": "yes" }, "geometry": { "type": "MultiPolygon", "coordinates": [ [ [ [ -70.4353063, 18.7411521 ], [ -70.4352791, 18.7411332 ], [ -70.4353157, 18.7410861 ], [ -70.4353428, 18.7411049 ], [ -70.4353063, 18.7411521 ] ] ] ] } },
{ "type": "Feature", "properties": { "osm_id": "way/932977698", "building": "yes" }, "geometry": { "type": "MultiPolygon", "coordinates": [ [ [ [ -70.4352057, 18.741147 ], [ -70.4351646, 18.7411185 ], [ -70.4352419, 18.7410188 ], [ -70.435283, 18.7410473 ], [ -70.4352057, 18.741147 ] ] ] ] } },
{ "type": "Feature", "properties": { "osm_id": "way/932977699", "building": "yes" }, "geometry": { "type": "MultiPolygon", "coordinates": [ [ [ [ -70.4359054, 18.7414232 ], [ -70.4358596, 18.7413914 ], [ -70.4359188, 18.741315 ], [ -70.4359647, 18.7413468 ], [ -70.4359054, 18.7414232 ] ] ] ] } },
{ "type": "Feature", "properties": { "osm_id": "way/932977700", "building": "yes" }, "geometry": { "type": "MultiPolygon", "coordinates": [ [ [ [ -70.436004, 18.7415071 ], [ -70.4359355, 18.7414595 ], [ -70.4359956, 18.741382 ], [ -70.4360641, 18.7414296 ], [ -70.436004, 18.7415071 ] ] ] ] } },
{ "type": "Feature", "properties": { "osm_id": "way/932977701", "building": "yes" }, "geometry": { "type": "MultiPolygon", "coordinates": [ [ [ [ -70.4361109, 18.7415877 ], [ -70.436054, 18.7415481 ], [ -70.4361153, 18.741469 ], [ -70.4361723, 18.7415086 ], [ -70.4361109, 18.7415877 ] ] ] ] } },
{ "type": "Feature", "properties": { "osm_id": "way/932977702", "building": "yes" }, "geometry": { "type": "MultiPolygon", "coordinates": [ [ [ [ -70.4361575, 18.7416347 ], [ -70.4361142, 18.7416046 ], [ -70.436176, 18.7415248 ], [ -70.4362193, 18.741555 ], [ -70.4361575, 18.7416347 ] ] ] ] } },
{ "type": "Feature", "properties": { "osm_id": "way/932977703", "building": "house" }, "geometry": { "type": "MultiPolygon", "coordinates": [ [ [ [ -70.4362806, 18.7422233 ], [ -70.4361881, 18.7423427 ], [ -70.4360741, 18.7422635 ], [ -70.4361667, 18.7421442 ], [ -70.4362806, 18.7422233 ] ] ] ] } },
{ "type": "Feature", "properties": { "osm_id": "way/932977704", "building": "yes" }, "geometry": { "type": "MultiPolygon", "coordinates": [ [ [ [ -70.4379804, 18.7455704 ], [ -70.4379027, 18.7454523 ], [ -70.4379983, 18.7453958 ], [ -70.4380761, 18.7455139 ], [ -70.4379804, 18.7455704 ] ] ] ] } },
{ "type": "Feature", "properties": { "osm_id": "way/932977705", "building": "yes" }, "geometry": { "type": "MultiPolygon", "coordinates": [ [ [ [ -70.4376318, 18.7453799 ], [ -70.4375792, 18.7453678 ], [ -70.43761, 18.7452472 ], [ -70.4376626, 18.7452592 ], [ -70.4376318, 18.7453799 ] ] ] ] } },
{ "type": "Feature", "properties": { "osm_id": "way/932977706", "building": "yes" }, "geometry": { "type": "MultiPolygon", "coordinates": [ [ [ [ -70.437617, 18.7454751 ], [ -70.4375567, 18.7454497 ], [ -70.4375774, 18.7454054 ], [ -70.4376378, 18.7454308 ], [ -70.437617, 18.7454751 ] ] ] ] } },
{ "type": "Feature", "properties": { "osm_id": "way/932977707", "building": "yes" }, "geometry": { "type": "MultiPolygon", "coordinates": [ [ [ [ -70.4374319, 18.7455234 ], [ -70.4373702, 18.745465 ], [ -70.4374842, 18.745357 ], [ -70.4375459, 18.7454154 ], [ -70.4374319, 18.7455234 ] ] ] ] } },
{ "type": "Feature", "properties": { "osm_id": "way/932977708", "building": "yes" }, "geometry": { "type": "MultiPolygon", "coordinates": [ [ [ [ -70.4369746, 18.7455094 ], [ -70.4369159, 18.7455379 ], [ -70.4368878, 18.7454858 ], [ -70.4369465, 18.7454573 ], [ -70.4369746, 18.7455094 ] ] ] ] } },
{ "type": "Feature", "properties": { "osm_id": "way/932977709", "building": "yes" }, "geometry": { "type": "MultiPolygon", "coordinates": [ [ [ [ -70.4368821, 18.7451157 ], [ -70.4368271, 18.7451511 ], [ -70.4367788, 18.7450838 ], [ -70.4368338, 18.7450484 ], [ -70.4368821, 18.7451157 ] ] ] ] } },
{ "type": "Feature", "properties": { "osm_id": "way/932977710", "building": "yes" }, "geometry": { "type": "MultiPolygon", "coordinates": [ [ [ [ -70.4359835, 18.7441721 ], [ -70.4359165, 18.7441188 ], [ -70.4359792, 18.7440481 ], [ -70.4360462, 18.7441015 ], [ -70.4359835, 18.7441721 ] ] ] ] } },
{ "type": "Feature", "properties": { "osm_id": "way/932977711", "building": "yes" }, "geometry": { "type": "MultiPolygon", "coordinates": [ [ [ [ -70.4352486, 18.7439156 ], [ -70.4351628, 18.7437988 ], [ -70.4352318, 18.7437533 ], [ -70.4353176, 18.7438701 ], [ -70.4352486, 18.7439156 ] ] ] ] } },
{ "type": "Feature", "properties": { "osm_id": "way/932977712", "building": "yes" }, "geometry": { "type": "MultiPolygon", "coordinates": [ [ [ [ -70.4354833, 18.7442331 ], [ -70.4354496, 18.744198 ], [ -70.4354952, 18.7441587 ], [ -70.4355289, 18.7441937 ], [ -70.4354833, 18.7442331 ] ] ] ] } },
{ "type": "Feature", "properties": { "osm_id": "way/932977713", "building": "yes" }, "geometry": { "type": "MultiPolygon", "coordinates": [ [ [ [ -70.4354846, 18.7443233 ], [ -70.4354364, 18.7442712 ], [ -70.4354692, 18.7442439 ], [ -70.4355174, 18.744296 ], [ -70.4354846, 18.7443233 ] ] ] ] } },
{ "type": "Feature", "properties": { "osm_id": "way/932977714", "building": "yes" }, "geometry": { "type": "MultiPolygon", "coordinates": [ [ [ [ -70.4356201, 18.7443969 ], [ -70.4355638, 18.7443664 ], [ -70.4355972, 18.744311 ], [ -70.4356535, 18.7443415 ], [ -70.4356201, 18.7443969 ] ] ] ] } },
{ "type": "Feature", "properties": { "osm_id": "way/932977717", "building": "yes" }, "geometry": { "type": "MultiPolygon", "coordinates": [ [ [ [ -70.439748, 18.7463184 ], [ -70.4397142, 18.7463132 ], [ -70.439729, 18.7462256 ], [ -70.4397629, 18.7462308 ], [ -70.439748, 18.7463184 ] ] ] ] } },
{ "type": "Feature", "properties": { "osm_id": "way/932977718", "building": "yes" }, "geometry": { "type": "MultiPolygon", "coordinates": [ [ [ [ -70.4395616, 18.746406 ], [ -70.4395295, 18.7463824 ], [ -70.4395585, 18.746347 ], [ -70.4395906, 18.7463706 ], [ -70.4395616, 18.746406 ] ] ] ] } },
{ "type": "Feature", "properties": { "osm_id": "way/932977719", "building": "yes" }, "geometry": { "type": "MultiPolygon", "coordinates": [ [ [ [ -70.4395375, 18.7464657 ], [ -70.4394986, 18.7464598 ], [ -70.4395072, 18.7464093 ], [ -70.439546, 18.7464152 ], [ -70.4395375, 18.7464657 ] ] ] ] } },
{ "type": "Feature", "properties": { "osm_id": "way/932977720", "building": "yes" }, "geometry": { "type": "MultiPolygon", "coordinates": [ [ [ [ -70.4395361, 18.7465787 ], [ -70.4394955, 18.7465618 ], [ -70.4395168, 18.7465159 ], [ -70.4395575, 18.7465328 ], [ -70.4395361, 18.7465787 ] ] ] ] } },
{ "type": "Feature", "properties": { "osm_id": "way/932977721", "building": "yes" }, "geometry": { "type": "MultiPolygon", "coordinates": [ [ [ [ -70.4396072, 18.7465432 ], [ -70.4395368, 18.7465138 ], [ -70.4395652, 18.7464526 ], [ -70.4396357, 18.7464819 ], [ -70.4396072, 18.7465432 ] ] ] ] } },
{ "type": "Feature", "properties": { "osm_id": "way/932977722", "building": "greenhouse" }, "geometry": { "type": "MultiPolygon", "coordinates": [ [ [ [ -70.4361391, 18.744021 ], [ -70.4357456, 18.7440732 ], [ -70.43549, 18.7438851 ], [ -70.4354323, 18.7437175 ], [ -70.4354632, 18.7435359 ], [ -70.4359817, 18.7434776 ], [ -70.4361606, 18.7436718 ], [ -70.4361981, 18.7437695 ], [ -70.4361981, 18.743894 ], [ -70.4361391, 18.744021 ] ] ] ] } },
{ "type": "Feature", "properties": { "osm_id": "way/932977723", "building": "greenhouse" }, "geometry": { "type": "MultiPolygon", "coordinates": [ [ [ [ -70.4362947, 18.744816 ], [ -70.4361847, 18.7446484 ], [ -70.4362102, 18.7446293 ], [ -70.436127, 18.7445188 ], [ -70.4361592, 18.7444922 ], [ -70.4360855, 18.7443918 ], [ -70.436119, 18.7443715 ], [ -70.436027, 18.7442712 ], [ -70.4362383, 18.7441048 ], [ -70.4363147, 18.7441372 ], [ -70.4364261, 18.7441937 ], [ -70.4365575, 18.7441886 ], [ -70.436701, 18.744162 ], [ -70.4369491, 18.744068 ], [ -70.4369907, 18.7441086 ], [ -70.4371007, 18.7441226 ], [ -70.4371664, 18.7440883 ], [ -70.4372811, 18.7442006 ], [ -70.4364569, 18.7448058 ], [ -70.4362947, 18.744816 ] ] ] ] } },
{ "type": "Feature", "properties": { "osm_id": "way/932977724", "building": "greenhouse" }, "geometry": { "type": "MultiPolygon", "coordinates": [ [ [ [ -70.437035, 18.7439778 ], [ -70.4365901, 18.7441472 ], [ -70.4365414, 18.7440807 ], [ -70.4363886, 18.7441518 ], [ -70.436287, 18.7440215 ], [ -70.4367292, 18.7435156 ], [ -70.437035, 18.7439778 ] ] ] ] } },
{ "type": "Feature", "properties": { "osm_id": "way/932977725", "building": "greenhouse" }, "geometry": { "type": "MultiPolygon", "coordinates": [ [ [ [ -70.4372254, 18.7455018 ], [ -70.4366192, 18.7447424 ], [ -70.4373389, 18.7442272 ], [ -70.4379451, 18.7449867 ], [ -70.4372254, 18.7455018 ] ] ] ] } },
{ "type": "Feature", "properties": { "osm_id": "way/932977726", "building": "greenhouse" }, "geometry": { "type": "MultiPolygon", "coordinates": [ [ [ [ -70.4390669, 18.7457485 ], [ -70.4389302, 18.7464506 ], [ -70.4389076, 18.7464466 ], [ -70.4388922, 18.7465254 ], [ -70.4388425, 18.7465167 ], [ -70.4388335, 18.7465629 ], [ -70.4388094, 18.7465588 ], [ -70.4387978, 18.7466186 ], [ -70.4387393, 18.7466084 ], [ -70.4387079, 18.7467695 ], [ -70.4385351, 18.7467393 ], [ -70.4385808, 18.7465045 ], [ -70.4385494, 18.746499 ], [ -70.4385574, 18.746458 ], [ -70.4385246, 18.7464523 ], [ -70.4385345, 18.7464015 ], [ -70.4385035, 18.7463961 ], [ -70.4385154, 18.7463353 ], [ -70.4384775, 18.7463287 ], [ -70.4386061, 18.7456681 ], [ -70.4390669, 18.7457485 ] ] ] ] } },
{ "type": "Feature", "properties": { "osm_id": "way/932977727", "building": "yes" }, "geometry": { "type": "MultiPolygon", "coordinates": [ [ [ [ -70.43928, 18.7477458 ], [ -70.43928, 18.7476658 ], [ -70.4393618, 18.7476658 ], [ -70.4393618, 18.7477458 ], [ -70.43928, 18.7477458 ] ] ] ] } },
{ "type": "Feature", "properties": { "osm_id": "way/932977729", "building": "yes" }, "geometry": { "type": "MultiPolygon", "coordinates": [ [ [ [ -70.4390198, 18.7480582 ], [ -70.4390248, 18.7479922 ], [ -70.4391027, 18.7479975 ], [ -70.4390976, 18.7480635 ], [ -70.4390198, 18.7480582 ] ] ] ] } },
{ "type": "Feature", "properties": { "osm_id": "way/932977731", "building": "house" }, "geometry": { "type": "MultiPolygon", "coordinates": [ [ [ [ -70.4413265, 18.7492037 ], [ -70.4413488, 18.7493786 ], [ -70.4412232, 18.7493929 ], [ -70.441201, 18.749218 ], [ -70.4413265, 18.7492037 ] ] ] ] } },
{ "type": "Feature", "properties": { "osm_id": "way/932977735", "building": "yes" }, "geometry": { "type": "MultiPolygon", "coordinates": [ [ [ [ -70.4396635, 18.7490119 ], [ -70.4395907, 18.7489502 ], [ -70.4396258, 18.748913 ], [ -70.4396987, 18.7489747 ], [ -70.4396635, 18.7490119 ] ] ] ] } },
{ "type": "Feature", "properties": { "osm_id": "way/932977736", "building": "yes" }, "geometry": { "type": "MultiPolygon", "coordinates": [ [ [ [ -70.4396032, 18.7491199 ], [ -70.4396562, 18.7490256 ], [ -70.4396956, 18.7490455 ], [ -70.4396426, 18.7491398 ], [ -70.4396032, 18.7491199 ] ] ] ] } },
{ "type": "Feature", "properties": { "osm_id": "way/932977737", "building": "yes" }, "geometry": { "type": "MultiPolygon", "coordinates": [ [ [ [ -70.4392612, 18.748904 ], [ -70.439158, 18.7488969 ], [ -70.4391633, 18.7488283 ], [ -70.4392665, 18.7488354 ], [ -70.4392612, 18.748904 ] ] ] ] } },
{ "type": "Feature", "properties": { "osm_id": "way/932977738", "building": "yes" }, "geometry": { "type": "MultiPolygon", "coordinates": [ [ [ [ -70.4395026, 18.7500711 ], [ -70.4394929, 18.7499872 ], [ -70.4395876, 18.7499773 ], [ -70.4395973, 18.7500612 ], [ -70.4395026, 18.7500711 ] ] ] ] } },
{ "type": "Feature", "properties": { "osm_id": "way/932977742", "building": "yes" }, "geometry": { "type": "MultiPolygon", "coordinates": [ [ [ [ -70.4407807, 18.7575241 ], [ -70.4406948, 18.7575013 ], [ -70.4407231, 18.757406 ], [ -70.440809, 18.7574288 ], [ -70.4407807, 18.7575241 ] ] ] ] } },
{ "type": "Feature", "properties": { "osm_id": "way/932977743", "building": "yes" }, "geometry": { "type": "MultiPolygon", "coordinates": [ [ [ [ -70.4402161, 18.757373 ], [ -70.4401691, 18.757374 ], [ -70.4401677, 18.7573169 ], [ -70.4402147, 18.7573159 ], [ -70.4402161, 18.757373 ] ] ] ] } },
{ "type": "Feature", "properties": { "osm_id": "way/932977744", "building": "yes" }, "geometry": { "type": "MultiPolygon", "coordinates": [ [ [ [ -70.4402013, 18.7574556 ], [ -70.4401626, 18.7574564 ], [ -70.4401612, 18.7573992 ], [ -70.4402, 18.7573984 ], [ -70.4402013, 18.7574556 ] ] ] ] } },
{ "type": "Feature", "properties": { "osm_id": "way/932977745", "building": "yes" }, "geometry": { "type": "MultiPolygon", "coordinates": [ [ [ [ -70.4401799, 18.7575673 ], [ -70.4401292, 18.7575605 ], [ -70.4401399, 18.7574893 ], [ -70.4401906, 18.7574962 ], [ -70.4401799, 18.7575673 ] ] ] ] } },
{ "type": "Feature", "properties": { "osm_id": "way/932977746", "building": "yes" }, "geometry": { "type": "MultiPolygon", "coordinates": [ [ [ [ -70.4401745, 18.7576816 ], [ -70.4401173, 18.7576793 ], [ -70.44012, 18.7576184 ], [ -70.4401772, 18.7576206 ], [ -70.4401745, 18.7576816 ] ] ] ] } },
{ "type": "Feature", "properties": { "osm_id": "way/932977747", "building": "yes" }, "geometry": { "type": "MultiPolygon", "coordinates": [ [ [ [ -70.4394972, 18.7633413 ], [ -70.4394181, 18.7633007 ], [ -70.4394425, 18.7632581 ], [ -70.4395216, 18.7632987 ], [ -70.4394972, 18.7633413 ] ] ] ] } },
{ "type": "Feature", "properties": { "osm_id": "way/932977748", "building": "yes" }, "geometry": { "type": "MultiPolygon", "coordinates": [ [ [ [ -70.4394127, 18.7623918 ], [ -70.4393688, 18.762347 ], [ -70.4394414, 18.7622832 ], [ -70.4394853, 18.762328 ], [ -70.4394127, 18.7623918 ] ] ] ] } },
{ "type": "Feature", "properties": { "osm_id": "way/932977749", "building": "yes" }, "geometry": { "type": "MultiPolygon", "coordinates": [ [ [ [ -70.4406747, 18.7613242 ], [ -70.440601, 18.7612276 ], [ -70.4406881, 18.7611679 ], [ -70.4407619, 18.7612645 ], [ -70.4406747, 18.7613242 ] ] ] ] } },
{ "type": "Feature", "properties": { "osm_id": "way/932977750", "building": "yes" }, "geometry": { "type": "MultiPolygon", "coordinates": [ [ [ [ -70.440668, 18.7614245 ], [ -70.440615, 18.7613661 ], [ -70.44065, 18.7613377 ], [ -70.440703, 18.7613961 ], [ -70.440668, 18.7614245 ] ] ] ] } },
{ "type": "Feature", "properties": { "osm_id": "way/932977751", "building": "house" }, "geometry": { "type": "MultiPolygon", "coordinates": [ [ [ [ -70.4427515, 18.757579 ], [ -70.4427509, 18.7575052 ], [ -70.4428979, 18.7575042 ], [ -70.4428973, 18.75742 ], [ -70.4430121, 18.7574192 ], [ -70.4430133, 18.7575772 ], [ -70.4427515, 18.757579 ] ] ] ] } },
{ "type": "Feature", "properties": { "osm_id": "way/932977752", "building": "yes" }, "geometry": { "type": "MultiPolygon", "coordinates": [ [ [ [ -70.4407458, 18.7565108 ], [ -70.4408154, 18.7564453 ], [ -70.4409033, 18.7565291 ], [ -70.4408336, 18.7565946 ], [ -70.4407458, 18.7565108 ] ] ] ] } },
{ "type": "Feature", "properties": { "osm_id": "way/932977753", "building": "yes" }, "geometry": { "type": "MultiPolygon", "coordinates": [ [ [ [ -70.4392371, 18.7553552 ], [ -70.4391123, 18.7553603 ], [ -70.4391081, 18.7552678 ], [ -70.4392329, 18.7552627 ], [ -70.4392371, 18.7553552 ] ] ] ] } },
{ "type": "Feature", "properties": { "osm_id": "way/932977754", "building": "yes" }, "geometry": { "type": "MultiPolygon", "coordinates": [ [ [ [ -70.44009, 18.75415 ], [ -70.4399102, 18.7535863 ], [ -70.4403099, 18.753472 ], [ -70.4404897, 18.7540357 ], [ -70.44009, 18.75415 ] ] ] ] } },
{ "type": "Feature", "properties": { "osm_id": "way/932977755", "building": "greenhouse" }, "geometry": { "type": "MultiPolygon", "coordinates": [ [ [ [ -70.4399934, 18.7546758 ], [ -70.4394436, 18.7546682 ], [ -70.4394548, 18.7539412 ], [ -70.4400047, 18.7539488 ], [ -70.4399934, 18.7546758 ] ] ] ] } },
{ "type": "Feature", "properties": { "osm_id": "way/932977756", "building": "yes" }, "geometry": { "type": "MultiPolygon", "coordinates": [ [ [ [ -70.4400592, 18.7546936 ], [ -70.4400283, 18.7545615 ], [ -70.4400677, 18.7545532 ], [ -70.4400985, 18.7546853 ], [ -70.4400592, 18.7546936 ] ] ] ] } },
{ "type": "Feature", "properties": { "osm_id": "way/932977757", "building": "yes" }, "geometry": { "type": "MultiPolygon", "coordinates": [ [ [ [ -70.4402523, 18.7544878 ], [ -70.440204, 18.7544866 ], [ -70.4402052, 18.7544447 ], [ -70.4402535, 18.754446 ], [ -70.4402523, 18.7544878 ] ] ] ] } },
{ "type": "Feature", "properties": { "osm_id": "way/932977758", "building": "yes" }, "geometry": { "type": "MultiPolygon", "coordinates": [ [ [ [ -70.4403448, 18.7544789 ], [ -70.4402778, 18.7544828 ], [ -70.4402743, 18.7544281 ], [ -70.4403413, 18.7544243 ], [ -70.4403448, 18.7544789 ] ] ] ] } },
{ "type": "Feature", "properties": { "osm_id": "way/932977759", "building": "yes" }, "geometry": { "type": "MultiPolygon", "coordinates": [ [ [ [ -70.4404521, 18.7545297 ], [ -70.4403783, 18.7545094 ], [ -70.4404035, 18.7544275 ], [ -70.4404773, 18.7544478 ], [ -70.4404521, 18.7545297 ] ] ] ] } },
{ "type": "Feature", "properties": { "osm_id": "way/932977760", "building": "yes" }, "geometry": { "type": "MultiPolygon", "coordinates": [ [ [ [ -70.4401933, 18.7547977 ], [ -70.4401986, 18.7546999 ], [ -70.440294, 18.7547046 ], [ -70.4402886, 18.7548024 ], [ -70.4401933, 18.7547977 ] ] ] ] } },
{ "type": "Feature", "properties": { "osm_id": "way/932977761", "building": "yes" }, "geometry": { "type": "MultiPolygon", "coordinates": [ [ [ [ -70.4402027, 18.7559348 ], [ -70.4402066, 18.756076 ], [ -70.4401786, 18.7560767 ], [ -70.4401796, 18.7561119 ], [ -70.4401385, 18.7561129 ], [ -70.4401376, 18.7560793 ], [ -70.4400985, 18.7560803 ], [ -70.4400945, 18.7559375 ], [ -70.4402027, 18.7559348 ] ] ] ] } },
{ "type": "Feature", "properties": { "osm_id": "way/932977762", "building": "yes" }, "geometry": { "type": "MultiPolygon", "coordinates": [ [ [ [ -70.4401611, 18.7579394 ], [ -70.440102, 18.7579413 ], [ -70.4400993, 18.757869 ], [ -70.4401584, 18.757867 ], [ -70.4401611, 18.7579394 ] ] ] ] } },
{ "type": "Feature", "properties": { "osm_id": "way/932977763", "building": "yes" }, "geometry": { "type": "MultiPolygon", "coordinates": [ [ [ [ -70.4408021, 18.757961 ], [ -70.4407284, 18.7579292 ], [ -70.4407585, 18.7578664 ], [ -70.4408323, 18.7578981 ], [ -70.4408021, 18.757961 ] ] ] ] } },
{ "type": "Feature", "properties": { "osm_id": "way/932977764", "building": "yes" }, "geometry": { "type": "MultiPolygon", "coordinates": [ [ [ [ -70.4408987, 18.7578391 ], [ -70.440723, 18.7577819 ], [ -70.4407658, 18.7576639 ], [ -70.4409415, 18.7577211 ], [ -70.4408987, 18.7578391 ] ] ] ] } },
{ "type": "Feature", "properties": { "osm_id": "way/932981906", "building": "yes" }, "geometry": { "type": "MultiPolygon", "coordinates": [ [ [ [ -70.4380234, 18.7333008 ], [ -70.4379402, 18.7332487 ], [ -70.437988, 18.7331803 ], [ -70.4380711, 18.7332324 ], [ -70.4380234, 18.7333008 ] ] ] ] } },
{ "type": "Feature", "properties": { "osm_id": "way/932981907", "building": "yes" }, "geometry": { "type": "MultiPolygon", "coordinates": [ [ [ [ -70.4377323, 18.7331369 ], [ -70.4376747, 18.7330988 ], [ -70.4377062, 18.733056 ], [ -70.4377639, 18.7330941 ], [ -70.4377323, 18.7331369 ] ] ] ] } },
{ "type": "Feature", "properties": { "osm_id": "way/932981908", "building": "yes" }, "geometry": { "type": "MultiPolygon", "coordinates": [ [ [ [ -70.4373676, 18.7330671 ], [ -70.4373064, 18.7330889 ], [ -70.437271, 18.7329998 ], [ -70.4373321, 18.732978 ], [ -70.4373676, 18.7330671 ] ] ] ] } },
{ "type": "Feature", "properties": { "osm_id": "way/932981909", "building": "house" }, "geometry": { "type": "MultiPolygon", "coordinates": [ [ [ [ -70.4375808, 18.7332944 ], [ -70.4375379, 18.7331865 ], [ -70.4376788, 18.7331362 ], [ -70.4377217, 18.7332442 ], [ -70.4375808, 18.7332944 ] ] ] ] } },
{ "type": "Feature", "properties": { "osm_id": "way/932981910", "building": "greenhouse" }, "geometry": { "type": "MultiPolygon", "coordinates": [ [ [ [ -70.4384592, 18.7328575 ], [ -70.4380933, 18.7332146 ], [ -70.4373691, 18.7328895 ], [ -70.4377122, 18.7325032 ], [ -70.4384592, 18.7328575 ] ] ] ] } },
{ "type": "Feature", "properties": { "osm_id": "way/932981912", "building": "greenhouse" }, "geometry": { "type": "MultiPolygon", "coordinates": [ [ [ [ -70.4375358, 18.7317889 ], [ -70.4380098, 18.7310038 ], [ -70.4394675, 18.7317538 ], [ -70.439356, 18.7319842 ], [ -70.4389403, 18.7323657 ], [ -70.4381273, 18.7319668 ], [ -70.4380625, 18.7320741 ], [ -70.4375358, 18.7317889 ] ] ] ] } },
{ "type": "Feature", "properties": { "osm_id": "way/932981913", "building": "greenhouse" }, "geometry": { "type": "MultiPolygon", "coordinates": [ [ [ [ -70.4394972, 18.7316967 ], [ -70.4389702, 18.7314497 ], [ -70.4393283, 18.7307645 ], [ -70.4398553, 18.7310114 ], [ -70.4394972, 18.7316967 ] ] ] ] } },
{ "type": "Feature", "properties": { "osm_id": "way/932981914", "building": "yes" }, "geometry": { "type": "MultiPolygon", "coordinates": [ [ [ [ -70.4404092, 18.7324308 ], [ -70.4394235, 18.7319689 ], [ -70.4398245, 18.7312014 ], [ -70.4408102, 18.7316633 ], [ -70.4404092, 18.7324308 ] ] ] ] } },
{ "type": "Feature", "properties": { "osm_id": "way/932981915", "building": "greenhouse" }, "geometry": { "type": "MultiPolygon", "coordinates": [ [ [ [ -70.4411607, 18.7328837 ], [ -70.4404378, 18.7325449 ], [ -70.4409695, 18.7315273 ], [ -70.4414839, 18.7317683 ], [ -70.4414404, 18.7318516 ], [ -70.441546, 18.731901 ], [ -70.4415061, 18.7319772 ], [ -70.4416091, 18.7320255 ], [ -70.4411607, 18.7328837 ] ] ] ] } },
{ "type": "Feature", "properties": { "osm_id": "way/932981916", "building": "greenhouse" }, "geometry": { "type": "MultiPolygon", "coordinates": [ [ [ [ -70.4421844, 18.7312416 ], [ -70.4426353, 18.7314433 ], [ -70.4425999, 18.7315142 ], [ -70.4429874, 18.7316876 ], [ -70.4425532, 18.7325579 ], [ -70.4420693, 18.7323414 ], [ -70.4421081, 18.7322636 ], [ -70.4417991, 18.7321254 ], [ -70.4418396, 18.7320442 ], [ -70.4417941, 18.7320239 ], [ -70.4421844, 18.7312416 ] ] ] ] } },
{ "type": "Feature", "properties": { "osm_id": "way/932981917", "building": "greenhouse" }, "geometry": { "type": "MultiPolygon", "coordinates": [ [ [ [ -70.4434454, 18.7323165 ], [ -70.4433449, 18.732554 ], [ -70.4430225, 18.7325712 ], [ -70.4426389, 18.7326385 ], [ -70.442901, 18.7320701 ], [ -70.4434454, 18.7323165 ] ] ] ] } },
{ "type": "Feature", "properties": { "osm_id": "way/932981919", "building": "yes" }, "geometry": { "type": "MultiPolygon", "coordinates": [ [ [ [ -70.4334596, 18.7409775 ], [ -70.4333594, 18.7409791 ], [ -70.4333581, 18.7409048 ], [ -70.4334582, 18.7409032 ], [ -70.4334596, 18.7409775 ] ] ] ] } },
{ "type": "Feature", "properties": { "osm_id": "way/932981920", "building": "yes" }, "geometry": { "type": "MultiPolygon", "coordinates": [ [ [ [ -70.4334525, 18.7410367 ], [ -70.4333446, 18.74103 ], [ -70.433348, 18.7409813 ], [ -70.4334558, 18.740988 ], [ -70.4334525, 18.7410367 ] ] ] ] } },
{ "type": "Feature", "properties": { "osm_id": "way/932981921", "building": "yes" }, "geometry": { "type": "MultiPolygon", "coordinates": [ [ [ [ -70.4334851, 18.7411419 ], [ -70.4333672, 18.7411592 ], [ -70.4333531, 18.7410728 ], [ -70.433471, 18.7410556 ], [ -70.4334851, 18.7411419 ] ] ] ] } },
{ "type": "Feature", "properties": { "osm_id": "way/932981922", "building": "greenhouse" }, "geometry": { "type": "MultiPolygon", "coordinates": [ [ [ [ -70.4349656, 18.7409426 ], [ -70.4346854, 18.7410264 ], [ -70.4346606, 18.7409522 ], [ -70.4349409, 18.7408684 ], [ -70.4349656, 18.7409426 ] ] ] ] } },
{ "type": "Feature", "properties": { "osm_id": "way/932981923", "building": "yes" }, "geometry": { "type": "MultiPolygon", "coordinates": [ [ [ [ -70.4350045, 18.7404866 ], [ -70.4349383, 18.7405284 ], [ -70.4348873, 18.740456 ], [ -70.4349536, 18.7404142 ], [ -70.4350045, 18.7404866 ] ] ] ] } },
{ "type": "Feature", "properties": { "osm_id": "way/932981924", "building": "yes" }, "geometry": { "type": "MultiPolygon", "coordinates": [ [ [ [ -70.4349455, 18.7402123 ], [ -70.4348651, 18.7401082 ], [ -70.4349602, 18.7400422 ], [ -70.4350407, 18.7401464 ], [ -70.4349455, 18.7402123 ] ] ] ] } },
{ "type": "Feature", "properties": { "osm_id": "way/932981925", "building": "yes" }, "geometry": { "type": "MultiPolygon", "coordinates": [ [ [ [ -70.4357328, 18.7404028 ], [ -70.4356496, 18.7403228 ], [ -70.4357051, 18.740271 ], [ -70.4357883, 18.740351 ], [ -70.4357328, 18.7404028 ] ] ] ] } },
{ "type": "Feature", "properties": { "osm_id": "way/932981926", "building": "yes" }, "geometry": { "type": "MultiPolygon", "coordinates": [ [ [ [ -70.4355074, 18.7403863 ], [ -70.4354592, 18.7403241 ], [ -70.435542, 18.7402665 ], [ -70.4355902, 18.7403287 ], [ -70.4355074, 18.7403863 ] ] ] ] } },
{ "type": "Feature", "properties": { "osm_id": "way/932981927", "building": "greenhouse" }, "geometry": { "type": "MultiPolygon", "coordinates": [ [ [ [ -70.4339799, 18.7420284 ], [ -70.4338914, 18.7415496 ], [ -70.4348656, 18.7412756 ], [ -70.4348959, 18.7415102 ], [ -70.4347739, 18.7415293 ], [ -70.43482, 18.7418559 ], [ -70.4339799, 18.7420284 ] ] ] ] } },
{ "type": "Feature", "properties": { "osm_id": "way/932981928", "building": "yes" }, "geometry": { "type": "MultiPolygon", "coordinates": [ [ [ [ -70.4401959, 18.7546682 ], [ -70.440204, 18.7545869 ], [ -70.4403049, 18.7545958 ], [ -70.4402969, 18.7546771 ], [ -70.4401959, 18.7546682 ] ] ] ] } },
{ "type": "Feature", "properties": { "osm_id": "way/933039886", "building": "yes" }, "geometry": { "type": "MultiPolygon", "coordinates": [ [ [ [ -70.4648455, 18.8062244 ], [ -70.4648455, 18.8061711 ], [ -70.4649259, 18.8061711 ], [ -70.4649259, 18.8062244 ], [ -70.4648455, 18.8062244 ] ] ] ] } },
{ "type": "Feature", "properties": { "osm_id": "way/933039887", "building": "yes" }, "geometry": { "type": "MultiPolygon", "coordinates": [ [ [ [ -70.4672742, 18.8084664 ], [ -70.4671897, 18.8083851 ], [ -70.4672141, 18.8083624 ], [ -70.4672369, 18.8083844 ], [ -70.4672831, 18.8083414 ], [ -70.4673447, 18.8084007 ], [ -70.4672742, 18.8084664 ] ] ] ] } },
{ "type": "Feature", "properties": { "osm_id": "way/933039888", "building": "yes" }, "geometry": { "type": "MultiPolygon", "coordinates": [ [ [ [ -70.4668571, 18.8073607 ], [ -70.4668292, 18.8073155 ], [ -70.4668841, 18.807285 ], [ -70.4669121, 18.8073302 ], [ -70.4668571, 18.8073607 ] ] ] ] } },
{ "type": "Feature", "properties": { "osm_id": "way/933039889", "building": "yes" }, "geometry": { "type": "MultiPolygon", "coordinates": [ [ [ [ -70.4671159, 18.8074317 ], [ -70.467065, 18.8073911 ], [ -70.4671119, 18.8073384 ], [ -70.4671628, 18.807379 ], [ -70.4671159, 18.8074317 ] ] ] ] } },
{ "type": "Feature", "properties": { "osm_id": "way/933039890", "building": "yes" }, "geometry": { "type": "MultiPolygon", "coordinates": [ [ [ [ -70.467824, 18.8076444 ], [ -70.4677121, 18.8075758 ], [ -70.4677575, 18.8075094 ], [ -70.4678694, 18.8075779 ], [ -70.467824, 18.8076444 ] ] ] ] } },
{ "type": "Feature", "properties": { "osm_id": "way/933039891", "building": "yes" }, "geometry": { "type": "MultiPolygon", "coordinates": [ [ [ [ -70.4667605, 18.8088879 ], [ -70.4667082, 18.8089285 ], [ -70.4666796, 18.8088954 ], [ -70.4667069, 18.8088742 ], [ -70.4666957, 18.8088614 ], [ -70.4667208, 18.8088419 ], [ -70.4667605, 18.8088879 ] ] ] ] } },
{ "type": "Feature", "properties": { "osm_id": "way/933039892", "building": "yes" }, "geometry": { "type": "MultiPolygon", "coordinates": [ [ [ [ -70.4661383, 18.8094528 ], [ -70.4661128, 18.8092966 ], [ -70.4661573, 18.8092901 ], [ -70.4661673, 18.809351 ], [ -70.4661913, 18.8093475 ], [ -70.4662069, 18.8094427 ], [ -70.4661383, 18.8094528 ] ] ] ] } },
{ "type": "Feature", "properties": { "osm_id": "way/933067810", "building": "yes" }, "geometry": { "type": "MultiPolygon", "coordinates": [ [ [ [ -70.4596771, 18.8037115 ], [ -70.4596264, 18.8037647 ], [ -70.4595966, 18.8037393 ], [ -70.4596472, 18.803686 ], [ -70.4596771, 18.8037115 ] ] ] ] } },
{ "type": "Feature", "properties": { "osm_id": "way/933067814", "building": "yes" }, "geometry": { "type": "MultiPolygon", "coordinates": [ [ [ [ -70.4573786, 18.8017406 ], [ -70.4573083, 18.8017397 ], [ -70.4573097, 18.8016412 ], [ -70.45738, 18.8016421 ], [ -70.4573786, 18.8017406 ] ] ] ] } },
{ "type": "Feature", "properties": { "osm_id": "way/933067815", "building": "yes" }, "geometry": { "type": "MultiPolygon", "coordinates": [ [ [ [ -70.4671166, 18.8083225 ], [ -70.4670806, 18.8082698 ], [ -70.4671201, 18.8082457 ], [ -70.467156, 18.8082984 ], [ -70.4671166, 18.8083225 ] ] ] ] } },
{ "type": "Feature", "properties": { "osm_id": "way/933067820", "building": "yes" }, "geometry": { "type": "MultiPolygon", "coordinates": [ [ [ [ -70.4691381, 18.7983284 ], [ -70.4691002, 18.798367 ], [ -70.4690502, 18.798323 ], [ -70.4690882, 18.7982844 ], [ -70.4691381, 18.7983284 ] ] ] ] } },
{ "type": "Feature", "properties": { "osm_id": "way/933067821", "building": "yes" }, "geometry": { "type": "MultiPolygon", "coordinates": [ [ [ [ -70.4684999, 18.8000917 ], [ -70.4684394, 18.8000238 ], [ -70.4684928, 18.7999812 ], [ -70.4685533, 18.8000491 ], [ -70.4684999, 18.8000917 ] ] ] ] } },
{ "type": "Feature", "properties": { "osm_id": "way/933069015", "building": "yes" }, "geometry": { "type": "MultiPolygon", "coordinates": [ [ [ [ -70.4660439, 18.8072273 ], [ -70.4660439, 18.8071781 ], [ -70.4660735, 18.8071781 ], [ -70.4660735, 18.8072273 ], [ -70.4660439, 18.8072273 ] ] ] ] } },
{ "type": "Feature", "properties": { "osm_id": "way/933080185", "building": "yes" }, "geometry": { "type": "MultiPolygon", "coordinates": [ [ [ [ -70.3973322, 18.8076019 ], [ -70.397284, 18.8076019 ], [ -70.397284, 18.8075327 ], [ -70.3973322, 18.8075327 ], [ -70.3973322, 18.8076019 ] ] ] ] } }
]
}
