{"type": "FeatureCollection", "features": [{"type": "Feature", "id": "Aprobados.585953", "geometry": {"type": "MultiPolygon", "coordinates": [[[[-70.46141663, 18.71703996], [-70.46133832, 18.71707935], [-70.46121276, 18.71742043], [-70.4609056, 18.71833551], [-70.46088366, 18.71873948], [-70.45997817, 18.71949415], [-70.45985549, 18.7201276], [-70.45957388, 18.72040827], [-70.45957153, 18.72058782], [-70.45954639, 18.7210389], [-70.45932228, 18.72138996], [-70.45885238, 18.72126649], [-70.45867259, 18.7213343], [-70.4585349, 18.72109078], [-70.4558536, 18.72373097], [-70.45426025, 18.72245246], [-70.45430401, 18.72225295], [-70.45435794, 18.72209405], [-70.45433577, 18.72188531], [-70.45422598, 18.72167835], [-70.45403797, 18.72147126], [-70.4538923, 18.72137065], [-70.45370448, 18.72125384], [-70.45355853, 18.72115523], [-70.453695, 18.72088194], [-70.45389164, 18.72053427], [-70.45400353, 18.72034001], [-70.4541777, 18.72005295], [-70.45454869, 18.7194361], [-70.4547493, 18.71910918], [-70.45487696, 18.71888325], [-70.45498306, 18.71869483], [-70.45507596, 18.71853787], [-70.45516613, 18.71839405], [-70.45526949, 18.71823624], [-70.45633687, 18.71860196], [-70.45695987, 18.71771193], [-70.45721504, 18.7173321], [-70.45754834, 18.71683703], [-70.45765539, 18.71667244], [-70.45796925, 18.71621082], [-70.45820746, 18.7158518], [-70.4583633, 18.71561616], [-70.4585835, 18.71529091], [-70.45870963, 18.71510612], [-70.45871935, 18.71508648], [-70.45873514, 18.71501366], [-70.45946659, 18.71494899], [-70.45998055, 18.71489899], [-70.46003306, 18.71489227], [-70.46007868, 18.71488643], [-70.46016711, 18.71484265], [-70.46029827, 18.71477771], [-70.4604336, 18.7147107], [-70.46055637, 18.71492403], [-70.46058147, 18.7149902], [-70.46063493, 18.71515208], [-70.46069299, 18.71535639], [-70.46076073, 18.71557382], [-70.4607885, 18.71567851], [-70.4608196, 18.71581655], [-70.46084888, 18.71595416], [-70.46090971, 18.71613228], [-70.46093294, 18.71617836], [-70.46097259, 18.71625701], [-70.46118854, 18.71662247], [-70.46135484, 18.71689186], [-70.46141663, 18.71703996]]]]}, "geometry_name": "the_geom", "properties": {"Posicional": "304760331910", "Expediente": "6642024034813-07", "Area": 397483, "Municipio": "RANCHO ARRIBA", "Provincia": "San Jos\u00e9 de Ocoa", "Operacion": "Refundici\u00f3n", "FechaInsc": "2/2/2025 6:22:50 p.\u00a0m.", "area_calc_m2": 397493, "touches_family_land": true, "owner": "Familia (finca original 6642024034813_1-1-1)", "owner_source": "plano catastral 2026", "family": true, "name": "Familia (finca original 6642024034813_1-1-1)", "label": "Registro Inmobiliario \u00b7 posicional 304760331910 \u00b7 Refundici\u00f3n \u00b7 inscrita 2/2/2025 6:22:50 p.\u00a0m.", "area_m2": 397483, "plan_area_m2": 397483, "area_ha": 39.75, "area_acres": 98.2, "source": "Registro Inmobiliario GeoServer (Aprobados), expediente 6642024034813-07", "category": "ours"}}, {"type": "Feature", "id": "Aprobados.585961", "geometry": {"type": "MultiPolygon", "coordinates": [[[[-70.46139243, 18.71698196], [-70.46132658, 18.71697029], [-70.46121448, 18.71693574], [-70.46110813, 18.716897], [-70.4609039, 18.71679052], [-70.46076207, 18.71671745], [-70.46111748, 18.7165022], [-70.46118854, 18.71662247], [-70.46135484, 18.71689186], [-70.46139243, 18.71698196]]]]}, "geometry_name": "the_geom", "properties": {"Posicional": "304750914187", "Expediente": "6642024034813-07", "Area": 1517.26, "Municipio": "RANCHO ARRIBA", "Provincia": "San Jos\u00e9 de Ocoa", "Operacion": "Subdivisi\u00f3n", "FechaInsc": "2/2/2025 6:22:50 p.\u00a0m.", "area_calc_m2": 1517, "touches_family_land": true, "owner": "Familia (parcela resultante _8)", "owner_source": "plano catastral 2026", "family": true, "name": "Familia (parcela resultante _8)", "label": "Registro Inmobiliario \u00b7 posicional 304750914187 \u00b7 Subdivisi\u00f3n \u00b7 inscrita 2/2/2025 6:22:50 p.\u00a0m.", "area_m2": 1517.26, "plan_area_m2": 1517.26, "area_ha": 0.15, "area_acres": 0.4, "source": "Registro Inmobiliario GeoServer (Aprobados), expediente 6642024034813-07", "category": "ours"}}, {"type": "Feature", "id": "Aprobados.585954", "geometry": {"type": "MultiPolygon", "coordinates": [[[[-70.46076073, 18.71557382], [-70.45997313, 18.71626263], [-70.45967733, 18.71652164], [-70.45970971, 18.71656507], [-70.45976902, 18.71661957], [-70.45979333, 18.71663086], [-70.45984803, 18.71664278], [-70.46001667, 18.71664751], [-70.4601006, 18.7166505], [-70.45957075, 18.71715174], [-70.45921715, 18.71748583], [-70.45897082, 18.71771658], [-70.45864339, 18.71802433], [-70.45840381, 18.71825068], [-70.45815469, 18.71848299], [-70.45774851, 18.71886123], [-70.45776183, 18.71896765], [-70.458856, 18.72059171], [-70.45845273, 18.72097254], [-70.45849381, 18.72103166], [-70.45579874, 18.72368696], [-70.45426025, 18.72245246], [-70.45430401, 18.72225295], [-70.45435794, 18.72209405], [-70.45433577, 18.72188531], [-70.45422598, 18.72167835], [-70.45403797, 18.72147126], [-70.4538923, 18.72137065], [-70.45370448, 18.72125384], [-70.45355853, 18.72115523], [-70.453695, 18.72088194], [-70.45389164, 18.72053427], [-70.45400353, 18.72034001], [-70.4541777, 18.72005295], [-70.45454869, 18.7194361], [-70.4547493, 18.71910918], [-70.45487696, 18.71888325], [-70.45498306, 18.71869483], [-70.45507596, 18.71853787], [-70.45516613, 18.71839405], [-70.45526949, 18.71823624], [-70.45633687, 18.71860196], [-70.45695987, 18.71771193], [-70.45721504, 18.7173321], [-70.45754834, 18.71683703], [-70.45765539, 18.71667244], [-70.45796925, 18.71621082], [-70.45820746, 18.7158518], [-70.4583633, 18.71561616], [-70.4585835, 18.71529091], [-70.45870963, 18.71510612], [-70.45871935, 18.71508648], [-70.45877708, 18.71509181], [-70.45900994, 18.71506806], [-70.45932632, 18.7150332], [-70.45955105, 18.71502247], [-70.45975549, 18.71502146], [-70.45993224, 18.71506024], [-70.45998501, 18.71509394], [-70.46012258, 18.71521052], [-70.46020857, 18.71521406], [-70.46025599, 18.71519576], [-70.46026734, 18.71516584], [-70.46030141, 18.71513495], [-70.46040101, 18.71506578], [-70.46052421, 18.71500867], [-70.46058147, 18.7149902], [-70.46063493, 18.71515208], [-70.46069299, 18.71535639], [-70.46076073, 18.71557382]]]]}, "geometry_name": "the_geom", "properties": {"Posicional": "304760349243", "Expediente": "6642024034813-07", "Area": 282452.35, "Municipio": "RANCHO ARRIBA", "Provincia": "San Jos\u00e9 de Ocoa", "Operacion": "Subdivisi\u00f3n", "FechaInsc": "2/2/2025 6:22:50 p.\u00a0m.", "area_calc_m2": 282452, "touches_family_land": true, "owner": "Familia (parcela resultante _1)", "owner_source": "plano catastral 2026", "family": true, "name": "Familia (parcela resultante _1)", "label": "Registro Inmobiliario \u00b7 posicional 304760349243 \u00b7 Subdivisi\u00f3n \u00b7 inscrita 2/2/2025 6:22:50 p.\u00a0m.", "area_m2": 282452.35, "plan_area_m2": 282452.35, "area_ha": 28.25, "area_acres": 69.8, "source": "Registro Inmobiliario GeoServer (Aprobados), expediente 6642024034813-07", "category": "ours"}}, {"type": "Feature", "id": "Aprobados.585955", "geometry": {"type": "MultiPolygon", "coordinates": [[[[-70.46076073, 18.71557382], [-70.4607885, 18.71567851], [-70.4608196, 18.71581655], [-70.46084888, 18.71595416], [-70.4601006, 18.7166505], [-70.46001667, 18.71664751], [-70.45984803, 18.71664278], [-70.45979333, 18.71663086], [-70.45976902, 18.71661957], [-70.45970971, 18.71656507], [-70.45967733, 18.71652164], [-70.45997313, 18.71626263], [-70.46076073, 18.71557382]]]]}, "geometry_name": "the_geom", "properties": {"Posicional": "304760003504", "Expediente": "6642024034813-07", "Area": 5395.34, "Municipio": "RANCHO ARRIBA", "Provincia": "San Jos\u00e9 de Ocoa", "Operacion": "Subdivisi\u00f3n", "FechaInsc": "2/2/2025 6:22:50 p.\u00a0m.", "area_calc_m2": 5395, "touches_family_land": true, "owner": "Familia (parcela resultante _2)", "owner_source": "plano catastral 2026", "family": true, "name": "Familia (parcela resultante _2)", "label": "Registro Inmobiliario \u00b7 posicional 304760003504 \u00b7 Subdivisi\u00f3n \u00b7 inscrita 2/2/2025 6:22:50 p.\u00a0m.", "area_m2": 5395.34, "plan_area_m2": 5395.34, "area_ha": 0.54, "area_acres": 1.3, "source": "Registro Inmobiliario GeoServer (Aprobados), expediente 6642024034813-07", "category": "ours"}}, {"type": "Feature", "id": "Aprobados.585956", "geometry": {"type": "MultiPolygon", "coordinates": [[[[-70.46084888, 18.71595416], [-70.46090971, 18.71613228], [-70.46093294, 18.71617836], [-70.46097259, 18.71625701], [-70.46111748, 18.7165022], [-70.46076207, 18.71671745], [-70.4609039, 18.71679052], [-70.46110813, 18.716897], [-70.46121448, 18.71693574], [-70.46132658, 18.71697029], [-70.46139243, 18.71698196], [-70.46141663, 18.71703996], [-70.46133832, 18.71707935], [-70.46121276, 18.71742043], [-70.4609056, 18.71833551], [-70.46088366, 18.71873948], [-70.45997817, 18.71949415], [-70.45985549, 18.7201276], [-70.45957388, 18.72040827], [-70.45957153, 18.72058782], [-70.45954639, 18.7210389], [-70.45932228, 18.72138996], [-70.45885238, 18.72126649], [-70.45867259, 18.7213343], [-70.4585349, 18.72109078], [-70.4558536, 18.72373097], [-70.45579874, 18.72368696], [-70.45849381, 18.72103166], [-70.45845273, 18.72097254], [-70.458856, 18.72059171], [-70.45776183, 18.71896765], [-70.45774851, 18.71886123], [-70.45815469, 18.71848299], [-70.45840381, 18.71825068], [-70.45864339, 18.71802433], [-70.45897082, 18.71771658], [-70.45921715, 18.71748583], [-70.45957075, 18.71715174], [-70.4601006, 18.7166505], [-70.46084888, 18.71595416]]]]}, "geometry_name": "the_geom", "properties": {"Posicional": "304760131359", "Expediente": "6642024034813-07", "Area": 104744.43, "Municipio": "RANCHO ARRIBA", "Provincia": "San Jos\u00e9 de Ocoa", "Operacion": "Subdivisi\u00f3n", "FechaInsc": "2/2/2025 6:22:50 p.\u00a0m.", "area_calc_m2": 104745, "touches_family_land": true, "owner": "Familia (parcela resultante _3)", "owner_source": "plano catastral 2026", "family": true, "name": "Familia (parcela resultante _3)", "label": "Registro Inmobiliario \u00b7 posicional 304760131359 \u00b7 Subdivisi\u00f3n \u00b7 inscrita 2/2/2025 6:22:50 p.\u00a0m.", "area_m2": 104744.43, "plan_area_m2": 104744.43, "area_ha": 10.47, "area_acres": 25.9, "source": "Registro Inmobiliario GeoServer (Aprobados), expediente 6642024034813-07", "category": "ours"}}, {"type": "Feature", "properties": {"name": "Parcela 2 (plano 2026, wooded hillside; not yet an approved parcel, lies on historic 332-A-1)", "label": "Second parcel from the DWG (block 910876): wooded hillside NE of _3; catastral designation to confirm", "plan_area_m2": null, "area_m2": 74427.6, "area_ha": 7.44, "area_acres": 18.4, "vertices": 12, "source": "DWG '2026.07 Catastral Finca Rancho Arriba' (agrimensor W. Mart\u00ednez Betances, CODIA 23017), georeferenced via the KMZ of parcel _3", "dwg_block": "Family - ___-910876-NIVEL 1", "category": "ours", "owner": "Familia (per the plano; designaci\u00f3n catastral to confirm)"}, "geometry": {"type": "Polygon", "coordinates": [[[-70.45867926217157, 18.721296687544775], [-70.45913038157235, 18.722316641979507], [-70.45968695175848, 18.723400633299487], [-70.45928191047747, 18.724071828565158], [-70.45895643540297, 18.724162522573934], [-70.4572387686659, 18.723892607992944], [-70.45702015680028, 18.72397811124563], [-70.45638944367514, 18.72425368100887], [-70.45622873249324, 18.724007683145494], [-70.45586066088684, 18.723693395868], [-70.45854229731047, 18.72105356843027], [-70.45867999067939, 18.721297041104627], [-70.45867926217157, 18.721296687544775]]]}}]}