{
"type": "FeatureCollection",
"name": "competitors",
"crs": { "type": "name", "properties": { "name": "urn:ogc:def:crs:OGC:1.3:CRS84" } },
"features": [
{ "type": "Feature", "properties": { "name": "Proyecto Ecotur<c3><ad>stico Arroyo Blanco (Aval Group RD)", "sector": "Arroyo Blanco, Rancho Arriba", "anchor_place": "Arroyo Blanco", "lot_m2": "500+ (villas from 1,000)", "price": "US$70/m<c2><b2>; 0% financing 6<e2><80><93>12 mo or 2%/yr; HOA US$50<e2><80><93>100/mo", "services": "private access road, electricity, river pools, heliport, clubhouse, boutique hotel (planned)", "url": "https://avalgrouprd.com/propiedad/proyecto-ecoturistico-en-rancho-arriba-san-jose-de-ocoa", "approx": true, "notes": "Location = village anchor; 1h15 from Santo Domingo, 30 min from Bonao" }, "geometry": { "type": "Point", "coordinates": [ -70.4289391, 18.7038299 ] } },
{ "type": "Feature", "properties": { "name": "Proyecto de solares, Corredor Padre Luis Quinn (Aval Group RD)", "sector": "Nizao district, 14 km from Ocoa town", "anchor_place": "Nizao", "lot_m2": "200<e2><80><93>1,000", "price": "RD$2,000<e2><80><93>3,000 per m<c2><b2> as listed (verify) <e2><89><88> US$33<e2><80><93>50/m<c2><b2>; cash only until titles issued", "services": "potable water to each lot, asphalt access, internal roads with base, sidewalks, drainage; 60 lots phase 1", "url": "https://avalgrouprd.com/propiedad/proyecto-de-solares-en-san-jose-de-ocoa-1289", "approx": true, "notes": "Location = village anchor" }, "geometry": { "type": "Point", "coordinates": [ -70.4580018, 18.6371949 ] } },
{ "type": "Feature", "properties": { "name": "Monta<c3><b1>a M<c3><a1>gica (eco-tourism villas)", "sector": "Rancho Arriba (paraje TBD)", "anchor_place": "Rancho Arriba", "lot_m2": "500<e2><80><93>2,000", "price": "not published", "services": "helipad, stables, clubhouse, commercial area, 24/7 security; 25 ha of 50 ha developed", "url": "https://montanamagica.com.do/", "approx": true, "notes": "Marca Pa<c3><ad>s project; location = town anchor, verify on site" }, "geometry": { "type": "Point", "coordinates": [ -70.4465103, 18.6970365 ] } },
{ "type": "Feature", "properties": { "name": "Solares Rancho Arriba (encuentra24 listing)", "sector": "Rancho Arriba (sector n/a)", "anchor_place": "Rancho Arriba", "lot_m2": "500 min", "price": "RD$1,800/m<c2><b2> (~US$30/m<c2><b2>), water included", "services": "potable water", "url": "https://www.encuentra24.com/dominicana-es/bienes-raices-venta-de-propiedades-lotes-y-terrenos/venta-de-solares-en-rancho-arriba-ocoa/29547662", "approx": true, "notes": "Listing may be stale" }, "geometry": { "type": "Point", "coordinates": [ -70.4465103, 18.6970365 ] } },
{ "type": "Feature", "properties": { "name": "Proyecto ecotur<c3><ad>stico 41,435 m<c2><b2> Ruta Panor<c3><a1>mica (listing)", "sector": "Ruta Panor<c3><a1>mica (n/a)", "anchor_place": "Rancho Arriba", "lot_m2": "n/a", "price": "n/a", "services": "n/a", "url": "https://salvador.buscocasita.com/proyecto-ecoturistico-para-villas-en-la-montana-41435-mts2-ubicado-en-la-ruta_263714.html", "approx": true, "notes": "Whole-project sale listing; location unverified" }, "geometry": { "type": "Point", "coordinates": [ -70.4465103, 18.6970365 ] } }
]
}
