{"type": "FeatureCollection", "features": [{"type": "Feature", "properties": {"kind": "lot", "id": "B-01", "area_m2": 1924, "price_usd_m2": 60, "price_usd": 115440, "tier": "base", "slope_pct": 3.6, "elev_m": 707.2}, "geometry": {"type": "Polygon", "coordinates": [[[-70.46122027095642, 18.71738308295572], [-70.46122024904206, 18.717383142478816], [-70.46122012281424, 18.71738350129685], [-70.46122010265269, 18.7173835613797], [-70.46120927515273, 18.71741582808512], [-70.4606832361661, 18.716805100538906], [-70.46069805872634, 18.716759680779905], [-70.46071011109039, 18.716723644519014], [-70.46134062724182, 18.717055719258397], [-70.46134070940337, 18.71705575771975], [-70.46134077235413, 18.71705578030252], [-70.46122027095642, 18.71738308295572]]]}}, {"type": "Feature", "properties": {"kind": "lot", "id": "B-02", "area_m2": 3098, "price_usd_m2": 60, "price_usd": 185880, "tier": "base", "slope_pct": 2.4, "elev_m": 706.3}, "geometry": {"type": "Polygon", "coordinates": [[[-70.46120673795498, 18.717423389109758], [-70.46108546239725, 18.71778479792081], [-70.46094826662215, 18.717625515372255], [-70.46056649710759, 18.717182283597108], [-70.46059988391654, 18.71713131363], [-70.46060161583522, 18.717128372400786], [-70.46060305247892, 18.717125290151305], [-70.46060418133759, 18.717122093721372], [-70.46060499258125, 18.717118810945095], [-70.46062319631932, 18.717025908841347], [-70.46064468069498, 18.71693551691348], [-70.46066957270213, 18.716846968538388], [-70.4606832361661, 18.716805100538906], [-70.46120927515273, 18.71741582808512], [-70.46120673795498, 18.717423389109758]]]}}, {"type": "Feature", "properties": {"kind": "lot", "id": "B-03", "area_m2": 2660, "price_usd_m2": 60, "price_usd": 159600, "tier": "base", "slope_pct": 2.4, "elev_m": 705.0}, "geometry": {"type": "Polygon", "coordinates": [[[-70.45971947989071, 18.717026967712723], [-70.45971945601141, 18.717027053412036], [-70.45971944106283, 18.717027140928884], [-70.45971943518897, 18.717027229420427], [-70.45971943844636, 18.71702731803445], [-70.45971945080365, 18.717027405917552], [-70.4597194721418, 18.71702749222337], [-70.45971950225537, 18.717027576120724], [-70.4597195408543, 18.717027656801644], [-70.45971958756687, 18.717027733489125], [-70.45971964194322, 18.71702780544463], [-70.4597197034597, 18.71702787197518], [-70.45971977152382, 18.71702793244006], [-70.45971984548012, 18.71702798625696], [-70.45971992461635, 18.71702803290757], [-70.46021793961775, 18.717290326272852], [-70.46023446794604, 18.7172990313359], [-70.4602345515003, 18.717299070370725], [-70.46023463866773, 18.717299101414074], [-70.46023472860877, 18.717299124166985], [-70.46023482045729, 18.717299138410315], [-70.46023491332872, 18.717299144006912], [-70.46023500632866, 18.717299140902877], [-70.4602350985615, 18.717299129128097], [-70.46023518913893, 18.717299108795967], [-70.46023527718869, 18.7172990801023], [-70.46023536186276, 18.717299043323436], [-70.46023544234573, 18.717298998813572], [-70.4602355178625, 18.717298947001353], [-70.46023558768577, 18.717298888385777], [-70.46023565114315, 18.717298823531337], [-70.46023570762348, 18.71729875306261], [-70.46023575658282, 18.717298677658253], [-70.46033243280192, 18.717132023396797], [-70.46043343193065, 18.717249283362058], [-70.46038511176293, 18.71732369152785], [-70.46038508056878, 18.71732373964775], [-70.46033524626172, 18.717400748442813], [-70.46032572908386, 18.71741546983816], [-70.46028545740957, 18.717477762982952], [-70.46028537178732, 18.71747789606808], [-70.46023594207443, 18.71755509976981], [-70.46023563434328, 18.7175555890548], [-70.46018751607897, 18.717633483475144], [-70.46018721675897, 18.7176339768757], [-70.46014040763349, 18.717712560798365], [-70.46014024420509, 18.717712840276597], [-70.45960399730255, 18.717090255010323], [-70.45977845794168, 18.716925263744468], [-70.45971955343781, 18.717026805042575], [-70.45971951247077, 18.717026884656278], [-70.45971947989071, 18.717026967712723]]]}}, {"type": "Feature", "properties": {"kind": "lot", "id": "B-04", "area_m2": 1654, "price_usd_m2": 60, "price_usd": 99240, "tier": "base", "slope_pct": 2.6, "elev_m": 704.5}, "geometry": {"type": "Polygon", "coordinates": [[[-70.45948226078639, 18.717205277968873], [-70.4595781630419, 18.717114686999842], [-70.45960399730255, 18.717090255010323], [-70.46014024420509, 18.717712840276597], [-70.46014011641324, 18.71771305881291], [-70.46009474876124, 18.71779210168004], [-70.46005106041046, 18.71786565729407], [-70.45948226078639, 18.717205277968873]]]}}, {"type": "Feature", "properties": {"kind": "lot", "id": "B-05", "area_m2": 2064, "price_usd_m2": 60, "price_usd": 123840, "tier": "base", "slope_pct": 2.2, "elev_m": 705.7}, "geometry": {"type": "Polygon", "coordinates": [[[-70.46037662557791, 18.717474560574633], [-70.46039983116121, 18.71743866561344], [-70.4604496366922, 18.717361701245025], [-70.46049955858194, 18.717284826540855], [-70.46054962658701, 18.717208038961896], [-70.46056649710759, 18.717182283597108], [-70.46094826662215, 18.717625515372255], [-70.4606843871745, 18.71783186998379], [-70.46037662557791, 18.717474560574633]]]}}, {"type": "Feature", "properties": {"kind": "lot", "id": "B-06", "area_m2": 1744, "price_usd_m2": 60, "price_usd": 104640, "tier": "base", "slope_pct": 2.9, "elev_m": 704.0}, "geometry": {"type": "Polygon", "coordinates": [[[-70.45936051058669, 18.71732028516271], [-70.45948226078639, 18.717205277968873], [-70.46005106041046, 18.71786565729407], [-70.46004839304409, 18.717870148186293], [-70.46000020880952, 18.71794708014655], [-70.45995697866876, 18.718012787944573], [-70.45936051058669, 18.71732028516271]]]}}, {"type": "Feature", "properties": {"kind": "lot", "id": "B-07", "area_m2": 1817, "price_usd_m2": 60, "price_usd": 109020, "tier": "base", "slope_pct": 2.8, "elev_m": 703.5}, "geometry": {"type": "Polygon", "coordinates": [[[-70.45923876022216, 18.717435292287277], [-70.45936051058668, 18.71732028516271], [-70.45995697866876, 18.718012787944573], [-70.45995032695062, 18.718022898240875], [-70.45989801036535, 18.718096755143808], [-70.45985502244682, 18.718150776474648], [-70.45923876022216, 18.717435292287277]]]}}, {"type": "Feature", "properties": {"kind": "lot", "id": "B-08", "area_m2": 1862, "price_usd_m2": 60, "price_usd": 111720, "tier": "base", "slope_pct": 2.0, "elev_m": 703.2}, "geometry": {"type": "Polygon", "coordinates": [[[-70.45911661728137, 18.717549843747456], [-70.45922447063002, 18.717448790424346], [-70.45923876022216, 18.717435292287277], [-70.45985502244682, 18.718150776474648], [-70.4598411974887, 18.71816814978043], [-70.4597809941007, 18.71823798253595], [-70.45974352684519, 18.718277689930613], [-70.45911661728137, 18.717549843747456]]]}}, {"type": "Feature", "properties": {"kind": "lot", "id": "B-09", "area_m2": 2731, "price_usd_m2": 60, "price_usd": 163860, "tier": "base", "slope_pct": 3.2, "elev_m": 704.4}, "geometry": {"type": "Polygon", "coordinates": [[[-70.46001356369074, 18.71806283024634], [-70.46001426192738, 18.718061807721522], [-70.4600647044676, 18.717985137371365], [-70.4600651379863, 18.71798446212185], [-70.46011375914482, 18.7179068325097], [-70.46011419856372, 18.71790611218329], [-70.4601609054469, 18.717827474384766], [-70.46016117361617, 18.71782701512431], [-70.46019213034683, 18.717773079996746], [-70.46020653002762, 18.71774799178523], [-70.46025304384011, 18.717669903585453], [-70.46030085854166, 18.717592500525544], [-70.46035008968164, 18.717515606924245], [-70.46037662557791, 18.717474560574633], [-70.4606843871745, 18.71783186998379], [-70.46042050707716, 18.718038224262852], [-70.46015662633016, 18.718244578209404], [-70.46000747956448, 18.71807141939972], [-70.46001356369074, 18.71806283024634]]]}}, {"type": "Feature", "properties": {"kind": "lot", "id": "B-10", "area_m2": 1880, "price_usd_m2": 60, "price_usd": 112800, "tier": "base", "slope_pct": 1.6, "elev_m": 702.9}, "geometry": {"type": "Polygon", "coordinates": [[[-70.45899442201458, 18.717664334577947], [-70.45904822854929, 18.717613920560698], [-70.45911661728137, 18.71754984374746], [-70.45974352684519, 18.718277689930613], [-70.45971712825289, 18.718305666860026], [-70.45964955678724, 18.718370370023035], [-70.45962153425906, 18.71839241651951], [-70.45899442201458, 18.717664334577947]]]}}, {"type": "Feature", "properties": {"kind": "lot", "id": "B-11", "area_m2": 1862, "price_usd_m2": 60, "price_usd": 111720, "tier": "base", "slope_pct": 1.4, "elev_m": 702.8}, "geometry": {"type": "Polygon", "coordinates": [[[-70.4588723643325, 18.71777898526777], [-70.45890905046721, 18.71774451213529], [-70.45897821862691, 18.717679516369042], [-70.45897824809926, 18.717679488714754], [-70.45899442201458, 18.717664334577947], [-70.45962153425906, 18.71839241651951], [-70.45957247091951, 18.718431016680434], [-70.4594940337304, 18.718491983672806], [-70.45948934829082, 18.718495308701858], [-70.4588723643325, 18.71777898526777]]]}}, {"type": "Feature", "properties": {"kind": "lot", "id": "B-12", "area_m2": 1824, "price_usd_m2": 60, "price_usd": 109440, "tier": "base", "slope_pct": 1.8, "elev_m": 702.6}, "geometry": {"type": "Polygon", "coordinates": [[[-70.45875032754377, 18.717893660336745], [-70.4588723643325, 18.71777898526777], [-70.45948934829083, 18.718495308701858], [-70.45941120164166, 18.718550765550674], [-70.45941114557742, 18.718550805413322], [-70.45935239093666, 18.718592661399367], [-70.45875032754377, 18.717893660336745]]]}}, {"type": "Feature", "properties": {"kind": "lot", "id": "B-13", "area_m2": 1780, "price_usd_m2": 60, "price_usd": 106800, "tier": "base", "slope_pct": 1.7, "elev_m": 702.4}, "geometry": {"type": "Polygon", "coordinates": [[[-70.45862834323442, 18.718008396456803], [-70.45865073654197, 18.717987243597452], [-70.4586507894935, 18.717987193709856], [-70.45875032754377, 18.717893660336745], [-70.45935239093666, 18.718592661399367], [-70.45932782666044, 18.71861016063574], [-70.45932772058383, 18.718610236479005], [-70.45924475030355, 18.718669775318222], [-70.45924415485753, 18.71867021147513], [-70.45921630837829, 18.71869102983326], [-70.45862834323442, 18.718008396456803]]]}}, {"type": "Feature", "properties": {"kind": "lot", "id": "B-14", "area_m2": 1741, "price_usd_m2": 60, "price_usd": 104460, "tier": "base", "slope_pct": 1.7, "elev_m": 702.2}, "geometry": {"type": "Polygon", "coordinates": [[[-70.4585065920018, 18.718123403304713], [-70.45862834323441, 18.718008396456803], [-70.45921630837829, 18.718691029833252], [-70.45916313915966, 18.718730779746956], [-70.45916288888542, 18.71873096848113], [-70.45908269379348, 18.718791968947347], [-70.45908254107425, 18.718792086384774], [-70.4585065920018, 18.718123403304713]]]}}, {"type": "Feature", "properties": {"kind": "lot", "id": "B-15", "area_m2": 1708, "price_usd_m2": 60, "price_usd": 102480, "tier": "base", "slope_pct": 1.3, "elev_m": 702.0}, "geometry": {"type": "Polygon", "coordinates": [[[-70.45838468936202, 18.71823823448826], [-70.45841108918864, 18.718213614325343], [-70.4584112406601, 18.71821347252119], [-70.4585065920018, 18.718123403304713], [-70.45908254107425, 18.718792086384774], [-70.45908238008558, 18.7187922101812], [-70.45900321334864, 18.71885375225951], [-70.45900307078706, 18.71885386363388], [-70.45895049518404, 18.71889514160877], [-70.45838468936202, 18.71823823448826]]]}}, {"type": "Feature", "properties": {"kind": "lot", "id": "B-16", "area_m2": 3345, "price_usd_m2": 60, "price_usd": 200700, "tier": "base", "slope_pct": 3.7, "elev_m": 703.2}, "geometry": {"type": "Polygon", "coordinates": [[[-70.4598379725796, 18.71828570983743], [-70.4598390757701, 18.71828448687531], [-70.45990028519971, 18.718213487133735], [-70.45990120018618, 18.718212382641838], [-70.45995909003858, 18.718139634574623], [-70.45996030488361, 18.718138017353887], [-70.46000747956448, 18.718071419399724], [-70.46015662633016, 18.718244578209408], [-70.46068931847434, 18.71886302761354], [-70.46068654176791, 18.718864148962847], [-70.46068528560218, 18.718864727092832], [-70.4606767070051, 18.718869182537368], [-70.46067551636007, 18.718869875201374], [-70.46066743739988, 18.71887511037826], [-70.460666323742, 18.718875910905606], [-70.46065882222348, 18.718881875397294], [-70.46065779627791, 18.71888277607845], [-70.46065094444477, 18.718889412443737], [-70.46065001609193, 18.718890404604654], [-70.46064387993107, 18.71889764893177], [-70.46064305811149, 18.718898723017443], [-70.46063769671755, 18.71890650553963], [-70.46063698934583, 18.718907651206035], [-70.46063285275079, 18.718915172583667], [-70.46063152700775, 18.718917334042356], [-70.4606299976265, 18.718919369735875], [-70.46062827765334, 18.71892126229882], [-70.46062638176048, 18.71892299558674], [-70.46060617042558, 18.71893983617007], [-70.46060390467908, 18.718941538801342], [-70.46060146956586, 18.718943013970367], [-70.46059889014093, 18.718944246499046], [-70.46059619294407, 18.71894522370586], [-70.46059340572687, 18.71894593553628], [-70.46059055716711, 18.718946374666245], [-70.46058767657375, 18.71894653657753], [-70.46054574330091, 18.71894686352174], [-70.460545020753, 18.718946886664746], [-70.46053455847778, 18.718947475734804], [-70.46053312244423, 18.718947626668154], [-70.46052313401223, 18.718949169435174], [-70.46052172147493, 18.718949458478907], [-70.46051194898594, 18.718951959336405], [-70.46051057453657, 18.718952383504668], [-70.46050111894138, 18.718955816618525], [-70.46049979677811, 18.718956371529632], [-70.46049075575415, 18.71896070143541], [-70.46048949953506, 18.71896138135708], [-70.46048096647708, 18.71896656332641], [-70.46047978917905, 18.718967361234984], [-70.4604718522345, 18.718973341737588], [-70.46047076601921, 18.71897424939055], [-70.4604635071777, 18.71898096664718], [-70.46046252326583, 18.71898197466841], [-70.46045601751206, 18.718989359289083], [-70.4604551460676, 18.718990457265576], [-70.46044946060687, 18.71899843296634], [-70.46044871063192, 18.718999609555897], [-70.46044390419584, 18.719008093946847], [-70.46044328343778, 18.71900933699517], [-70.46043940567755, 18.719018242431595], [-70.46043892054887, 18.71901953909783], [-70.46043770251774, 18.719023405646897], [-70.46043677537718, 18.71902589962097], [-70.46043559746933, 18.719028295587485], [-70.46043418001699, 18.719030570718317], [-70.46043253652522, 18.719032703336687], [-70.46043068265276, 18.719034673123577], [-70.46042863606277, 18.71903646131139], [-70.4604264162546, 18.719038050862796], [-70.46042404437797, 18.719039426632975], [-70.46042154303144, 18.719040575513965], [-70.46041893604718, 18.71904148655954], [-70.46041393015345, 18.719042976174165], [-70.46041262056244, 18.719043434200543], [-70.4604055474067, 18.719046290619488], [-70.4604055474067, 18.719046290619488], [-70.46039213733805, 18.719030721732604], [-70.46039213733805, 18.7190307217326], [-70.46048294594614, 18.718874183328115], [-70.4604829869132, 18.71887410371426], [-70.46048301949317, 18.718874020657697], [-70.46048304337226, 18.718873934958314], [-70.46048305832052, 18.718873847441436], [-70.46048306419398, 18.7188737589499], [-70.46048306093608, 18.71887367033594], [-70.46048304857821, 18.718873582452943], [-70.46048302723936, 18.718873496147275], [-70.46048299712504, 18.718873412250108], [-70.46048295852528, 18.718873331569412], [-70.4604829118118, 18.718873254882194], [-70.4604828574345, 18.718873182926988], [-70.46048279591703, 18.718873116396765], [-70.46048272785185, 18.71887305593225], [-70.46048265389449, 18.718873002115735], [-70.46048257475717, 18.71887295546552], [-70.46006833041189, 18.71865478556048], [-70.46006833041189, 18.718654785560478], [-70.45979220888114, 18.718334209729033], [-70.4598379725796, 18.71828570983743]]]}}, {"type": "Feature", "properties": {"kind": "lot", "id": "B-17", "area_m2": 1690, "price_usd_m2": 60, "price_usd": 101400, "tier": "base", "slope_pct": 1.1, "elev_m": 702.0}, "geometry": {"type": "Polygon", "coordinates": [[[-70.45826223910466, 18.7183524299994], [-70.45838468936202, 18.71823823448826], [-70.45895049518404, 18.718895141608762], [-70.45892437136564, 18.7189156518379], [-70.45892154924968, 18.718918105025594], [-70.45885217958335, 18.71898480701449], [-70.4588508693225, 18.7189861320291], [-70.45882852723864, 18.719009897492892], [-70.45826223910466, 18.7183524299994]]]}}, {"type": "Feature", "properties": {"kind": "lot", "id": "B-18", "area_m2": 1718, "price_usd_m2": 60, "price_usd": 103080, "tier": "base", "slope_pct": 1.7, "elev_m": 702.0}, "geometry": {"type": "Polygon", "coordinates": [[[-70.45813977136717, 18.71846660533687], [-70.45816205916874, 18.71844585633307], [-70.45826223910466, 18.7183524299994], [-70.45882852723864, 18.719009897492892], [-70.45878595585447, 18.71905518101011], [-70.4587836192675, 18.71905792539833], [-70.45878157514457, 18.719060874100933], [-70.45873322104582, 18.719138644563763], [-70.4587317932663, 18.71914116337695], [-70.45873057919212, 18.719143781962583], [-70.45872812708255, 18.719149693840304], [-70.45813977136717, 18.71846660533687]]]}}, {"type": "Feature", "properties": {"kind": "lot", "id": "B-19", "area_m2": 1618, "price_usd_m2": 60, "price_usd": 97080, "tier": "base", "slope_pct": 1.1, "elev_m": 702.1}, "geometry": {"type": "Polygon", "coordinates": [[[-70.45929068749201, 18.71872729959336], [-70.45937330482359, 18.718668014013247], [-70.45945654262901, 18.718608716559604], [-70.45953752790135, 18.718551245264266], [-70.45962886288707, 18.718657285104968], [-70.45975990886136, 18.718809429041823], [-70.45958217770328, 18.719115803831535], [-70.45958217770328, 18.719115803831535], [-70.4592644461587, 18.718746917930428], [-70.4592644461587, 18.718746917930428], [-70.45929068749201, 18.71872729959336]]]}}, {"type": "Feature", "properties": {"kind": "lot", "id": "B-20", "area_m2": 1844, "price_usd_m2": 60, "price_usd": 110640, "tier": "base", "slope_pct": 2.0, "elev_m": 702.1}, "geometry": {"type": "Polygon", "coordinates": [[[-70.4580172255747, 18.718580690171972], [-70.45813977136717, 18.71846660533687], [-70.45872812708255, 18.719149693840304], [-70.45869543584472, 18.719228510263417], [-70.45869402462115, 18.719232614827824], [-70.45866917967227, 18.719322767089412], [-70.45866831133927, 18.719326873930356], [-70.45866707638108, 18.719335175280023], [-70.4580172255747, 18.718580690171972]]]}}, {"type": "Feature", "properties": {"kind": "lot", "id": "B-21", "area_m2": 2023, "price_usd_m2": 60, "price_usd": 121380, "tier": "base", "slope_pct": 2.7, "elev_m": 702.4}, "geometry": {"type": "Polygon", "coordinates": [[[-70.45789467961748, 18.718694774936747], [-70.4580172255747, 18.718580690171972], [-70.45866707638108, 18.719335175280023], [-70.45865458296834, 18.71941915556844], [-70.45857332820454, 18.719482694905526], [-70.45789467961748, 18.718694774936747]]]}}, {"type": "Feature", "properties": {"kind": "lot", "id": "B-22", "area_m2": 3112, "price_usd_m2": 60, "price_usd": 186720, "tier": "base", "slope_pct": 3.3, "elev_m": 702.3}, "geometry": {"type": "Polygon", "coordinates": [[[-70.45958217770328, 18.719115803831535], [-70.45953335770159, 18.71919996004204], [-70.459533316734, 18.719200039655725], [-70.45953328415351, 18.719200122712156], [-70.45953326027389, 18.71920020841145], [-70.45953324532512, 18.719200295928285], [-70.45953323945116, 18.71920038441982], [-70.45953324270857, 18.719200473033833], [-70.459533255066, 18.719200560916917], [-70.45953327640443, 18.719200647222724], [-70.45953330651837, 18.719200731120072], [-70.45953334511778, 18.719200811800988], [-70.45953339183094, 18.719200888488462], [-70.45953344620798, 18.719200960443963], [-70.45953350772523, 18.719201026974513], [-70.45953357579023, 18.719201087439387], [-70.45953364974748, 18.71920114125628], [-70.45953372888474, 18.719201187906904], [-70.45975701146573, 18.719318784628882], [-70.45979197718344, 18.71935937950449], [-70.45979197718344, 18.71935937950449], [-70.45978816842565, 18.719364908172132], [-70.45978746104628, 18.71936605383578], [-70.4597829259992, 18.719374299585876], [-70.45978233988015, 18.719375505797412], [-70.45977867490862, 18.71938413538541], [-70.45977821569456, 18.719385390528366], [-70.45977681484662, 18.71938992380039], [-70.45977589586462, 18.719392435599982], [-70.45977472291946, 18.71939484947771], [-70.45977330730719, 18.719397142186615], [-70.45977166266098, 18.719399291646642], [-70.45976980481962, 18.71940127715732], [-70.45976775167516, 18.71940307959707], [-70.4597655230005, 18.719404681607433], [-70.45976314025899, 18.719406067760143], [-70.45976062639775, 18.7194072247058], [-70.45975800562664, 18.71940814130238], [-70.45975327146857, 18.71940955003538], [-70.45975196187266, 18.719410008057434], [-70.45974296620338, 18.719413640819177], [-70.45974171003007, 18.7194142189433], [-70.45973313137836, 18.719418674347935], [-70.45973194072535, 18.719419367006427], [-70.45972386170821, 18.719424602146077], [-70.45972274804205, 18.719425402668307], [-70.4597152464648, 18.719431367125775], [-70.45971422051073, 18.719432267802272], [-70.45970736861761, 18.719438904136684], [-70.45970644025617, 18.719439896293448], [-70.45970030403471, 18.719447140593335], [-70.45969948220646, 18.719448214675396], [-70.45969412075188, 18.71945599717426], [-70.45969341337151, 18.719457142837616], [-70.45968887831759, 18.719465388585828], [-70.4596882921976, 18.71946659479713], [-70.45968462721953, 18.719475224383665], [-70.45968416800456, 18.719476479526453], [-70.45968276715351, 18.71948101279795], [-70.4596818481697, 18.71948352459718], [-70.4596806752226, 18.719485938474428], [-70.45967925960836, 18.719488231182744], [-70.45967761496009, 18.719490380642057], [-70.45967575711664, 18.719492366151925], [-70.4596737039701, 18.71949416859078], [-70.45967147529333, 18.719495770600144], [-70.45966909254975, 18.719497156751782], [-70.45966657868647, 18.719498313696306], [-70.45966395791338, 18.719499230291696], [-70.45965922375186, 18.71950063902253], [-70.45965791415499, 18.719501097043985], [-70.45964891847869, 18.71950472980164], [-70.45964766230433, 18.719505307925186], [-70.45963908364544, 18.719509763325963], [-70.45963789299138, 18.719510455983915], [-70.45962981396693, 18.71951569111995], [-70.45962870029972, 18.7195164916417], [-70.4596211987151, 18.719522456095824], [-70.45962017276, 18.719523356771877], [-70.45961332085955, 18.719529993103286], [-70.45961239249706, 18.71953098525964], [-70.45960625626836, 18.719538229556875], [-70.45960543443908, 18.719539303638587], [-70.45960007297744, 18.719547086135172], [-70.45959936559608, 18.719548231798235], [-70.45959483053534, 18.719556477544565], [-70.45959424441438, 18.71955768375563], [-70.45959057942979, 18.719566313340707], [-70.4595901202139, 18.719567568483306], [-70.45958865068138, 18.71957232400262], [-70.45958772645433, 18.719574848134265], [-70.45958654577097, 18.71957727324297], [-70.45958512011583, 18.71957957573966], [-70.45958346335627, 18.71958173322792], [-70.4595815916076, 18.719583724721826], [-70.45957952307636, 18.71958553085007], [-70.45957727788316, 18.719587134044414], [-70.45957487786706, 18.71958851871057], [-70.45957234637302, 18.719589671379847], [-70.45956970802496, 18.71959058084021], [-70.4595673390614, 18.719591273622125], [-70.45956607001905, 18.71959170850013], [-70.45955734405212, 18.719595152368893], [-70.45955612396943, 18.7195956998714], [-70.45955457813092, 18.719596480966953], [-70.45910109684522, 18.719069990670373], [-70.45899862145139, 18.718951016430943], [-70.45905124080733, 18.71890970409405], [-70.45913017994619, 18.718848338928304], [-70.45921009279749, 18.718787553133193], [-70.4592644461587, 18.718746917930428], [-70.45958217770328, 18.719115803831535]]]}}, {"type": "Feature", "properties": {"kind": "lot", "id": "B-23", "area_m2": 1707, "price_usd_m2": 60, "price_usd": 102420, "tier": "base", "slope_pct": 2.9, "elev_m": 702.2}, "geometry": {"type": "Polygon", "coordinates": [[[-70.45887722296995, 18.71906643349949], [-70.45890673762068, 18.719035038505563], [-70.45897408848478, 18.718970277662105], [-70.45899862145139, 18.718951016430943], [-70.45910109684523, 18.719069990670373], [-70.45955457813092, 18.719596480966953], [-70.45954777976506, 18.71959991610777], [-70.45954661962232, 18.719600571307463], [-70.45953873227565, 18.719605521966717], [-70.45953764251387, 18.71960627896697], [-70.45953028300839, 18.71961191949484], [-70.45952927343504, 18.719612771482904], [-70.45952250800403, 18.71961905111647], [-70.45952158770491, 18.719619990424775], [-70.45951547723517, 18.719626852649355], [-70.45951465449266, 18.719627870824436], [-70.45950925397646, 18.71963525388228], [-70.45950853619509, 18.719636341760847], [-70.45950389423544, 18.719644179206835], [-70.45950328787497, 18.719645326998343], [-70.45949944624816, 18.719653548297995], [-70.45949895676566, 18.719654745672692], [-70.45949595004524, 18.719663276836933], [-70.45949558184591, 18.719664513018873], [-70.45949343709154, 18.719673277269944], [-70.45949319348911, 18.719674541133827], [-70.45949193000304, 18.719683459596283], [-70.45949181318984, 18.719684739767757], [-70.45949142908832, 18.71969405358768], [-70.4594914185967, 18.719694696462906], [-70.4594918703145, 18.719747332545527], [-70.45949176434982, 18.719749902012357], [-70.45949140332468, 18.71975245034947], [-70.45949079048815, 18.719754954622665], [-70.45948993135558, 18.719757392294234], [-70.45948883365884, 18.719759741425925], [-70.45948750727689, 18.719761980876285], [-70.45948596414672, 18.719764090490955], [-70.45948421815604, 18.719766051284072], [-70.45948228501817, 18.71976784560911], [-70.45948173311818, 18.719768268599868], [-70.45887722296995, 18.71906643349949]]]}}, {"type": "Feature", "properties": {"kind": "lot", "id": "B-24", "area_m2": 1788, "price_usd_m2": 60, "price_usd": 107280, "tier": "base", "slope_pct": 2.8, "elev_m": 702.3}, "geometry": {"type": "Polygon", "coordinates": [[[-70.45880002337245, 18.71917301788653], [-70.45884494529386, 18.719100767530033], [-70.45887722296995, 18.71906643349949], [-70.45948173311818, 18.719768268599868], [-70.45948018213075, 18.7197694573177], [-70.45947792841913, 18.719770871904966], [-70.459475544166, 18.719772076640076], [-70.45947305082888, 18.71977306068077], [-70.45947279746748, 18.71977314750295], [-70.4594640714893, 18.719776591368056], [-70.45946285140501, 18.719777138870054], [-70.45945450718943, 18.719781355102956], [-70.45945334704513, 18.719782010302165], [-70.4594454596874, 18.719786960958157], [-70.45944436992407, 18.719787717957963], [-70.45943701040781, 18.71979335848281], [-70.45943600083294, 18.719794210470464], [-70.45942923539153, 18.719800490101267], [-70.45942831509096, 18.71980142940919], [-70.45942220461124, 18.719808291631303], [-70.45942138186734, 18.719809309806056], [-70.45941598134173, 18.71981669286174], [-70.45941526355905, 18.71981778074002], [-70.45941062159059, 18.71982561818418], [-70.45941001522893, 18.71982676597546], [-70.45940617359402, 18.719834987273632], [-70.45940568411042, 18.719836184648134], [-70.45940267738267, 18.719844715811266], [-70.45940230918237, 18.719845951993065], [-70.45940016442151, 18.719854716243393], [-70.45939992081823, 18.719855980107187], [-70.45939865732657, 18.719864898569277], [-70.45939854051267, 18.719866178740723], [-70.45939815640635, 18.719875492560657], [-70.45939814591442, 18.71987613543589], [-70.45939859186714, 18.719928102530062], [-70.45883721284974, 18.719276342954235], [-70.45878318437266, 18.71921361565923], [-70.45880002337245, 18.71917301788653]]]}}, {"type": "Feature", "properties": {"kind": "lot", "id": "B-25", "area_m2": 1854, "price_usd_m2": 60, "price_usd": 111240, "tier": "base", "slope_pct": 4.0, "elev_m": 702.7}, "geometry": {"type": "Polygon", "coordinates": [[[-70.4587431125319, 18.7193390958692], [-70.45876682148666, 18.719253065533177], [-70.45878318437266, 18.71921361565923], [-70.45883721284974, 18.719276342954235], [-70.45939859186714, 18.719928102530062], [-70.45939937071319, 18.720018861438326], [-70.45939925653182, 18.720021519262993], [-70.45939886948938, 18.72002415362576], [-70.45939821331325, 18.72002673915628], [-70.45939729432278, 18.720029250954465], [-70.45939612136833, 18.720031664830323], [-70.4593947057461, 18.72003395753692], [-70.45939306108929, 18.72003610699423], [-70.45939120323683, 18.720038092501788], [-70.45938915008087, 18.720039894938076], [-70.45938692139441, 18.720041496944635], [-70.45938453864092, 18.72004288309326], [-70.45938202476763, 18.72004404003458], [-70.45938006152522, 18.720044726658493], [-70.45938006156038, 18.720044726749776], [-70.45937809636789, 18.720045414055694], [-70.45936910065667, 18.720049046802067], [-70.45936784447736, 18.720049624924048], [-70.45935926578375, 18.72005408031412], [-70.45935807512478, 18.7200547729706], [-70.45934999606618, 18.720060008096617], [-70.45934888239415, 18.72006080861699], [-70.45934138077631, 18.720066773061884], [-70.45934035481655, 18.720067673736672], [-70.45933350288405, 18.720074310059708], [-70.45933257451709, 18.72007530221494], [-70.45932643825786, 18.720082546504763], [-70.45932561642437, 18.72008362058548], [-70.459320254934, 18.720091403075653], [-70.45931954754869, 18.720092548737874], [-70.4593194990906, 18.72009263684489], [-70.45873241129641, 18.71941102942787], [-70.45874128904215, 18.719351353345687], [-70.4587431125319, 18.7193390958692]]]}}, {"type": "Feature", "properties": {"kind": "lot", "id": "B-26", "area_m2": 1590, "price_usd_m2": 60, "price_usd": 95400, "tier": "base", "slope_pct": 3.7, "elev_m": 702.8}, "geometry": {"type": "Polygon", "coordinates": [[[-70.4593194990906, 18.72009263684489], [-70.45931501246133, 18.720100794478885], [-70.45931442633675, 18.72010200068927], [-70.45931076132787, 18.720110630270156], [-70.45931030210872, 18.720111885412248], [-70.45930883256463, 18.72011664092994], [-70.45930790833096, 18.720119165060545], [-70.45930672764028, 18.72012159016789], [-70.4593053019772, 18.72012389266289], [-70.4593036452091, 18.72012605014917], [-70.45930177345144, 18.720128041640784], [-70.45929970491079, 18.720129847766497], [-70.45929745970791, 18.72013145095806], [-70.45929505968189, 18.720132835621225], [-70.45929252817785, 18.72013398828734], [-70.45928988981977, 18.7201348977444], [-70.45928752084738, 18.72013559052333], [-70.45928625180024, 18.72013602539974], [-70.45927752579951, 18.720139469257557], [-70.45927630571204, 18.72014001675854], [-70.45926796147408, 18.72014423298449], [-70.45926680132658, 18.72014488818275], [-70.4592589139468, 18.72014983883221], [-70.45925782418036, 18.720150595831115], [-70.45925046464255, 18.720156236349915], [-70.45924945506465, 18.720157088336737], [-70.4592426896024, 18.72016336796203], [-70.45924176929893, 18.7201643072692], [-70.45923565879927, 18.720171169486377], [-70.45923483605262, 18.720172187660467], [-70.45922943550813, 18.72017957071183], [-70.45922871772285, 18.72018065858955], [-70.45922407573681, 18.720188496030044], [-70.45922346937273, 18.720189643820845], [-70.45921962772162, 18.720197865116067], [-70.45921913823582, 18.7201990624902], [-70.45921613149343, 18.720207593651082], [-70.45921576329116, 18.72020882983262], [-70.45921361851735, 18.720217594081454], [-70.45921337491234, 18.72021885794509], [-70.45921253177899, 18.720224809219847], [-70.45874523934535, 18.71968228436497], [-70.45873500919963, 18.71963223294068], [-70.45872599291775, 18.71952814084633], [-70.45872946392056, 18.719430841639834], [-70.45873241129641, 18.71941102942787], [-70.4593194990906, 18.72009263684489]]]}}, {"type": "Feature", "properties": {"kind": "lot", "id": "B-27", "area_m2": 2976, "price_usd_m2": 60, "price_usd": 178560, "tier": "base", "slope_pct": 8.1, "elev_m": 704.3}, "geometry": {"type": "Polygon", "coordinates": [[[-70.45874441426922, 18.71997727371748], [-70.45875250724389, 18.720004172764625], [-70.45877895151722, 18.720119098070626], [-70.45879463857537, 18.72022925573425], [-70.45886981118876, 18.72021953696009], [-70.45885391750792, 18.72010792869238], [-70.45885338190202, 18.72010504813663], [-70.45885298528482, 18.720103324465523], [-70.45919321637012, 18.72049833040805], [-70.45919232548552, 18.720498641984133], [-70.4591833297464, 18.72050227472333], [-70.45918207356311, 18.720502852844305], [-70.45917349484202, 18.720507308227553], [-70.45917230417918, 18.720508000883076], [-70.45916422509377, 18.72051323600271], [-70.45916311141798, 18.720514036522182], [-70.45915560977426, 18.72052000096118], [-70.45915458381086, 18.720520901635158], [-70.45914773185368, 18.72052753795283], [-70.45914680348328, 18.72052853010734], [-70.45914066720078, 18.720535774392374], [-70.45913984536406, 18.720536848472463], [-70.45913448385207, 18.720544630958507], [-70.45913377646379, 18.72054577662019], [-70.45912924135665, 18.720554022357764], [-70.45912865522936, 18.7205552285677], [-70.45912499020277, 18.72056385814585], [-70.45912430109354, 18.72056574161532], [-70.45912430099716, 18.720565741583314], [-70.45912361257174, 18.720567623183797], [-70.45912243961013, 18.72057003705833], [-70.45912102398012, 18.720572329763296], [-70.45911937931497, 18.72057447921867], [-70.45911752145369, 18.720576464724026], [-70.45911546828853, 18.72057826715785], [-70.45911323959255, 18.72057986916172], [-70.45911085682935, 18.720581255307458], [-70.45910834294624, 18.720582412245708], [-70.4591057221533, 18.720583328834522], [-70.45910301969016, 18.72058399624664], [-70.45910026158309, 18.720584408054528], [-70.45909747439417, 18.720584560292238], [-70.45908088472996, 18.720584689516805], [-70.45889165569838, 18.720586163405397], [-70.45888891364675, 18.720586058639494], [-70.45888619494762, 18.7205857026211], [-70.45888352490002, 18.720585098663168], [-70.45888092835023, 18.720584252385876], [-70.45887842946058, 18.720583171664273], [-70.45887605148465, 18.720581866555104], [-70.45887381655082, 18.720580349203125], [-70.45887174545638, 18.720578633728152], [-70.45886985747403, 18.720576736093626], [-70.45886817017248, 18.720574673958087], [-70.45886669925302, 18.72057246651087], [-70.45886545840335, 18.720570134293492], [-70.45886445917027, 18.720567699008523], [-70.45886371085219, 18.72056518331766], [-70.45886322041258, 18.720562610630797], [-70.45886299241529, 18.72056000488821], [-70.45886302898191, 18.720557390337778], [-70.45886332977219, 18.720554791309336], [-70.45886339892706, 18.72055437795713], [-70.45886306048752, 18.72055381756202], [-70.45886293599897, 18.720553632811473], [-70.45829039889685, 18.719703938427454], [-70.45830944290962, 18.719689046524216], [-70.45842101185207, 18.719601802538875], [-70.45874441426922, 18.71997727371748]]]}}, {"type": "Feature", "properties": {"kind": "plaza", "label": "Plaza comercial y estacionamiento (fuera del port\u00f3n)", "area_m2": 3938}, "geometry": {"type": "Polygon", "coordinates": [[[-70.46134544756215, 18.71704308160402], [-70.46134108596283, 18.71705492848542], [-70.46071040465657, 18.716722766763453], [-70.46072737488075, 18.716672026201515], [-70.4607281337349, 18.716669425169734], [-70.46075093441743, 18.716578196783015], [-70.46075143273352, 18.716575864713423], [-70.46076822631962, 18.716481472551305], [-70.46076848505442, 18.71647977460478], [-70.4607807763796, 18.716383011222], [-70.4607808042468, 18.716382785911325], [-70.46079170484714, 18.71629220794566], [-70.4608317672523, 18.716217548904442], [-70.46076422443825, 18.716184642633845], [-70.46072103345718, 18.716265131925983], [-70.4607196235676, 18.716268077942683], [-70.46071849605065, 18.716271132370508], [-70.460717659956, 18.71627427069396], [-70.46071712199439, 18.716277467724208], [-70.46070545200554, 18.716374438525847], [-70.46069328315477, 18.716470237393015], [-70.46067684889499, 18.716562609649113], [-70.46065466606152, 18.716651365787705], [-70.46064271010162, 18.71668711377597], [-70.46025082321292, 18.716480716191203], [-70.46079698972336, 18.715972534650604], [-70.46079799618701, 18.715971642416967], [-70.4607991945946, 18.715970630380138], [-70.4608013372542, 18.715968990000416], [-70.460802075764, 18.71596847852276], [-70.46080437456536, 18.71596704283225], [-70.46080516143213, 18.715966601653125], [-70.46080759491488, 18.715965384054684], [-70.4608084227929, 18.715965017292692], [-70.46081096823914, 18.715964029153252], [-70.46081182939969, 18.715963740232315], [-70.46081446304659, 18.715962990776575], [-70.46081534945037, 18.715962782393902], [-70.46081804671145, 18.715962278618452], [-70.46081895008341, 18.7159621527194], [-70.46082168577831, 18.71596189932721], [-70.460822597685, 18.71596185708711], [-70.46082534627496, 18.715961856443716], [-70.46082625820337, 18.715961898256904], [-70.46082899402859, 18.715962150368313], [-70.4608298974653, 18.71596227584442], [-70.46083259498587, 18.715962778357074], [-70.46083348149698, 18.715962986324737], [-70.46083611552996, 18.7159637345474], [-70.4608369768394, 18.71596402306514], [-70.46083952279481, 18.715965010012766], [-70.4608403508618, 18.71596537638711], [-70.4608427849721, 18.71596659284614], [-70.46084357206628, 18.71596703365682], [-70.46084587160763, 18.715968468270923], [-70.46084661038108, 18.715968979402756], [-70.46084875388622, 18.71597061877913], [-70.4608494374421, 18.715971195460455], [-70.46085140490037, 18.71597302429471], [-70.46085202685734, 18.715973661141895], [-70.46085379990156, 18.71597566236105], [-70.46085435445337, 18.715976353428836], [-70.46085591653116, 18.715978508350336], [-70.4608563985008, 18.715979247187235], [-70.46085773502953, 18.71598153569405], [-70.46085813991756, 18.715982315402705], [-70.46085923841999, 18.71598471613032], [-70.46085980674945, 18.715986142628026], [-70.46086026344653, 18.715987378106174], [-70.46088652468943, 18.716064304627164], [-70.46090933912714, 18.716131134425474], [-70.46090943685871, 18.716131420708184], [-70.4609101403792, 18.71613309368422], [-70.46091027715444, 18.716133365060188], [-70.46093296447185, 18.71617837898675], [-70.46097235150174, 18.716256526758862], [-70.46097241837748, 18.716256659446877], [-70.46097284640783, 18.716257442282632], [-70.4609729222089, 18.716257570539916], [-70.46109951074409, 18.716471761130627], [-70.46110018484337, 18.71647297238237], [-70.46110093226784, 18.71647440158718], [-70.46110208349174, 18.716476913697793], [-70.46110242100418, 18.71647776520086], [-70.4611033000657, 18.71648037525486], [-70.46110354559569, 18.71648125488458], [-70.46110414350483, 18.716483936189427], [-70.4611042945414, 18.716484834950005], [-70.46110460518341, 18.716487560084445], [-70.46110466018189, 18.716488468784387], [-70.46110468037989, 18.71649120987894], [-70.46110463877784, 18.716492119225148], [-70.46110436832524, 18.716494848247116], [-70.4611042305481, 18.716495748939856], [-70.46110367221075, 18.716498437979993], [-70.46110343966755, 18.71649932080804], [-70.46110259915547, 18.71650194236603], [-70.46110227422436, 18.71650279830084], [-70.46110116013328, 18.716505325566434], [-70.46110074613729, 18.71650614585452], [-70.46109936986083, 18.7165085529818], [-70.46109887103381, 18.716509329234228], [-70.4610972466469, 18.716511591605908], [-70.46109666809026, 18.71651231588405], [-70.4610948122052, 18.716514410363278], [-70.46109415983578, 18.71651507526006], [-70.46109209143239, 18.716516980426885], [-70.46109137192181, 18.71651757914256], [-70.46108911215332, 18.716519275513193], [-70.46108774500794, 18.7165201990179], [-70.46108655051361, 18.716520963394835], [-70.46076288257235, 18.71671695154838], [-70.4607626843723, 18.71671707156264], [-70.46076215332882, 18.71671742947072], [-70.46076270950263, 18.716717750861758], [-70.46076291607946, 18.71671785728051], [-70.46090222451312, 18.716789622408836], [-70.46090374963313, 18.716790408077724], [-70.46090387316485, 18.71679047209182], [-70.46110732016045, 18.716896519724042], [-70.46110752165731, 18.71689662475547], [-70.46110813483497, 18.716896908533656], [-70.46110881508785, 18.71689695051785], [-70.4611090447346, 18.716896954073906], [-70.4612156307776, 18.716898604518313], [-70.4612170348329, 18.71689865933428], [-70.46121866810076, 18.716898761651578], [-70.46122145913446, 18.716899068985665], [-70.46122237964889, 18.716899214546054], [-70.461225125253, 18.716899782717185], [-70.46122670565339, 18.716900188575323], [-70.46122805302537, 18.716900568840895], [-70.46129076732547, 18.716919886265433], [-70.46133289530098, 18.716932862621256], [-70.46133318607752, 18.71693295218688], [-70.46133495974223, 18.716933380538617], [-70.46133526018731, 18.716933433756925], [-70.46136978209816, 18.71693954867347], [-70.46137858586724, 18.716941108096854], [-70.4613799893785, 18.71694139176732], [-70.46138161479071, 18.71694176133272], [-70.4613843679005, 18.71694252897718], [-70.4613852674471, 18.7169428274758], [-70.46138792542486, 18.71694385540498], [-70.46138878884881, 18.71694423870622], [-70.4613913246681, 18.7169455164681], [-70.46139214318995, 18.716945980674513], [-70.46139453106589, 18.716947495276486], [-70.46139529636278, 18.716948035667908], [-70.46139751201524, 18.716949771709352], [-70.46139821630553, 18.71695038279104], [-70.46140023720544, 18.716952322619647], [-70.46140087332779, 18.716952998178005], [-70.46140267892629, 18.716955122069294], [-70.46140324041251, 18.71695585523516], [-70.46140481234998, 18.716958141593032], [-70.4614052934908, 18.71695892491147], [-70.46140661578357, 18.716961350487956], [-70.46140731032217, 18.716962798685437], [-70.46140787354707, 18.71696405602181], [-70.46141123790461, 18.716972124269066], [-70.46141171866132, 18.71697336452531], [-70.4614122415176, 18.716974821798647], [-70.4614130099098, 18.716977361896667], [-70.4614132216459, 18.71697821642513], [-70.46141372670903, 18.716980815762152], [-70.46141385007952, 18.716981685879233], [-70.46141408700989, 18.716984319732607], [-70.46141412084137, 18.716985197162458], [-70.46141408738544, 18.716987840481075], [-70.46141403135613, 18.716988716878323], [-70.4614137278321, 18.716991344521208], [-70.4614135824749, 18.716992211550288], [-70.46141301176962, 18.716994798525477], [-70.46141277846706, 18.71699564793991], [-70.46141194600858, 18.716998169642245], [-70.46141162697961, 18.716998993363145], [-70.46141054068558, 18.71700142580826], [-70.46141013896455, 18.71700221600107], [-70.46140880916687, 18.717004536053597], [-70.46140832857459, 18.717005285202642], [-70.46140676792118, 18.71700747079619], [-70.46140621302867, 18.71700817177618], [-70.46140443636317, 18.717010202123134], [-70.46140381244808, 18.717010848266955], [-70.46140183666864, 18.717012704056376], [-70.46140114966516, 18.71701328921843], [-70.46139899356378, 18.717014952799556], [-70.4613982500061, 18.71701547141425], [-70.46139593408972, 18.717016926964543], [-70.46139454307064, 18.717017711254243], [-70.46139333201158, 18.717018356610524], [-70.46138367606355, 18.717023211435553], [-70.46134652521089, 18.717041890163035], [-70.46134632917231, 18.717041988727395], [-70.46134576591129, 18.717042304830805], [-70.4613455209358, 18.717042882308117], [-70.46134544756215, 18.71704308160402]]]}}, {"type": "Feature", "properties": {"kind": "park", "label": "Parque: clubhouse, piscina, \u00e1rea infantil, dog park", "area_m2": 4221}, "geometry": {"type": "Polygon", "coordinates": [[[-70.45972038334514, 18.71702724213806], [-70.45978085827244, 18.716922993695615], [-70.46010796303281, 18.71661364226626], [-70.46010804509682, 18.716613564970192], [-70.46010818356234, 18.716613435077555], [-70.4601082666108, 18.71661335748884], [-70.46023665324759, 18.716493900599986], [-70.4605927324379, 18.716681439188942], [-70.46023492667295, 18.717298240565253], [-70.45972038334514, 18.71702724213806]]]}}, {"type": "Feature", "properties": {"kind": "garden", "label": "Huerto comunitario (invernadero existente)", "area_m2": 4456}, "geometry": {"type": "Polygon", "coordinates": [[[-70.46048211602773, 18.71887374623685], [-70.46036469295203, 18.71907616334029], [-70.46036096298785, 18.719080566902647], [-70.4603601411656, 18.71908164098725], [-70.46035477975296, 18.719089423502464], [-70.46035407237858, 18.719090569167953], [-70.46034953736635, 18.71909881492962], [-70.46034895125226, 18.719100021142626], [-70.46034528631522, 18.7191086507396], [-70.46034459722453, 18.71911053421251], [-70.46034459712817, 18.7191105341805], [-70.46034432882574, 18.71911126752425], [-70.46033971660546, 18.719119218181365], [-70.46033967554762, 18.719119271842093], [-70.46033781771614, 18.719121257357802], [-70.46033576458132, 18.719123059803188], [-70.46033353591598, 18.719124661819734], [-70.4603311531834, 18.71912604797914], [-70.4603286393306, 18.719127204931908], [-70.46032601856736, 18.719128121535967], [-70.46032331613306, 18.719128788963886], [-70.46032055805364, 18.719129200787997], [-70.46031777089091, 18.71912935304219], [-70.46016800317109, 18.719130520497842], [-70.46016728062224, 18.719130543639444], [-70.46015681833286, 18.71913113268925], [-70.46015538229723, 18.71913128361982], [-70.46014539384963, 18.719132826367645], [-70.46014398130995, 18.719133115408674], [-70.46013420880357, 18.7191356162475], [-70.4601328343516, 18.719136040413154], [-70.46012337873742, 18.71913947350908], [-70.46012205657134, 18.719140028417698], [-70.46011301552697, 18.719144358306487], [-70.46011175930488, 18.719145038225797], [-70.46010322622529, 18.719150220179234], [-70.4601020489241, 18.71915101808563], [-70.46009411195698, 18.719156998573588], [-70.46009302573839, 18.719157906224584], [-70.46008576687356, 18.719164623467982], [-70.46008478295832, 18.719165631487435], [-70.46007827718073, 18.719173016096445], [-70.46007740573285, 18.71917411407139], [-70.46007172024804, 18.71918208976216], [-70.46007097026965, 18.719183266350427], [-70.4600661638095, 18.719191750733156], [-70.46006554304799, 18.719192993780442], [-70.46006166526392, 18.7192018992105], [-70.46006093725201, 18.7192038450475], [-70.46006090883189, 18.719203835393948], [-70.46006043750457, 18.719205102993126], [-70.46005925766899, 18.719207501728672], [-70.46005783772434, 18.719209779272216], [-70.46005619123312, 18.719211913870012], [-70.46005433392162, 18.719213885133655], [-70.46005228352975, 18.71921567423482], [-70.46005005964162, 18.719217264085067], [-70.4600476834985, 18.719218639499104], [-70.46004517779588, 18.719219787339778], [-70.46004256646673, 18.71922069664362], [-70.46003987445292, 18.719221358725484], [-70.46003712746695, 18.719221767261562], [-70.46003435174643, 18.719221918349756], [-70.45997913278424, 18.719222348719736], [-70.45997841023492, 18.71922237186064], [-70.45996794793848, 18.719222960900314], [-70.45996651190178, 18.719223111829507], [-70.4599565234464, 18.71922465456771], [-70.45995511090554, 18.719224943607397], [-70.45994533839045, 18.719227444436893], [-70.45994396393718, 18.719227868601237], [-70.4599345083135, 18.71923130168821], [-70.45993318614602, 18.719231856595574], [-70.45992414509143, 18.719236186475865], [-70.45992288886784, 18.719236866394002], [-70.45991435577746, 18.719242048339492], [-70.45991317847468, 18.71924284624479], [-70.45990524149627, 18.719248826725444], [-70.45990415527605, 18.719249734375424], [-70.45989689639956, 18.719256451612228], [-70.45989591248264, 18.719257459630786], [-70.45988940669314, 18.71926484423396], [-70.45988853524354, 18.719265942208146], [-70.45988284974669, 18.719273917893915], [-70.45988209976659, 18.719275094481524], [-70.45987729329438, 18.719283578860153], [-70.45987667253117, 18.71928482190691], [-70.45987279473516, 18.719293727333795], [-70.45987230960144, 18.71929502399888], [-70.45987109155564, 18.719298890545165], [-70.45987016440536, 18.719301384517028], [-70.45986898648765, 18.719303780480583], [-70.45986756902538, 18.719306055607746], [-70.45986592552373, 18.719308188221742], [-70.45986407164152, 18.71931015800362], [-70.459862025042, 18.71931194618583], [-70.45985980522464, 18.719313535731086], [-70.4598574333392, 18.719314911494614], [-70.45985493198435, 18.719316060368538], [-70.45985232499234, 18.719316971406702], [-70.45984731908459, 18.719318461007024], [-70.45984600948968, 18.71931891902968], [-70.45983701382742, 18.719322551795507], [-70.45983575765513, 18.71932312992019], [-70.45982717901062, 18.719327585328706], [-70.45982598835866, 18.719328277987724], [-70.45981790934883, 18.719333513130984], [-70.45981679568371, 18.719334313653718], [-70.45980929411384, 18.71934027811451], [-70.45980826816081, 18.71934117879146], [-70.45980588129069, 18.719343490574907], [-70.45953418761951, 18.719200397137556], [-70.45990117414291, 18.718567781373284], [-70.46048211602773, 18.71887374623685]]]}}, {"type": "Feature", "properties": {"kind": "green", "label": "Reserva verde (sin frente)", "area_m2": 3426}, "geometry": {"type": "Polygon", "coordinates": [[[-70.46096164915846, 18.718153767697313], [-70.46091336107891, 18.718297668234705], [-70.46091329904495, 18.718297853098413], [-70.46091313855392, 18.71829841323774], [-70.46091308134106, 18.718298989160562], [-70.46091307080705, 18.718299182984218], [-70.4609073264547, 18.71840487799133], [-70.46089717669453, 18.718591631575833], [-70.46042050707716, 18.718038224262852], [-70.4606843871745, 18.71783186998379], [-70.46094826662215, 18.717625515372255], [-70.46108546239725, 18.71778479792081], [-70.46096164915846, 18.718153767697313]]]}}, {"type": "Feature", "properties": {"kind": "green", "label": "Reserva verde (sin frente)", "area_m2": 3101}, "geometry": {"type": "Polygon", "coordinates": [[[-70.46089717669453, 18.718591631575833], [-70.46089351320842, 18.718659038965683], [-70.46089322277999, 18.718661744525132], [-70.46089264927127, 18.718664408735282], [-70.4608917984559, 18.718667004775188], [-70.46089067889909, 18.718669506510167], [-70.46088930187157, 18.718671888754947], [-70.46088768123603, 18.71867412752717], [-70.4608858333076, 18.7186762002888], [-70.46088377668963, 18.71867808617308], [-70.46088153208635, 18.71867976619459], [-70.46087912209445, 18.718681223440303], [-70.46087740187845, 18.718682045949585], [-70.46087740632167, 18.718682054372568], [-70.46086771905995, 18.718686693803736], [-70.4608664628445, 18.718687373727708], [-70.46085792981242, 18.718692555712643], [-70.46085675251814, 18.71869335362335], [-70.46084881560012, 18.71869933414033], [-70.46084772938863, 18.718700241795243], [-70.460840470574, 18.71870695906486], [-70.460839486666, 18.718707967087834], [-70.46083298093917, 18.71871535171998], [-70.46083210949855, 18.718716449698004], [-70.46082642406456, 18.7187244254086], [-70.46082567409341, 18.71872560199944], [-70.4608208676836, 18.71873408639849], [-70.46082024692922, 18.718735329447846], [-70.46081636919448, 18.718744234890544], [-70.46081588406936, 18.718745531557552], [-70.4608146660485, 18.718749398108457], [-70.4608137389148, 18.71875189208399], [-70.46081256101405, 18.718754288052438], [-70.46081114356899, 18.718756563185703], [-70.4608095000846, 18.718758695806937], [-70.46080764621952, 18.7187606655971], [-70.46080559963688, 18.7187624537886], [-70.46080337983598, 18.718764043344038], [-70.4608010079664, 18.71876541911855], [-70.46079850662669, 18.718766568004167], [-70.46079589964893, 18.718767479054588], [-70.46079089376717, 18.71876896867856], [-70.46078958417941, 18.718769426707375], [-70.46078058856892, 18.71877305951537], [-70.46077933240421, 18.71877363764593], [-70.46077075381433, 18.718778093094333], [-70.46076956317035, 18.718778785758868], [-70.46076148421747, 18.718784020939374], [-70.46076037056064, 18.71878482146721], [-70.46075286904949, 18.718790785962227], [-70.46075184310497, 18.718791686643826], [-70.46074499127914, 18.718798323012123], [-70.46074406292736, 18.718799315173438], [-70.46073792677373, 18.71880655950321], [-70.46073710495517, 18.718807633589236], [-70.46073174356832, 18.718815416113703], [-70.46073103619759, 18.7188165617804], [-70.46072650121064, 18.718824807549673], [-70.46072591510011, 18.718826013763653], [-70.4607222501876, 18.71883464336653], [-70.46072179098186, 18.718835898511298], [-70.46072096457429, 18.7188385729005], [-70.46072008654212, 18.718840987783544], [-70.46071897371813, 18.718843313139654], [-70.46071763599508, 18.71884552829695], [-70.46071608526499, 18.7188476135632], [-70.46071433531348, 18.718849550400886], [-70.46071240169721, 18.718851321591966], [-70.4607092504744, 18.718853947272503], [-70.46070692719186, 18.718855688699016], [-70.46070442679975, 18.71885719101137], [-70.46070177629517, 18.71885843798886], [-70.46069900429606, 18.718859416167682], [-70.46069684697413, 18.718860058130723], [-70.46069553738543, 18.718860516158927], [-70.46068931847434, 18.71886302761354], [-70.46015662633016, 18.718244578209404], [-70.46042050707716, 18.718038224262852], [-70.46089717669453, 18.718591631575833]]]}}, {"type": "Feature", "properties": {"kind": "green", "label": "Reserva verde", "area_m2": 5}, "geometry": {"type": "Polygon", "coordinates": [[[-70.4604055474067, 18.719046290619488], [-70.46040362492847, 18.719047066991873], [-70.46040236876034, 18.719047645120103], [-70.460393790146, 18.71905210055273], [-70.46039259949846, 18.71905279321509], [-70.46038452052036, 18.71905802838086], [-70.46038340685988, 18.71905882890669], [-70.460375905323, 18.719064793388156], [-70.46037487937481, 18.719065694067915], [-70.46036802752299, 18.719072330423987], [-70.46036795490208, 18.719072408035984], [-70.46039213733805, 18.719030721732604], [-70.4604055474067, 18.719046290619488]]]}}, {"type": "Feature", "properties": {"kind": "green", "label": "Reserva verde", "area_m2": 498}, "geometry": {"type": "Polygon", "coordinates": [[[-70.46006833041189, 18.718654785560478], [-70.46006833041189, 18.71865478556048], [-70.46048257475717, 18.71887295546552], [-70.46048265389449, 18.718873002115735], [-70.46048272785185, 18.71887305593225], [-70.46048279591703, 18.718873116396765], [-70.4604828574345, 18.718873182926988], [-70.4604829118118, 18.718873254882194], [-70.46048295852528, 18.718873331569412], [-70.46048299712504, 18.718873412250108], [-70.46048302723936, 18.718873496147275], [-70.46048304857821, 18.718873582452943], [-70.46048306093608, 18.71887367033594], [-70.46048306419398, 18.7188737589499], [-70.46048305832052, 18.718873847441436], [-70.46048304337226, 18.718873934958314], [-70.46048301949317, 18.718874020657697], [-70.4604829869132, 18.71887410371426], [-70.46048294594614, 18.718874183328115], [-70.46039213733805, 18.7190307217326], [-70.46039213733805, 18.719030721732604], [-70.46006833041189, 18.718654785560478]]]}}, {"type": "Feature", "properties": {"kind": "green", "label": "Reserva verde", "area_m2": 1163}, "geometry": {"type": "Polygon", "coordinates": [[[-70.46006833041189, 18.718654785560478], [-70.45990163287443, 18.71856699060322], [-70.45990154931957, 18.718566951568285], [-70.45990146215155, 18.718566920524825], [-70.45990137220984, 18.718566897771804], [-70.45990128036065, 18.71856688352835], [-70.45990118748851, 18.718566877931636], [-70.45990109448786, 18.718566881035557], [-70.45990100225433, 18.718566892810227], [-70.45990091167617, 18.71856691314223], [-70.4599008236257, 18.718566941835785], [-70.45990073895094, 18.718566978614547], [-70.45990065846729, 18.718567023124308], [-70.45990058294989, 18.718567074936423], [-70.45990051312597, 18.71856713355191], [-70.45990044966804, 18.718567198406273], [-70.45990039318718, 18.71856726887493], [-70.45990034422735, 18.718567344279215], [-70.45975990886137, 18.718809429041823], [-70.45962886288707, 18.718657285104968], [-70.45953752790135, 18.71855124526427], [-70.45954001781519, 18.718549478292815], [-70.45954133739517, 18.71854849800338], [-70.45962051029628, 18.71848695914721], [-70.45962068440262, 18.718486822996873], [-70.45969928644527, 18.718424983484567], [-70.45970202322034, 18.71842260702424], [-70.45977157945782, 18.718356003317492], [-70.45977289880462, 18.718354674336137], [-70.45979220888114, 18.718334209729033], [-70.45979220888114, 18.718334209729033], [-70.46006833041189, 18.718654785560478]]]}}, {"type": "Feature", "properties": {"kind": "green", "label": "Reserva verde", "area_m2": 145}, "geometry": {"type": "Polygon", "coordinates": [[[-70.45975701146573, 18.719318784628882], [-70.45953372888474, 18.719201187906904], [-70.45953364974748, 18.71920114125628], [-70.45953357579023, 18.719201087439387], [-70.45953350772523, 18.719201026974513], [-70.45953344620798, 18.719200960443963], [-70.45953339183094, 18.719200888488462], [-70.45953334511778, 18.719200811800988], [-70.45953330651837, 18.719200731120072], [-70.45953327640443, 18.719200647222724], [-70.459533255066, 18.719200560916917], [-70.45953324270857, 18.719200473033833], [-70.45953323945116, 18.71920038441982], [-70.45953324532512, 18.719200295928285], [-70.45953326027389, 18.71920020841145], [-70.45953328415351, 18.719200122712156], [-70.459533316734, 18.719200039655725], [-70.45953335770159, 18.71919996004204], [-70.45958217770328, 18.719115803831535], [-70.45975701146573, 18.719318784628882]]]}}, {"type": "Feature", "properties": {"kind": "green", "label": "Reserva verde", "area_m2": 6}, "geometry": {"type": "Polygon", "coordinates": [[[-70.45975701146573, 18.719318784628882], [-70.45975701146573, 18.719318784628882], [-70.45980519083926, 18.719344159305944], [-70.45980141627504, 18.71934781512887], [-70.45980048791462, 18.719348807286032], [-70.4597943517004, 18.719356051588576], [-70.45979352987317, 18.719357125670985], [-70.45979197718344, 18.71935937950449], [-70.45975701146573, 18.719318784628882]]]}}, {"type": "Feature", "properties": {"kind": "green", "label": "Reserva verde", "area_m2": 733}, "geometry": {"type": "Polygon", "coordinates": [[[-70.45865406901042, 18.71942261037448], [-70.45865371549012, 18.71942645486226], [-70.45865010051939, 18.71952778850955], [-70.45865020715159, 18.719531988974232], [-70.45865405565792, 18.719576419855155], [-70.45865957681151, 18.71964016133592], [-70.45866014775903, 18.719644097358245], [-70.45868379424334, 18.719759788984444], [-70.45868422345039, 18.71976163118582], [-70.45871558945153, 18.71988138847243], [-70.4587159294155, 18.71988259702517], [-70.45874441426922, 18.71997727371748], [-70.45842101185207, 18.719601802538875], [-70.45857332820454, 18.719482694905526], [-70.45865458296834, 18.71941915556844], [-70.45865406901042, 18.71942261037448]]]}}, {"type": "Feature", "properties": {"kind": "green", "label": "Reserva verde", "area_m2": 164}, "geometry": {"type": "Polygon", "coordinates": [[[-70.45885298528482, 18.720103324465523], [-70.45885338190202, 18.72010504813663], [-70.45885391750792, 18.72010792869238], [-70.45886981118876, 18.72021953696009], [-70.45879463857537, 18.72022925573425], [-70.45877895151722, 18.720119098070626], [-70.45875250724389, 18.720004172764625], [-70.45874441426922, 18.71997727371748], [-70.45885298528482, 18.720103324465523]]]}}, {"type": "Feature", "properties": {"kind": "green", "label": "Reserva verde", "area_m2": 1427}, "geometry": {"type": "Polygon", "coordinates": [[[-70.45885298528482, 18.720103324465523], [-70.45882635114612, 18.71998757422974], [-70.45882576251734, 18.719985354657837], [-70.45878903438259, 18.719863279508203], [-70.45875806718722, 18.719745045077826], [-70.45874523934535, 18.71968228436497], [-70.45921253177899, 18.72022480921985], [-70.45921211140954, 18.720227776406436], [-70.45921199459418, 18.720229056577832], [-70.45921161047829, 18.720238370397787], [-70.45921159998574, 18.72023901327303], [-70.45921359991281, 18.720472089383275], [-70.45921348572877, 18.72047474720792], [-70.4592130986829, 18.720477381570447], [-70.45921244250266, 18.7204799671005], [-70.45921152350745, 18.72048247889801], [-70.45921035054764, 18.72048489277299], [-70.45920893491947, 18.720487185478504], [-70.45920729025623, 18.720489334934538], [-70.45920543239691, 18.72049132044065], [-70.45920337923371, 18.720493122875318], [-70.45920115053971, 18.720494724880123], [-70.45919876777846, 18.720496111026854], [-70.45919625389725, 18.72049726796617], [-70.45919429064884, 18.72049795458852], [-70.45919429068401, 18.720497954679796], [-70.45919321637012, 18.72049833040805], [-70.45885298528482, 18.720103324465523]]]}}, {"type": "Feature", "properties": {"kind": "green", "label": "Reserva verde (sin frente)", "area_m2": 3543}, "geometry": {"type": "Polygon", "coordinates": [[[-70.45778248627744, 18.718950143146316], [-70.45778115247795, 18.718947943254847], [-70.45778004069993, 18.718945634039127], [-70.45777916071039, 18.718943235785755], [-70.45777852024011, 18.71894076956352], [-70.45777812491563, 18.718938257038328], [-70.45777797820988, 18.718935720282854], [-70.45777762776908, 18.718894835502457], [-70.45777760625221, 18.71889419287597], [-70.45777706245174, 18.718884886274065], [-70.45777692369695, 18.7188836080916], [-70.45777550741424, 18.718874710488492], [-70.4577752421674, 18.71887345058584], [-70.45777294738275, 18.71886472089677], [-70.45777255803098, 18.718863490612605], [-70.45776940539686, 18.71885500740198], [-70.45776889544423, 18.718853817808526], [-70.45776491333349, 18.718845657422495], [-70.4577639740347, 18.718843949485944], [-70.45776399050528, 18.71884394126215], [-70.45776317586808, 18.718842454085774], [-70.45776213292837, 18.71883998663648], [-70.45776134883504, 18.718837433664834], [-70.4577608311393, 18.71883481975721], [-70.45776058482677, 18.718832170086817], [-70.4577606122696, 18.718829510171243], [-70.45776091320342, 18.718826865626806], [-70.45776148473013, 18.718824261921718], [-70.45776232134561, 18.71882172413094], [-70.45776341499287, 18.71881927669463], [-70.4577647551395, 18.71881694318278], [-70.45776632887927, 18.71881474606823], [-70.45776812105626, 18.718812706510267], [-70.45776874697012, 18.71881206135274], [-70.45776975596407, 18.71881107299932], [-70.45788879892181, 18.718700249593823], [-70.45789467961748, 18.718694774936747], [-70.45857332820454, 18.719482694905526], [-70.45830944290962, 18.719689046524216], [-70.45829039889685, 18.719703938427454], [-70.45825991732504, 18.719658700840814], [-70.45817587255003, 18.719533970143512], [-70.45778248627744, 18.718950143146316]]]}}, {"type": "Feature", "properties": {"kind": "green", "label": "Reserva verde", "area_m2": 803}, "geometry": {"type": "Polygon", "coordinates": [[[-70.46033243280192, 18.717132023396797], [-70.46040920937692, 18.716999672672305], [-70.46058693706027, 18.716693297283534], [-70.46059356234545, 18.71668187628052], [-70.46059360331199, 18.71668179666666], [-70.46059363589157, 18.71668171361009], [-70.46059365977038, 18.716681627910702], [-70.46059367471848, 18.71668154039381], [-70.4605936805919, 18.71668145190227], [-70.46059367733406, 18.71668136328828], [-70.46059366497637, 18.716681275405275], [-70.46059364363784, 18.716681189099578], [-70.46059361352393, 18.716681105202383], [-70.46059357492469, 18.716681024521662], [-70.46059352821183, 18.716680947834416], [-70.46059347383526, 18.71668087587918], [-70.4605934123186, 18.716680809348933], [-70.46059334425435, 18.716680748884382], [-70.46059327029795, 18.71668069506784], [-70.46059319116166, 18.71668064841759], [-70.46056180370115, 18.716664117420976], [-70.46023736174591, 18.716493241379563], [-70.46025014483533, 18.716481347386], [-70.46025021156207, 18.716481406628557], [-70.46025028544156, 18.71648146037023], [-70.46025036448798, 18.716481506961795], [-70.46053250859823, 18.71663010575053], [-70.46064225137812, 18.716687904547413], [-70.46064233493654, 18.716687943583878], [-70.46064242210839, 18.716687974628016], [-70.46064242218227, 18.716687974646703], [-70.46062573985044, 18.716737854331978], [-70.46062565982079, 18.716738096556504], [-70.46062562245608, 18.71673821105051], [-70.46059691022654, 18.716826191836564], [-70.46059649110484, 18.716827572345586], [-70.46057121252619, 18.71691749573154], [-70.46057085776884, 18.71691886390893], [-70.46054905021084, 18.71701061540184], [-70.4605487576916, 18.717011965089387], [-70.46053173617207, 18.717098833590644], [-70.4605157025821, 18.717123311255985], [-70.46048525181502, 18.71716979886963], [-70.46048521055481, 18.717169862003985], [-70.46043510374578, 18.717246709048123], [-70.46043506742434, 18.717246764866076], [-70.46043343193065, 18.717249283362058], [-70.46033243280192, 18.717132023396797]]]}}, {"type": "Feature", "properties": {"kind": "road", "class": "spine", "length_m": 525, "row_m": 8.0, "carriageway_m": 6.0, "grade_max_pct": 5.9, "grade_mean_pct": 1.9}, "geometry": {"type": "LineString", "coordinates": [[-70.46079799584217, 18.71620109577242], [-70.46075480487409, 18.71628158507141], [-70.46074312134425, 18.716378668570965], [-70.46073082999759, 18.71647543195276], [-70.46071403639084, 18.716569824112955], [-70.46069123568897, 18.716661052496534], [-70.46066187905565, 18.716748828048683], [-70.4606331294792, 18.71683692333305], [-70.46060785091927, 18.716926846722636], [-70.46058604338087, 18.71701859821848], [-70.46056770686924, 18.717112177821402], [-70.4605174288655, 18.717188934692178], [-70.46046732206672, 18.717265781744175], [-70.46041736641558, 18.717342708413774], [-70.46036754090291, 18.717419703636015], [-70.46031775206113, 18.717496718183973], [-70.46026832235874, 18.717573921893475], [-70.4602202041055, 18.717651816321396], [-70.46017339499159, 18.717730400251465], [-70.46012789501924, 18.717809673684968], [-70.46008118812445, 18.717888311476106], [-70.46003256695509, 18.71796594108061], [-70.45998212440476, 18.718042611422863], [-70.45992886558871, 18.718117798522133], [-70.4598709757294, 18.718190546580544], [-70.45980976629436, 18.718261546312988], [-70.45974469251571, 18.71833051080221], [-70.45967513627662, 18.718397114499155], [-70.45959653423657, 18.718458954001218], [-70.4595173613383, 18.71852049284713], [-70.45943385810584, 18.718579751010072], [-70.45935053918411, 18.71863910624284], [-70.45926756889926, 18.718698645092402], [-70.45918655319771, 18.718759213374547], [-70.45910635810246, 18.71882021385104], [-70.45902719136267, 18.718881755939613], [-70.45894849193863, 18.718943544153877], [-70.45887912227397, 18.719010246152557], [-70.45881420880967, 18.719079295143043], [-70.45876585472186, 18.719157065613484], [-70.45873071139029, 18.71924179391982], [-70.45870586646025, 18.719331946184948], [-70.45869162415254, 18.719427682630478], [-70.45868800920451, 18.719529016276947], [-70.45869737888806, 18.71963718863515], [-70.45872102539603, 18.719752880255072], [-70.45875239142055, 18.719872637533957], [-70.458789300494, 18.719995314164567], [-70.45881633122633, 18.72011278807838], [-70.45883222488342, 18.720224396350876]]}}, {"type": "Feature", "properties": {"kind": "gate", "label": "Port\u00f3n y caseta de seguridad"}, "geometry": {"type": "Point", "coordinates": [-70.4606771165447, 18.71670326837264]}}, {"type": "Feature", "properties": {"kind": "entrance", "label": "Entrada desde Carretera Los Quemados"}, "geometry": {"type": "Point", "coordinates": [-70.46079799584217, 18.71620109577242]}}, {"type": "Feature", "properties": {"kind": "forest", "label": "Bosque comunal: senderos, mirador (Parcela 2)", "area_m2": 74428}, "geometry": {"type": "Polygon", "coordinates": [[[-70.45867926217157, 18.721296687544775], [-70.45913038157235, 18.722316641979504], [-70.45968695175848, 18.723400633299487], [-70.45928191047747, 18.72407182856515], [-70.45895643540298, 18.72416252257393], [-70.4572387686659, 18.72389260799294], [-70.45702015680028, 18.72397811124563], [-70.45638944367514, 18.724253681008868], [-70.45622873249324, 18.724007683145494], [-70.45586066088684, 18.723693395868], [-70.45854229731047, 18.721053568430264], [-70.45867999067939, 18.721297041104627], [-70.45867926217157, 18.721296687544775]]]}}, {"type": "Feature", "properties": {"kind": "green", "label": "Reserva de ladera (pendiente > 15 %): futuros lotes con calle en curva de nivel, o bosque", "area_m2": 14507}, "geometry": {"type": "Polygon", "coordinates": [[[-70.45998628137652, 18.719456340456187], [-70.45998559809567, 18.719456909777062], [-70.45998543349351, 18.719457760301754], [-70.45986506146743, 18.720079739232677], [-70.45986422236786, 18.720083142562952], [-70.45986304209063, 18.72008645272363], [-70.45986153167948, 18.72008963874187], [-70.45985970526712, 18.7200926708064], [-70.45985757994313, 18.720095520546515], [-70.45985517559393, 18.72009816129747], [-70.45958196570228, 18.720370430820346], [-70.45958135082515, 18.72037104357975], [-70.45958133972547, 18.720371891284806], [-70.4595811769317, 18.720384324172098], [-70.45957900989728, 18.7205498252749], [-70.45957895918555, 18.720551296208363], [-70.45957154051278, 18.720684041185947], [-70.45955430121555, 18.720992509855986], [-70.45955391829672, 18.72099605571854], [-70.45955317064332, 18.720999548393205], [-70.45955206552827, 18.72100295390416], [-70.45955061370185, 18.721006239123522], [-70.459548829287, 18.72100937209355], [-70.45936726496602, 18.721293737579924], [-70.45934452536252, 18.721329352203004], [-70.4593424071213, 18.72133232595683], [-70.45933998937504, 18.721335084550603], [-70.45933729603253, 18.721337600704967], [-70.4593343537278, 18.721339849537998], [-70.45933119155693, 18.721341808811314], [-70.45932784079018, 18.721343459149907], [-70.45932433456285, 18.721344784233803], [-70.4593207075475, 18.721345770959424], [-70.45931699561125, 18.721346409569176], [-70.4593132354609, 18.721346693747925], [-70.4593094642801, 18.721346620685463], [-70.45930571936152, 18.7213461911043], [-70.4593020377382, 18.721345409252496], [-70.45886060766956, 18.721229438306832], [-70.4588597637983, 18.72122921660679], [-70.45885894991703, 18.721229523667034], [-70.45871134801916, 18.721285210676534], [-70.45870787032455, 18.721286340366078], [-70.45870429423235, 18.721287144154463], [-70.4587006532976, 18.721287614499598], [-70.45869698168373, 18.72128774698818], [-70.45869331384205, 18.721287540377045], [-70.45868968418851, 18.72128699660484], [-70.45868612678068, 18.721286120773872], [-70.45868267499827, 18.721284921102196], [-70.45867936122988, 18.72128340884651], [-70.4586762165691, 18.72128159819654], [-70.45867327052277, 18.721279506141897], [-70.45867055073407, 18.721277152312634], [-70.45866808272318, 18.7212745587951], [-70.45866588964783, 18.721271749924654], [-70.45866399208593, 18.721268752057355], [-70.4585801742036, 18.721120543335516], [-70.4585427420859, 18.7210543548941], [-70.45854229731047, 18.721053568430264], [-70.45854222244058, 18.72105364213448], [-70.45854118819564, 18.721054009534214], [-70.45853757862508, 18.721055099588927], [-70.45853387297696, 18.721055841308758], [-70.45853010817964, 18.721056227302174], [-70.45852632175098, 18.72105625372255], [-70.45852255142442, 18.72105592030661], [-70.45851883477287, 18.721055230376983], [-70.45851520883441, 18.72105419080912], [-70.45851170974312, 18.72105281196276], [-70.45850837236891, 18.721051107578713], [-70.45850522997021, 18.721049094641913], [-70.45850231386238, 18.72104679321214], [-70.45849965310569, 18.721044226224155], [-70.45849727421572, 18.721041419259095], [-70.45849520089914, 18.721038400289597], [-70.45849345381743, 18.721035199400998], [-70.45849205038098, 18.72103184849154], [-70.45849100457566, 18.721028380954493], [-70.45849032682334, 18.721024831345357], [-70.45849002387807, 18.721021235037522], [-70.4584900987588, 18.72101762786975], [-70.45849055071935, 18.721014045789012], [-70.45849137525563, 18.721010524492293], [-70.45849256415083, 18.721007099070828], [-70.45849410555704, 18.7210038036604], [-70.45849598411347, 18.721000671101198], [-70.4584981810995, 18.720997732610503], [-70.45850004933199, 18.7209956983348], [-70.45850004702402, 18.720995696404348], [-70.45850065208526, 18.7209950396696], [-70.45850128975175, 18.720994411565762], [-70.4585007832974, 18.720993683002092], [-70.4584787444092, 18.72096197878847], [-70.45847737881151, 18.720960014296782], [-70.45847547769854, 18.72095696414535], [-70.45847389958148, 18.720953751100215], [-70.45847265966484, 18.720950406117865], [-70.45847176989476, 18.720946961425938], [-70.45847123884377, 18.72094345021274], [-70.45847107162837, 18.720939906307493], [-70.45847126985959, 18.720936363854367], [-70.45847183162749, 18.720932856983556], [-70.45847275151968, 18.720929419482424], [-70.45847402067328, 18.72092608446999], [-70.45847562686048, 18.72092288407783], [-70.45847755460625, 18.720919849140493], [-70.4584797853375, 18.72091700889844], [-70.45848229756194, 18.720914390716313], [-70.4588556906093, 18.7205616861469], [-70.45885826108832, 18.7205592580823], [-70.45885825148551, 18.720559944691313], [-70.45885826745665, 18.720560380222633], [-70.45885849545388, 18.720562985965234], [-70.45885855539336, 18.72056341800386], [-70.4588590458329, 18.72056599069074], [-70.45885914918297, 18.720566415216318], [-70.458859897501, 18.72056893090721], [-70.45886004329996, 18.72056934396928], [-70.45886104253299, 18.72057177925427], [-70.45886122942406, 18.720572177009068], [-70.45886247027369, 18.720574509226477], [-70.45886269651776, 18.72057488797268], [-70.4588641674372, 18.720577095419934], [-70.45886443092894, 18.720577451633087], [-70.45886611823047, 18.720579513768655], [-70.45886641651798, 18.720579844134004], [-70.45886830450033, 18.720581741768566], [-70.45886863480781, 18.72058204321187], [-70.45887070590227, 18.720583758686885], [-70.45887106515609, 18.72058402840305], [-70.45887330008996, 18.720585545755057], [-70.45887368494704, 18.720585781234224], [-70.458876062923, 18.72058708634342], [-70.45887646980204, 18.720587285394327], [-70.45887896869174, 18.72058836611594], [-70.45887939380647, 18.720588526886303], [-70.45888199035633, 18.720589373163627], [-70.45888242975086, 18.72058949415738], [-70.45888509979852, 18.720590098115327], [-70.45888554938404, 18.720590178206567], [-70.45888826808323, 18.720590534224968], [-70.45888872367604, 18.720590572668396], [-70.45889146572776, 18.7205906774343], [-70.45889169445316, 18.72059068091104], [-70.4590975131544, 18.720589077797467], [-70.459097745747, 18.72058907054378], [-70.45910053293602, 18.72058891830607], [-70.45910099560135, 18.720588871245578], [-70.45910375370848, 18.72058845943768], [-70.4591042093048, 18.720588369394218], [-70.45910691176798, 18.72058770198207], [-70.45910735590765, 18.7205875698228], [-70.45910997670066, 18.72058665323395], [-70.45911040510636, 18.72058648023164], [-70.45911291898952, 18.72058532329336], [-70.4591133275355, 18.72058511111411], [-70.45911571029873, 18.72058372496834], [-70.45911609505045, 18.720583475655562], [-70.45911832374642, 18.72058187365166], [-70.45911868099851, 18.72058158960636], [-70.45912073416369, 18.720579787172504], [-70.45912106047562, 18.720579471130215], [-70.45912291833686, 18.720577485624823], [-70.45912321056608, 18.720577140629192], [-70.4591248552312, 18.72057499117378], [-70.45912511056335, 18.72057462054732], [-70.45912652619332, 18.720572327842337], [-70.45912674216945, 18.720571935154357], [-70.45912791513099, 18.720569521279792], [-70.45912808959493, 18.720569110520284], [-70.45912877819285, 18.720567228743636], [-70.45912942898742, 18.720565449995426], [-70.45913300669118, 18.72055702602489], [-70.45913349501275, 18.720556021092374], [-70.45913792206662, 18.720547971817034], [-70.45913851141464, 18.72054701732924], [-70.45914374518355, 18.720539420267997], [-70.45914442988229, 18.72053852541713], [-70.45915041996211, 18.720531453733773], [-70.4591511934175, 18.720530627137745], [-70.45915788212048, 18.72052414893635], [-70.45915873688372, 18.720523398555745], [-70.45916605979392, 18.720517576224882], [-70.45916698763321, 18.72051690928621], [-70.45917487422705, 18.72051179889802], [-70.45917586620676, 18.720511221824292], [-70.45918424053201, 18.720506872594562], [-70.45918528709895, 18.72050639094327], [-70.45919406850645, 18.720502844757338], [-70.45919592443953, 18.720502195667247], [-70.45919592635445, 18.720502194893943], [-70.45919788765282, 18.7205015089536], [-70.45919831605822, 18.720501335951095], [-70.45920082993948, 18.72050017901175], [-70.45920123848514, 18.720499966832335], [-70.4592036212464, 18.720498580685565], [-70.4592040059978, 18.720498331372625], [-70.45920623469182, 18.72049672936779], [-70.45920659194358, 18.72049644532235], [-70.45920864510678, 18.72049464288764], [-70.45920897141839, 18.720494326845213], [-70.4592108292777, 18.720492341339067], [-70.45921112150657, 18.720491996343323], [-70.45921276616978, 18.72048984688726], [-70.45921302150161, 18.720489476260685], [-70.45921443712973, 18.720487183555154], [-70.45921465310553, 18.720486790867096], [-70.4592158260653, 18.720484376992093], [-70.45921600060512, 18.72048396602435], [-70.45921691960028, 18.72048145422682], [-70.4592170510232, 18.72048102893724], [-70.45921770720335, 18.72047844340718], [-70.45921779424368, 18.720478007891533], [-70.45921818128949, 18.720475373529002], [-70.459218223109, 18.72047493198154], [-70.45921833729298, 18.72047227415689], [-70.45921834110193, 18.720472052448937], [-70.4592163416282, 18.720239029931896], [-70.4592163503715, 18.720238494232692], [-70.45921672786068, 18.72022934108731], [-70.45921682518485, 18.720228274518234], [-70.45921805858463, 18.720219568537868], [-70.45921826154303, 18.720218515555526], [-70.4592203552177, 18.720209960113568], [-70.45922066198376, 18.72020893019443], [-70.45922359709076, 18.720200602287104], [-70.45922400490363, 18.720199604700195], [-70.4592277550278, 18.720191579276033], [-70.4592282602173, 18.720190622999247], [-70.45923279160861, 18.720182972284466], [-70.45923338962818, 18.720182065924025], [-70.45923866150541, 18.720174858772626], [-70.45923934697308, 18.720174010485426], [-70.45924531189097, 18.72016731175941], [-70.45924607863766, 18.72016652917986], [-70.45925268291381, 18.72016039916556], [-70.45925352403913, 18.72015968933653], [-70.45926070823708, 18.72015418320212], [-70.45926161617109, 18.72015355251188], [-70.45926931563537, 18.72014871981076], [-70.45927028220707, 18.72014817393525], [-70.45927842764495, 18.72014405816013], [-70.45927944415537, 18.72014360201214], [-70.4592879622606, 18.720140240203612], [-70.45928901956161, 18.720139877888258], [-70.45929128097399, 18.720139216564018], [-70.45929150279954, 18.72013914594436], [-70.45929414115767, 18.720138236487283], [-70.4592945725043, 18.72013806443436], [-70.4592971040084, 18.72013691176822], [-70.45929751546984, 18.720136700066544], [-70.45929991549588, 18.720135315403347], [-70.45930030306981, 18.720135066112157], [-70.45930254827273, 18.72013346292055], [-70.45930290818923, 18.720133178464692], [-70.45930497672987, 18.72013137233895], [-70.45930530548803, 18.720131055485346], [-70.4593071772457, 18.720129063993685], [-70.45930747164768, 18.72012871782437], [-70.45930912841573, 18.72012656033807], [-70.45930938559789, 18.72012618822023], [-70.45931081126095, 18.720123885725197], [-70.45931102872166, 18.720123491278436], [-70.45931220941229, 18.720121066171085], [-70.4593123850363, 18.720120653232197], [-70.4593133092699, 18.720118129101568], [-70.45931338084293, 18.720117916946815], [-70.45931481751147, 18.72011326781556], [-70.4593152001018, 18.7201122221161], [-70.45931877778823, 18.720103798142887], [-70.45931926610757, 18.720102793210003], [-70.45932369314212, 18.7200947439313], [-70.45932428248767, 18.720093789443048], [-70.45932951623547, 18.720086192377778], [-70.45933020093152, 18.72008529752639], [-70.45933619098861, 18.72007822583837], [-70.45933696444115, 18.72007739924174], [-70.45934365312, 18.7200709210351], [-70.45934450788023, 18.720070170653827], [-70.45935183076517, 18.72006434831719], [-70.45935275860133, 18.720063681377788], [-70.45936064516899, 18.720058570983348], [-70.45936163714548, 18.720057993908835], [-70.4593700114439, 18.720053644672436], [-70.45937105800752, 18.720053163020314], [-70.4593798393878, 18.72004961682736], [-70.45938169531522, 18.720048967735785], [-70.45938169723013, 18.720048966962477], [-70.45938365852251, 18.720048281020567], [-70.45938408692658, 18.720048108017725], [-70.4593866007999, 18.720046951076377], [-70.45938700934425, 18.72004673889663], [-70.45938939209778, 18.720045352747963], [-70.4593897768479, 18.720045103434725], [-70.45939200553437, 18.72004350142813], [-70.4593923627849, 18.720043217382404], [-70.45939441594086, 18.72004141494608], [-70.45939474225129, 18.720041098903398], [-70.45939660010373, 18.72003911339581], [-70.4593968923315, 18.720038768399835], [-70.45939853698827, 18.720036618942494], [-70.45939879231909, 18.72003624831573], [-70.45940020794129, 18.720033955609107], [-70.45940042391615, 18.72003356292089], [-70.45940159687053, 18.720031149044996], [-70.45940177140952, 18.720030738077128], [-70.45940269039991, 18.720028226278924], [-70.45940282182208, 18.720027800989254], [-70.45940347799814, 18.72002521545873], [-70.45940356503786, 18.72002477994302], [-70.45940395208022, 18.720022145580252], [-70.45940399389924, 18.72002170403277], [-70.45940410808053, 18.720019046208098], [-70.45940411188927, 18.720018824500148], [-70.45940288754643, 18.719876152090716], [-70.4594028962892, 18.719875616391523], [-70.45940327376897, 18.719866463246163], [-70.45940337109192, 18.719865396677047], [-70.45940460448084, 18.71985669069596], [-70.4594048074378, 18.719855637713472], [-70.45940690109981, 18.71984708227006], [-70.45940720786423, 18.719846052350697], [-70.45941014295695, 18.719837724441195], [-70.459410550768, 18.71983672685397], [-70.45941430087635, 18.71982870142692], [-70.45941480606386, 18.71982774514974], [-70.45941933743796, 18.719820094431395], [-70.45941993545537, 18.719819188070474], [-70.4594252073142, 18.71981198091486], [-70.45942589277958, 18.719811132627107], [-70.45943185767798, 18.71980443389627], [-70.45943262442226, 18.719803651316095], [-70.45943922867808, 18.71979752129641], [-70.45944006980086, 18.719796811466693], [-70.45944725397779, 18.719791305326375], [-70.45944816190921, 18.719790674635384], [-70.45945586135193, 18.719785841927894], [-70.459456827921, 18.719785296051587], [-70.45946497333702, 18.7197811802697], [-70.45946598984477, 18.71978072412085], [-70.45947450792805, 18.719777362305198], [-70.45947465541659, 18.719777311763654], [-70.45947486523698, 18.719777234458235], [-70.45947735857416, 18.719776250417517], [-70.45947776549805, 18.719776067813985], [-70.45948014975123, 18.71977486307886], [-70.45948053668381, 18.71977464455602], [-70.45948279039547, 18.719773229968716], [-70.45948315385449, 18.7197729774932], [-70.45948525674191, 18.719771365784588], [-70.45948559345636, 18.719771081628597], [-70.45948752659422, 18.71976928730353], [-70.45948783353377, 18.719768974024383], [-70.45948957952444, 18.719767013231234], [-70.45948985392671, 18.719766673648344], [-70.45949139705685, 18.719764564033646], [-70.45949163645231, 18.719764201203155], [-70.45949296283422, 18.71976196175277], [-70.45949316506841, 18.719761578940037], [-70.45949426276508, 18.719759229808318], [-70.45949442601794, 18.719758830458535], [-70.45949528515047, 18.71975639278695], [-70.45949540795276, 18.71975598049414], [-70.45949602078922, 18.719753476220944], [-70.4594961020358, 18.719753054695616], [-70.45949646306089, 18.719750506358494], [-70.45949650202054, 18.71975007939424], [-70.45949660798513, 18.71974750992742], [-70.45949661148282, 18.719747295605526], [-70.4594961602235, 18.719694713115715], [-70.459496168966, 18.719694177416528], [-70.45949654644106, 18.719685024271175], [-70.45949664376342, 18.71968395770204], [-70.45949787714687, 18.719675251720588], [-70.45949808010313, 18.71967419873804], [-70.45950017375883, 18.719665643293897], [-70.45950048052241, 18.71966461337442], [-70.459503415608, 18.719656285463824], [-70.4595038234181, 18.719655287876446], [-70.45950757351856, 18.719647262447946], [-70.45950807870506, 18.71964630617057], [-70.45951261007059, 18.719638655450442], [-70.45951320808692, 18.719637749089287], [-70.45951847993653, 18.71963054193156], [-70.45951916540075, 18.71962969364354], [-70.45952513028945, 18.71962299491029], [-70.4595258970325, 18.719622212329803], [-70.45953250127815, 18.719616082307425], [-70.45953334239968, 18.719615372477357], [-70.45954052656607, 18.719609866334096], [-70.4595414344962, 18.719609235642732], [-70.45954913392816, 18.719604402932056], [-70.4595501004959, 18.719603857055343], [-70.459558245901, 18.71959974127007], [-70.45955926240742, 18.719599285120804], [-70.4595677804797, 18.719595923301586], [-70.45956883777669, 18.719595560984903], [-70.45957109918062, 18.71959489965782], [-70.45957132100536, 18.71959482903788], [-70.45957395935346, 18.719593919577484], [-70.45957439069844, 18.719593747524023], [-70.45957692219251, 18.719592594854717], [-70.45957733365229, 18.71959238315253], [-70.45957973366843, 18.71959099848635], [-70.45958012124073, 18.719590749194683], [-70.45958236643393, 18.719589146000295], [-70.45958272634887, 18.719588861544], [-70.4595847948801, 18.719587055415726], [-70.45958512363674, 18.719586738561713], [-70.4595869953854, 18.71958474706777], [-70.45958728978592, 18.719584400898103], [-70.45958894654545, 18.71958224340981], [-70.45958920372622, 18.719581871291666], [-70.45959062938132, 18.719579568794945], [-70.45959084684075, 18.71957917434793], [-70.45959202752405, 18.7195767492392], [-70.45959220314691, 18.71957633630011], [-70.4595931273739, 18.719573812168452], [-70.45959319894641, 18.719573600013614], [-70.45959463560365, 18.719568950880785], [-70.45959501819122, 18.7195679051809], [-70.45959859585398, 18.719559481203593], [-70.45959908417028, 18.71955847627014], [-70.45960351117886, 18.719550426986242], [-70.4596041005211, 18.71954947249729], [-70.45960933424088, 18.719541875425765], [-70.4596100189334, 18.719540980573555], [-70.45961600896071, 18.719533908878297], [-70.45961678240953, 18.719533082280723], [-70.4596234710571, 18.71952660406592], [-70.45962432581345, 18.719525853683585], [-70.45963164866592, 18.719520031337936], [-70.45963257649807, 18.71951936439739], [-70.45964046303243, 18.719514253993175], [-70.45964145500481, 18.719513676917426], [-70.45964982926937, 18.719509327670586], [-70.45965087582884, 18.719508846017156], [-70.45965965717504, 18.7195052998132], [-70.45966074824254, 18.719504918220704], [-70.45966537130315, 18.719503542549834], [-70.45966559166885, 18.71950347127534], [-70.45966821244198, 18.719502554679927], [-70.45966864084438, 18.71950238167654], [-70.4596711547077, 18.71950122473199], [-70.4596715632504, 18.719501012551717], [-70.45967394599401, 18.719499626400037], [-70.45967433074249, 18.71949937708631], [-70.45967655941926, 18.71949777507691], [-70.4596769166682, 18.719497491030744], [-70.45967896981476, 18.719495688591856], [-70.45967929612364, 18.719495372548767], [-70.45968115396707, 18.71949338703887], [-70.45968144619339, 18.719493042042537], [-70.45968309084162, 18.719490892583188], [-70.45968334617105, 18.719490521956107], [-70.45968476178525, 18.71948822924777], [-70.45968497775884, 18.719487836559292], [-70.45968615070586, 18.719485422682013], [-70.45968632524367, 18.719485011713942], [-70.45968724422742, 18.719482499914683], [-70.45968731541656, 18.719482288806788], [-70.45968868339243, 18.719477861921796], [-70.45968906597926, 18.71947681622174], [-70.45969264363562, 18.719468392243016], [-70.45969313195113, 18.71946738730936], [-70.45969755895304, 18.71945933802363], [-70.45969814829446, 18.71945838353443], [-70.45970338200735, 18.719450786460687], [-70.45970406669902, 18.719449891608175], [-70.45971005671926, 18.71944281991033], [-70.45971083016721, 18.719441993312422], [-70.45971751880762, 18.719435515094684], [-70.45971837356309, 18.719434764711977], [-70.45972569640837, 18.719428942363084], [-70.45972662423966, 18.71942827542212], [-70.45973451076685, 18.719423165014383], [-70.45973550273838, 18.719422587938183], [-70.4597438769959, 18.71941823868757], [-70.45974492355454, 18.719417757033668], [-70.45975370489386, 18.719414210825718], [-70.45975479596056, 18.719413829232728], [-70.45975941901781, 18.719412453559745], [-70.45975963938334, 18.719412382285146], [-70.4597622601545, 18.71941146568854], [-70.45976268855657, 18.71941129268496], [-70.45976520241786, 18.71941013573927], [-70.4597656109602, 18.719409923558814], [-70.45976799370173, 18.71940853740607], [-70.45976837844987, 18.719408288092172], [-70.45977060712454, 18.719406686081776], [-70.45977096437312, 18.719406402035446], [-70.45977301751759, 18.71940459959566], [-70.45977334382613, 18.719404283552418], [-70.45977520166747, 18.719402298041718], [-70.45977549389342, 18.719401953045264], [-70.45977713853962, 18.719399803585205], [-70.4597773938687, 18.71939943295801], [-70.45977880948092, 18.719397140249082], [-70.45977902545418, 18.719396747560516], [-70.45978019839932, 18.719394333682764], [-70.4597803729368, 18.71939392271462], [-70.45978129191873, 18.71939141091501], [-70.45978136310774, 18.719391199807077], [-70.45978273108054, 18.719386772921577], [-70.45978311366662, 18.71938572722137], [-70.4597866913166, 18.71937730324122], [-70.45978717963132, 18.71937629830737], [-70.45979160662655, 18.7193682490198], [-70.45979219596715, 18.719367294530368], [-70.45979742967313, 18.719359697454397], [-70.45979811436395, 18.719358802601597], [-70.45980410437714, 18.719351730901153], [-70.45980487782421, 18.719350904302903], [-70.45981156645747, 18.71934442608224], [-70.45981242121206, 18.719343675699157], [-70.45981974405018, 18.719337853347017], [-70.45982067188056, 18.719337186405642], [-70.45982855840062, 18.719332075994373], [-70.4598295503713, 18.719331498917736], [-70.45983792462177, 18.719327149663343], [-70.45983897117955, 18.719326668008964], [-70.45984775251203, 18.719323121797025], [-70.45984884357792, 18.719322740203538], [-70.45985373838492, 18.719321283663277], [-70.45985395757977, 18.719321212797787], [-70.45985656457185, 18.719320301759605], [-70.45985699077532, 18.719320129895458], [-70.45985949213019, 18.719318981021498], [-70.45985989871808, 18.719318770384028], [-70.45986227060355, 18.71931739462046], [-70.45986265370198, 18.719317147216564], [-70.45986487351938, 18.71931555767128], [-70.4598652294783, 18.719315275858158], [-70.45986727607782, 18.719313487675908], [-70.45986760150575, 18.7193131741386], [-70.45986945538795, 18.719311204356682], [-70.45986974718434, 18.719310862082477], [-70.45987139068596, 18.719308729468445], [-70.45987164607061, 18.71930836171844], [-70.45987306353284, 18.719306086591246], [-70.45987328007254, 18.719305696869263], [-70.4598744579902, 18.71930330090568], [-70.45987463362182, 18.719302892924883], [-70.45987556077205, 18.719300398953], [-70.4598756327087, 18.71930018932448], [-70.45987681609712, 18.719296432793705], [-70.45987722027061, 18.719295352519044], [-70.45988100566971, 18.719286659282734], [-70.45988152283851, 18.71928562367846], [-70.45988621478618, 18.719277341458035], [-70.45988683960789, 18.719276361222025], [-70.45989238963561, 18.719268575573754], [-70.45989311565569, 18.71926766083202], [-70.45989946643093, 18.719260452182514], [-70.45990028614952, 18.71925961238439], [-70.45990737206792, 18.719253055199843], [-70.45990827701723, 18.719252299020546], [-70.45991602488037, 18.719246461037393], [-70.45991700571214, 18.719245796288355], [-70.4599253354837, 18.719240737813553], [-70.45992638206586, 18.71924017136169], [-70.4599352076983, 18.719235944649867], [-70.45993630921944, 18.719235482346708], [-70.45994553954307, 18.719232131060203], [-70.45994668462446, 18.71923177768136], [-70.45995622428892, 18.719229336439337], [-70.45995740110169, 18.719229095635264], [-70.45996715156132, 18.719227589656], [-70.45996834794887, 18.719227463914216], [-70.45997862974322, 18.719226885036996], [-70.45997923182877, 18.719226865754152], [-70.46003439052852, 18.71922643585375], [-70.46003462216161, 18.719226428651247], [-70.46003739788223, 18.71922627756304], [-70.46003785865824, 18.719226230871907], [-70.46004060564428, 18.719225822335815], [-70.46004105943638, 18.719225733010934], [-70.46004375145026, 18.71922507092905], [-70.4600441939241, 18.719224939823615], [-70.46004680525331, 18.71922403051975], [-70.46004723218266, 18.71922385888599], [-70.46004973788533, 18.719222711045287], [-70.4600501451924, 18.71922250052256], [-70.46005252133556, 18.71922112510849], [-70.46005290512998, 18.719220877707574], [-70.46005512901813, 18.719219287857292], [-70.46005548563416, 18.719219005941213], [-70.46005753602601, 18.719217216840015], [-70.46005786205745, 18.719216903101472], [-70.46005971936896, 18.719214931837794], [-70.46006001170174, 18.719214589273424], [-70.46006165819294, 18.719212454675596], [-70.46006191403488, 18.719212086557377], [-70.46006333397948, 18.719209809013808], [-70.46006355088696, 18.719209418857783], [-70.46006473072251, 18.719207020122212], [-70.46006487176079, 18.719206702325746], [-70.4600653715082, 18.719205444380123], [-70.4600654032665, 18.71920536203311], [-70.46006609079838, 18.719203524391354], [-70.46006987618584, 18.719194831151928], [-70.46007039335322, 18.719193795547216], [-70.46007508528913, 18.71918551332279], [-70.4600757101094, 18.719184533086242], [-70.46008126012536, 18.719176747433092], [-70.46008198614402, 18.719175832690706], [-70.46008833690763, 18.719168624035508], [-70.46008915662483, 18.719167784236642], [-70.46009624253183, 18.71916122704565], [-70.46009714747979, 18.71916047086553], [-70.4601048953319, 18.719154632875224], [-70.46010587616234, 18.719153968125283], [-70.46011420592338, 18.719148909642715], [-70.46011525250428, 18.719148343189875], [-70.46012407812674, 18.719144116469757], [-70.46012517964672, 18.719143654165563], [-70.46013440996107, 18.719140302870304], [-70.46013555504138, 18.719139949490376], [-70.46014509469735, 18.71913750823925], [-70.46014627150915, 18.719137267434046], [-70.46015602196114, 18.719135761445397], [-70.46015721834783, 18.719135635702465], [-70.46016750013523, 18.71913505681529], [-70.4601681022204, 18.719135037531874], [-70.46031780968033, 18.719133870545654], [-70.46031804227079, 18.719133863290597], [-70.46032082943357, 18.7191337110364], [-70.46032129209439, 18.719133663973178], [-70.4603240501739, 18.719133252149057], [-70.4603245057655, 18.719133162102924], [-70.46032720819986, 18.71913249467497], [-70.46032765233464, 18.7191323625131], [-70.46033027309795, 18.719131445909024], [-70.46033070149865, 18.719131272904228], [-70.4603332153515, 18.719130115951426], [-70.4603336238924, 18.719129903769815], [-70.460336006625, 18.71912851761039], [-70.4603363913716, 18.719128268295417], [-70.46033862003695, 18.719126666278832], [-70.46033897728394, 18.71912638223151], [-70.46034103041876, 18.719124579786087], [-70.46034135672566, 18.719124263741964], [-70.46034321455714, 18.71912227822623], [-70.46034350678144, 18.719121933228983], [-70.46034515141763, 18.71911978376454], [-70.46034540674505, 18.71911941313669], [-70.46034682234723, 18.719117120424087], [-70.46034703831883, 18.719116727734963], [-70.46034821125397, 18.71911431385426], [-70.46034838571366, 18.719113903093852], [-70.46034907429305, 18.719112021313755], [-70.4603497250701, 18.719110242562294], [-70.46035330268644, 18.719101818573392], [-70.46035379099703, 18.71910081363832], [-70.46035821795824, 18.719092764339447], [-70.4603588072947, 18.719091809848482], [-70.4603640409666, 18.719084212758762], [-70.46036472565328, 18.71908331790415], [-70.46037071563268, 18.71907624618765], [-70.46037148907568, 18.71907541958732], [-70.46037817767578, 18.71906894134844], [-70.46037903242639, 18.719068190963014], [-70.46038635523226, 18.719062368590688], [-70.46038728305881, 18.719061701646737], [-70.46039516954788, 18.71905659121349], [-70.46039616151486, 18.71905601413408], [-70.4604045357359, 18.71905166485614], [-70.46040558229019, 18.719051183198804], [-70.46041436359508, 18.71904763696197], [-70.4604154546577, 18.719047255365382], [-70.46042034945098, 18.71904579881114], [-70.46042056864522, 18.71904572794503], [-70.46042317562953, 18.71904481689943], [-70.46042360183166, 18.719044645034064], [-70.46042610317824, 18.71904349615305], [-70.4604265097647, 18.71904328551443], [-70.46042888164135, 18.719041909744224], [-70.4604292647383, 18.719041662339258], [-70.46043148454648, 18.71904007278782], [-70.46043184050383, 18.719039790973717], [-70.46043388709383, 18.71903800278586], [-70.46043421252017, 18.719037689247656], [-70.46043606639262, 18.719035719460734], [-70.46043635818735, 18.719035377185744], [-70.46043800167908, 18.719033244567346], [-70.4604382570621, 18.719032876816673], [-70.4604396745144, 18.719030601685798], [-70.46043989105246, 18.719030211963258], [-70.46044106896024, 18.719027815996725], [-70.46044124459023, 18.719027408015492], [-70.46044217173073, 18.719024914041402], [-70.46044224366658, 18.71902470441272], [-70.46044342704076, 18.71902094787924], [-70.46044383121001, 18.719019867603617], [-70.46044761657421, 18.719011174358], [-70.46044813373874, 18.719010138752427], [-70.46045282565115, 18.719001856519974], [-70.46045345046853, 18.719000876282337], [-70.460459000461, 18.718993090619435], [-70.46045972647681, 18.718992175875766], [-70.46046607721716, 18.718984967209177], [-70.46046689693155, 18.718984127408834], [-70.46047398281578, 18.718977570204935], [-70.460474887761, 18.718976814023154], [-70.46048263559108, 18.71897097601857], [-70.46048361641891, 18.71897031126681], [-70.46049194615884, 18.718965252768726], [-70.46049299273724, 18.718964686313928], [-70.46050181833978, 18.718960459577215], [-70.4605029198574, 18.71895999727094], [-70.46051215015322, 18.718956645958187], [-70.46051329523137, 18.71895629257608], [-70.46052283487036, 18.71895385130674], [-70.46052401168018, 18.718953610499284], [-70.46053376211694, 18.718952104491887], [-70.46053495850188, 18.71895197874664], [-70.46054524027538, 18.71895139983957], [-70.46054584235976, 18.718951380554977], [-70.46058771536993, 18.718951054080538], [-70.4605879557787, 18.71895104639187], [-70.46059083637215, 18.718950884480574], [-70.4605913144168, 18.718950834329252], [-70.46059334696037, 18.718950520995204], [-70.45998628137652, 18.719456340456187]]]}}, {"type": "Feature", "properties": {"kind": "trail", "label": "Sendero: franja de acceso hasta el mirador"}, "geometry": {"type": "LineString", "coordinates": [[-70.45851689010227, 18.721058933887594], [-70.45585579834825, 18.723699966466878]]}}]}