{
"type": "FeatureCollection",
"name": "landuse",
"crs": { "type": "name", "properties": { "name": "urn:ogc:def:crs:OGC:1.3:CRS84" } },
"features": [
{ "type": "Feature", "properties": { "osm_id": "way/369552313", "landuse": "residential" }, "geometry": { "type": "MultiPolygon", "coordinates": [ [ [ [ -70.3335625, 18.7676373 ], [ -70.3361374, 18.7653943 ], [ -70.3362404, 18.7646142 ], [ -70.3408045, 18.7628811 ], [ -70.340341, 18.7620034 ], [ -70.3390557, 18.7626637 ], [ -70.3383669, 18.7604755 ], [ -70.3362898, 18.7628161 ], [ -70.335174, 18.7608819 ], [ -70.3335797, 18.7627612 ], [ -70.3346955, 18.7640453 ], [ -70.3323609, 18.7670197 ], [ -70.3335625, 18.7676373 ] ] ] ] } },
{ "type": "Feature", "properties": { "osm_id": "way/369554306", "landuse": "residential" }, "geometry": { "type": "MultiPolygon", "coordinates": [ [ [ [ -70.4302447, 18.7066378 ], [ -70.430113, 18.7066881 ], [ -70.4300794, 18.70676 ], [ -70.4301138, 18.7068962 ], [ -70.4299327, 18.7069607 ], [ -70.4297799, 18.7069411 ], [ -70.4297356, 18.7068401 ], [ -70.4293989, 18.7069672 ], [ -70.4293759, 18.7070308 ], [ -70.4292161, 18.7071119 ], [ -70.4291636, 18.7070502 ], [ -70.4292322, 18.7069959 ], [ -70.4291924, 18.7069097 ], [ -70.4286835, 18.7069343 ], [ -70.4281694, 18.7069072 ], [ -70.4281411, 18.7066916 ], [ -70.428412, 18.7066609 ], [ -70.427994, 18.7046657 ], [ -70.4271133, 18.7044896 ], [ -70.4269478, 18.704492 ], [ -70.4268843, 18.7043836 ], [ -70.4269453, 18.702974 ], [ -70.4274765, 18.7029898 ], [ -70.4278485, 18.7030641 ], [ -70.4278607, 18.7034246 ], [ -70.4281989, 18.7038328 ], [ -70.4281795, 18.703901 ], [ -70.428058, 18.7038911 ], [ -70.4280793, 18.7040399 ], [ -70.4282453, 18.704194 ], [ -70.4282017, 18.7044283 ], [ -70.4283068, 18.7044854 ], [ -70.4284736, 18.7042997 ], [ -70.4287285, 18.7044142 ], [ -70.4286945, 18.7045126 ], [ -70.4289769, 18.7046003 ], [ -70.4292721, 18.7044733 ], [ -70.4294444, 18.704794 ], [ -70.4295826, 18.7047467 ], [ -70.4297888, 18.7047438 ], [ -70.4299412, 18.7047034 ], [ -70.4299188, 18.7046339 ], [ -70.4299468, 18.7045577 ], [ -70.4300133, 18.7045542 ], [ -70.4300091, 18.7044123 ], [ -70.4298746, 18.704253 ], [ -70.4299566, 18.7041369 ], [ -70.4300548, 18.704071 ], [ -70.4301962, 18.7040533 ], [ -70.4303202, 18.7041167 ], [ -70.4301427, 18.7045124 ], [ -70.4301789, 18.7046017 ], [ -70.4300827, 18.7046475 ], [ -70.4300239, 18.7047654 ], [ -70.4300995, 18.7049302 ], [ -70.4300972, 18.7050052 ], [ -70.4302953, 18.7050513 ], [ -70.4313422, 18.7052339 ], [ -70.4313477, 18.7053381 ], [ -70.4313964, 18.7055716 ], [ -70.431152, 18.7056813 ], [ -70.4310468, 18.7057756 ], [ -70.4309491, 18.7059521 ], [ -70.4306882, 18.706088 ], [ -70.4305576, 18.7058148 ], [ -70.4299818, 18.7060228 ], [ -70.4300783, 18.7063935 ], [ -70.4302447, 18.7066378 ] ] ] ] } },
{ "type": "Feature", "properties": { "osm_id": "way/369554307", "landuse": "residential" }, "geometry": { "type": "MultiPolygon", "coordinates": [ [ [ [ -70.4490041, 18.700351 ], [ -70.4489011, 18.6991315 ], [ -70.4476651, 18.6983673 ], [ -70.4488496, 18.6964974 ], [ -70.4505491, 18.6949852 ], [ -70.4490041, 18.6932453 ], [ -70.4469442, 18.6945787 ], [ -70.4460751, 18.6946783 ], [ -70.4460172, 18.6960584 ], [ -70.4449701, 18.6949527 ], [ -70.444822, 18.696662 ], [ -70.4459142, 18.6973429 ], [ -70.4424981, 18.7005624 ], [ -70.4440259, 18.7013266 ], [ -70.4490041, 18.700351 ] ] ] ] } },
{ "type": "Feature", "properties": { "osm_id": "way/394904632", "landuse": "residential" }, "geometry": { "type": "MultiPolygon", "coordinates": [ [ [ [ -70.4709445, 18.7175696 ], [ -70.4733478, 18.7138301 ], [ -70.4700519, 18.7133098 ], [ -70.4665843, 18.7130172 ], [ -70.467477, 18.7179598 ], [ -70.4709445, 18.7175696 ] ] ] ] } },
{ "type": "Feature", "properties": { "osm_id": "way/394904633", "landuse": "residential" }, "geometry": { "type": "MultiPolygon", "coordinates": [ [ [ [ -70.4637691, 18.7160088 ], [ -70.4607822, 18.7176021 ], [ -70.453508, 18.7060868 ], [ -70.4550487, 18.7051478 ], [ -70.4584476, 18.7049202 ], [ -70.4639751, 18.7128221 ], [ -70.4637691, 18.7160088 ] ] ] ] } },
{ "type": "Feature", "properties": { "osm_id": "way/398828601", "landuse": "meadow" }, "geometry": { "type": "MultiPolygon", "coordinates": [ [ [ [ -70.4113684, 18.7294774 ], [ -70.410656, 18.7294043 ], [ -70.4106818, 18.7282338 ], [ -70.4112139, 18.7283882 ], [ -70.4113684, 18.7294774 ] ] ] ] } },
{ "type": "Feature", "properties": { "osm_id": "way/642871845", "landuse": "farmland" }, "geometry": { "type": "MultiPolygon", "coordinates": [ [ [ [ -70.5591772, 18.7176437 ], [ -70.559162, 18.7177478 ], [ -70.5591013, 18.7177802 ], [ -70.5590672, 18.7178233 ], [ -70.559052, 18.7178915 ], [ -70.5590368, 18.7179526 ], [ -70.5589648, 18.7179526 ], [ -70.5588889, 18.7178951 ], [ -70.5588282, 18.7178808 ], [ -70.558741, 18.717852 ], [ -70.5586727, 18.7178161 ], [ -70.5586727, 18.7176796 ], [ -70.5586689, 18.7175646 ], [ -70.5585513, 18.7173958 ], [ -70.5584451, 18.7172557 ], [ -70.5584451, 18.7171874 ], [ -70.5584717, 18.7170473 ], [ -70.5583768, 18.7168174 ], [ -70.558263, 18.7165551 ], [ -70.5580923, 18.7163216 ], [ -70.5580013, 18.7161419 ], [ -70.5579027, 18.7159048 ], [ -70.5578609, 18.7157288 ], [ -70.5578003, 18.7156318 ], [ -70.5577889, 18.7154593 ], [ -70.5579141, 18.7154162 ], [ -70.5580999, 18.7153875 ], [ -70.5582479, 18.715348 ], [ -70.5583237, 18.7152977 ], [ -70.558373, 18.7152797 ], [ -70.5583844, 18.7153695 ], [ -70.5584072, 18.7154306 ], [ -70.5584337, 18.7155492 ], [ -70.5585096, 18.7154917 ], [ -70.5585399, 18.7153767 ], [ -70.5585817, 18.7153264 ], [ -70.5586575, 18.7153803 ], [ -70.5586955, 18.7155168 ], [ -70.5587296, 18.7156102 ], [ -70.5587106, 18.7156785 ], [ -70.5587561, 18.7156426 ], [ -70.5588661, 18.715815 ], [ -70.5589382, 18.7159372 ], [ -70.5590179, 18.7162677 ], [ -70.5590141, 18.7165299 ], [ -70.5589989, 18.7166988 ], [ -70.5590596, 18.7169144 ], [ -70.5591203, 18.7170904 ], [ -70.5592189, 18.7171694 ], [ -70.5593365, 18.717209 ], [ -70.5593593, 18.7172521 ], [ -70.5592303, 18.7173419 ], [ -70.5592189, 18.7175143 ], [ -70.5591772, 18.7176437 ] ] ] ] } },
{ "type": "Feature", "properties": { "osm_id": "way/642881220", "landuse": "farmland" }, "geometry": { "type": "MultiPolygon", "coordinates": [ [ [ [ -70.5584129, 18.7136978 ], [ -70.5583497, 18.7138858 ], [ -70.5581602, 18.7140567 ], [ -70.5577994, 18.7140311 ], [ -70.5575603, 18.7140183 ], [ -70.5573077, 18.7140824 ], [ -70.5569694, 18.7142404 ], [ -70.5568025, 18.7143472 ], [ -70.5565995, 18.7144541 ], [ -70.5564641, 18.7143686 ], [ -70.5566761, 18.7141892 ], [ -70.5567303, 18.7140012 ], [ -70.5567754, 18.7138816 ], [ -70.5567573, 18.7138303 ], [ -70.556816, 18.7137961 ], [ -70.5569197, 18.7138089 ], [ -70.55701, 18.7138388 ], [ -70.5571182, 18.7137534 ], [ -70.5570506, 18.7136124 ], [ -70.5570641, 18.7135398 ], [ -70.5571182, 18.7134671 ], [ -70.5571814, 18.7134629 ], [ -70.5571453, 18.7133219 ], [ -70.5571272, 18.7132364 ], [ -70.5572265, 18.7131253 ], [ -70.5571272, 18.7128775 ], [ -70.5570776, 18.7126938 ], [ -70.5568701, 18.7125485 ], [ -70.5567438, 18.7125058 ], [ -70.5566581, 18.71254 ], [ -70.5567032, 18.7124887 ], [ -70.5565995, 18.7124289 ], [ -70.5567438, 18.7124246 ], [ -70.5568656, 18.7124417 ], [ -70.5571002, 18.7124118 ], [ -70.5572941, 18.7125272 ], [ -70.557452, 18.7126468 ], [ -70.5575242, 18.7127878 ], [ -70.5575468, 18.7129032 ], [ -70.5576325, 18.7130356 ], [ -70.5577678, 18.7131723 ], [ -70.5579347, 18.7132877 ], [ -70.5581061, 18.7134073 ], [ -70.5583136, 18.7135056 ], [ -70.5583903, 18.7135996 ], [ -70.5584129, 18.7136978 ] ] ] ] } },
{ "type": "Feature", "properties": { "osm_id": "way/642881826", "landuse": "farmland" }, "geometry": { "type": "MultiPolygon", "coordinates": [ [ [ [ -70.5585752, 18.7150394 ], [ -70.5584219, 18.7151804 ], [ -70.5582865, 18.7152316 ], [ -70.5581151, 18.7152402 ], [ -70.5579527, 18.7152231 ], [ -70.5578174, 18.7151676 ], [ -70.5576821, 18.715159 ], [ -70.5575287, 18.7151761 ], [ -70.5574701, 18.7152658 ], [ -70.5574881, 18.7153641 ], [ -70.5574114, 18.7154495 ], [ -70.557231, 18.7155008 ], [ -70.5570235, 18.7155051 ], [ -70.5568656, 18.715394 ], [ -70.5567664, 18.7153128 ], [ -70.5566626, 18.7152445 ], [ -70.5565634, 18.7152786 ], [ -70.5565228, 18.7151163 ], [ -70.5564912, 18.7149796 ], [ -70.5564912, 18.7148685 ], [ -70.5565228, 18.7147489 ], [ -70.5565273, 18.7146762 ], [ -70.5565453, 18.7145908 ], [ -70.556631, 18.7146036 ], [ -70.5565769, 18.7145139 ], [ -70.5567045, 18.7144345 ], [ -70.5568547, 18.7143355 ], [ -70.556958, 18.7142643 ], [ -70.5572149, 18.7141442 ], [ -70.5573345, 18.7140928 ], [ -70.557561, 18.7140339 ], [ -70.5578587, 18.7140469 ], [ -70.5580673, 18.7140595 ], [ -70.5581706, 18.7140769 ], [ -70.5582487, 18.7141932 ], [ -70.5582344, 18.7143397 ], [ -70.5582487, 18.7145013 ], [ -70.5582998, 18.7146524 ], [ -70.5583715, 18.7147823 ], [ -70.5584912, 18.7149318 ], [ -70.5585752, 18.7150394 ] ] ] ] } },
{ "type": "Feature", "properties": { "osm_id": "way/642885002", "landuse": "farmland" }, "geometry": { "type": "MultiPolygon", "coordinates": [ [ [ [ -70.5593426, 18.717182 ], [ -70.5592693, 18.7171714 ], [ -70.5591991, 18.7171427 ], [ -70.5591353, 18.7170838 ], [ -70.5590779, 18.7169358 ], [ -70.5590396, 18.7167908 ], [ -70.5590125, 18.7166956 ], [ -70.5590221, 18.7165884 ], [ -70.5590268, 18.7164962 ], [ -70.5590268, 18.7163603 ], [ -70.5590284, 18.7162546 ], [ -70.558956, 18.715977 ], [ -70.5589446, 18.7159348 ], [ -70.5588147, 18.7157201 ], [ -70.5587597, 18.7156366 ], [ -70.558736, 18.7156051 ], [ -70.5587009, 18.7155072 ], [ -70.5587858, 18.7154786 ], [ -70.5588636, 18.7154862 ], [ -70.5588904, 18.7155294 ], [ -70.5589494, 18.7154989 ], [ -70.5589199, 18.7154481 ], [ -70.5589601, 18.7153973 ], [ -70.5589816, 18.715349 ], [ -70.5590057, 18.7152753 ], [ -70.5591666, 18.7153363 ], [ -70.5593329, 18.7153947 ], [ -70.5594215, 18.7154227 ], [ -70.5594, 18.7155065 ], [ -70.5594376, 18.7155878 ], [ -70.5595234, 18.7156285 ], [ -70.559636, 18.7156259 ], [ -70.5596736, 18.7156081 ], [ -70.559687, 18.7155675 ], [ -70.5597782, 18.7156564 ], [ -70.5597348, 18.7157095 ], [ -70.5597254, 18.715754 ], [ -70.5597442, 18.7157857 ], [ -70.5597629, 18.7158124 ], [ -70.5598085, 18.715806 ], [ -70.5598608, 18.7158073 ], [ -70.5599051, 18.7158162 ], [ -70.5599685, 18.7158231 ], [ -70.5600291, 18.715805 ], [ -70.5601439, 18.715805 ], [ -70.5602077, 18.7157959 ], [ -70.5603193, 18.7157446 ], [ -70.5604214, 18.7156841 ], [ -70.5605362, 18.7156298 ], [ -70.5605936, 18.7156177 ], [ -70.5606287, 18.7157778 ], [ -70.5606096, 18.7159198 ], [ -70.5605777, 18.7161796 ], [ -70.5605043, 18.7164485 ], [ -70.5604086, 18.7166297 ], [ -70.560348, 18.7167445 ], [ -70.5602811, 18.7168321 ], [ -70.5602619, 18.7168865 ], [ -70.5602555, 18.7169681 ], [ -70.5601917, 18.7170255 ], [ -70.5600769, 18.7170134 ], [ -70.5600131, 18.716962 ], [ -70.5599302, 18.7169953 ], [ -70.5598728, 18.716959 ], [ -70.5598281, 18.7169832 ], [ -70.5597516, 18.716962 ], [ -70.5596941, 18.7169288 ], [ -70.5596335, 18.7169107 ], [ -70.5596367, 18.7169741 ], [ -70.5595379, 18.7169862 ], [ -70.5594868, 18.7170587 ], [ -70.559439, 18.7170919 ], [ -70.5594326, 18.7171554 ], [ -70.5593426, 18.717182 ] ] ] ] } },
{ "type": "Feature", "properties": { "osm_id": "way/642886144", "landuse": "meadow" }, "geometry": { "type": "MultiPolygon", "coordinates": [ [ [ [ -70.5632473, 18.7218832 ], [ -70.5630176, 18.7219919 ], [ -70.5627114, 18.7217865 ], [ -70.5624052, 18.7215811 ], [ -70.5622521, 18.7212186 ], [ -70.56215, 18.7210131 ], [ -70.5625455, 18.7210131 ], [ -70.5624945, 18.7207594 ], [ -70.5624817, 18.7205056 ], [ -70.5627114, 18.7205902 ], [ -70.5628517, 18.7209165 ], [ -70.5631452, 18.7210856 ], [ -70.5632217, 18.7206627 ], [ -70.5634897, 18.7206144 ], [ -70.5637066, 18.7205298 ], [ -70.563949, 18.7206506 ], [ -70.5642297, 18.7207473 ], [ -70.5643956, 18.7209769 ], [ -70.5644976, 18.7212427 ], [ -70.5647783, 18.7212548 ], [ -70.565008, 18.7212306 ], [ -70.5652249, 18.7215811 ], [ -70.5656332, 18.7217623 ], [ -70.5655566, 18.722004 ], [ -70.5656156, 18.722394 ], [ -70.5655942, 18.7226582 ], [ -70.5657283, 18.7227293 ], [ -70.5658409, 18.7227598 ], [ -70.5657068, 18.7231205 ], [ -70.5656478, 18.7233898 ], [ -70.5655888, 18.7235524 ], [ -70.5655995, 18.7237708 ], [ -70.5656532, 18.7239181 ], [ -70.5654386, 18.7239994 ], [ -70.5653689, 18.7238978 ], [ -70.565283, 18.723969 ], [ -70.5651704, 18.7238826 ], [ -70.5651382, 18.7237607 ], [ -70.565047, 18.7236895 ], [ -70.564929, 18.7235778 ], [ -70.564811, 18.7233745 ], [ -70.5646554, 18.723151 ], [ -70.5643443, 18.7229274 ], [ -70.5641082, 18.722521 ], [ -70.563899, 18.7223279 ], [ -70.563663, 18.7220739 ], [ -70.5634591, 18.7218758 ], [ -70.5633357, 18.7217843 ], [ -70.5632473, 18.7218832 ] ] ] ] } },
{ "type": "Feature", "properties": { "osm_id": "way/642886339", "landuse": "farmland" }, "geometry": { "type": "MultiPolygon", "coordinates": [ [ [ [ -70.5700438, 18.7129143 ], [ -70.5695837, 18.7129955 ], [ -70.5692589, 18.7129784 ], [ -70.5689522, 18.7129571 ], [ -70.5686725, 18.712846 ], [ -70.5683342, 18.7127434 ], [ -70.5680545, 18.7126537 ], [ -70.5679913, 18.7125384 ], [ -70.568068, 18.7124358 ], [ -70.5681673, 18.7124529 ], [ -70.5682259, 18.7123675 ], [ -70.5681582, 18.712235 ], [ -70.5682485, 18.712141 ], [ -70.5682485, 18.7119744 ], [ -70.5683793, 18.7119359 ], [ -70.5686905, 18.7118804 ], [ -70.5688213, 18.7118206 ], [ -70.5689116, 18.7118035 ], [ -70.5689973, 18.7118889 ], [ -70.5691416, 18.7118847 ], [ -70.5691506, 18.7118035 ], [ -70.5692634, 18.7118206 ], [ -70.5693581, 18.7118462 ], [ -70.5693672, 18.7118889 ], [ -70.5694348, 18.7118462 ], [ -70.5695747, 18.711812 ], [ -70.569719, 18.7117864 ], [ -70.5698543, 18.7118548 ], [ -70.5699491, 18.7118719 ], [ -70.5700213, 18.7118377 ], [ -70.5701521, 18.711812 ], [ -70.5702017, 18.7118889 ], [ -70.5702062, 18.7121197 ], [ -70.5702648, 18.7123119 ], [ -70.5703235, 18.7124316 ], [ -70.5703641, 18.7126537 ], [ -70.5703009, 18.7127392 ], [ -70.5700438, 18.7129143 ] ] ] ] } },
{ "type": "Feature", "properties": { "osm_id": "way/642888079", "landuse": "meadow" }, "geometry": { "type": "MultiPolygon", "coordinates": [ [ [ [ -70.5703315, 18.7158554 ], [ -70.5704453, 18.7169332 ], [ -70.5706046, 18.7172063 ], [ -70.570286, 18.7172422 ], [ -70.5696791, 18.7169979 ], [ -70.5694287, 18.7167536 ], [ -70.5692618, 18.7165955 ], [ -70.5691101, 18.7163584 ], [ -70.5689963, 18.7160782 ], [ -70.568837, 18.7157189 ], [ -70.5685942, 18.7154962 ], [ -70.568708, 18.7153022 ], [ -70.5687763, 18.7151297 ], [ -70.5690115, 18.7151585 ], [ -70.5692239, 18.7153812 ], [ -70.5695198, 18.7155177 ], [ -70.5697777, 18.7155034 ], [ -70.5700356, 18.7158123 ], [ -70.5703315, 18.7158554 ] ] ] ] } },
{ "type": "Feature", "properties": { "osm_id": "way/642888133", "landuse": "meadow" }, "geometry": { "type": "MultiPolygon", "coordinates": [ [ [ [ -70.5693729, 18.718809 ], [ -70.5701384, 18.7192199 ], [ -70.5697811, 18.7191353 ], [ -70.5696088, 18.7196272 ], [ -70.5693984, 18.7197999 ], [ -70.5691432, 18.7199328 ], [ -70.5690539, 18.7201987 ], [ -70.5685435, 18.720247 ], [ -70.5680715, 18.7202712 ], [ -70.5678418, 18.7204404 ], [ -70.5675866, 18.720392 ], [ -70.5675483, 18.7202229 ], [ -70.567829, 18.7203437 ], [ -70.5677397, 18.7200053 ], [ -70.5674973, 18.7196187 ], [ -70.5672804, 18.7193286 ], [ -70.5672804, 18.7190991 ], [ -70.5674845, 18.7190749 ], [ -70.5674463, 18.718942 ], [ -70.5675739, 18.718809 ], [ -70.5676504, 18.7188453 ], [ -70.567829, 18.718664 ], [ -70.5677142, 18.7184949 ], [ -70.5676887, 18.7179269 ], [ -70.5681863, 18.7177456 ], [ -70.5683904, 18.7179027 ], [ -70.5687477, 18.7178786 ], [ -70.5690411, 18.7177577 ], [ -70.5692197, 18.717649 ], [ -70.5697556, 18.7179027 ], [ -70.5701894, 18.7181565 ], [ -70.5706998, 18.7184586 ], [ -70.571057, 18.7187245 ], [ -70.5709422, 18.7189299 ], [ -70.5699598, 18.7187245 ], [ -70.5693729, 18.718809 ] ] ] ] } },
{ "type": "Feature", "properties": { "osm_id": "way/642888527", "landuse": "farmland" }, "geometry": { "type": "MultiPolygon", "coordinates": [ [ [ [ -70.5610185, 18.7145595 ], [ -70.5610239, 18.7146739 ], [ -70.560938, 18.7147856 ], [ -70.5609219, 18.7148593 ], [ -70.5607529, 18.715126 ], [ -70.5606618, 18.7153725 ], [ -70.5605732, 18.7155096 ], [ -70.5605169, 18.7155579 ], [ -70.5603667, 18.7156519 ], [ -70.5601441, 18.7157383 ], [ -70.5599778, 18.7157713 ], [ -70.5598785, 18.7157154 ], [ -70.5597283, 18.7155579 ], [ -70.5595701, 18.7154309 ], [ -70.5594253, 18.7153623 ], [ -70.5591624, 18.7152785 ], [ -70.5588761, 18.7151619 ], [ -70.5587227, 18.7150807 ], [ -70.5585784, 18.7149782 ], [ -70.558452, 18.7148436 ], [ -70.5583122, 18.7146172 ], [ -70.5582716, 18.7144249 ], [ -70.5582939, 18.7142406 ], [ -70.55831, 18.7142126 ], [ -70.5584065, 18.7142533 ], [ -70.5584843, 18.7142253 ], [ -70.5585621, 18.7141466 ], [ -70.5585943, 18.7140577 ], [ -70.5585675, 18.7139078 ], [ -70.5586801, 18.7137579 ], [ -70.5587633, 18.7136588 ], [ -70.5588303, 18.713575 ], [ -70.558943, 18.7134911 ], [ -70.5590744, 18.7134225 ], [ -70.5592312, 18.7132996 ], [ -70.5593611, 18.7131703 ], [ -70.5594254, 18.7130788 ], [ -70.5594522, 18.7129848 ], [ -70.5594737, 18.7129289 ], [ -70.5595944, 18.7129747 ], [ -70.5597017, 18.712967 ], [ -70.5598492, 18.7129823 ], [ -70.5599243, 18.7129772 ], [ -70.5600048, 18.7129238 ], [ -70.5600745, 18.7129238 ], [ -70.5601818, 18.712868 ], [ -70.5602489, 18.71284 ], [ -70.5603186, 18.7128197 ], [ -70.5604125, 18.7127486 ], [ -70.560442, 18.7127104 ], [ -70.5605359, 18.7126546 ], [ -70.56056, 18.7125961 ], [ -70.5606083, 18.7125275 ], [ -70.5606566, 18.7124462 ], [ -70.5607719, 18.7122989 ], [ -70.5608631, 18.7121668 ], [ -70.5611125, 18.7118467 ], [ -70.5613194, 18.7116408 ], [ -70.5613463, 18.7115189 ], [ -70.5614696, 18.7117272 ], [ -70.561593, 18.7118237 ], [ -70.5615662, 18.711966 ], [ -70.5616413, 18.7120422 ], [ -70.5617432, 18.711905 ], [ -70.5619095, 18.7118847 ], [ -70.5619256, 18.712027 ], [ -70.5620973, 18.711966 ], [ -70.5621831, 18.7120371 ], [ -70.5623333, 18.7121641 ], [ -70.5623923, 18.7123166 ], [ -70.5624781, 18.7124182 ], [ -70.5625318, 18.7125046 ], [ -70.5624299, 18.7126316 ], [ -70.5624621, 18.7127281 ], [ -70.5625747, 18.7128246 ], [ -70.5623977, 18.712972 ], [ -70.562226, 18.7130279 ], [ -70.5620168, 18.7131549 ], [ -70.5618183, 18.7133531 ], [ -70.5617915, 18.7135207 ], [ -70.5616842, 18.7136935 ], [ -70.5615501, 18.7138256 ], [ -70.5614428, 18.7139577 ], [ -70.5613112, 18.7141305 ], [ -70.5612187, 18.7142876 ], [ -70.5611358, 18.7142121 ], [ -70.5609795, 18.7142544 ], [ -70.5607881, 18.7143239 ], [ -70.5606477, 18.7143783 ], [ -70.5607052, 18.7144447 ], [ -70.5607658, 18.7145172 ], [ -70.5608806, 18.7146532 ], [ -70.5609221, 18.7146834 ], [ -70.5609699, 18.7146562 ], [ -70.5610185, 18.7145595 ] ] ] ] } },
{ "type": "Feature", "properties": { "osm_id": "way/642888906", "landuse": "farmland" }, "geometry": { "type": "MultiPolygon", "coordinates": [ [ [ [ -70.5589523, 18.7128386 ], [ -70.5589613, 18.7128898 ], [ -70.5589139, 18.7130073 ], [ -70.5588169, 18.7132637 ], [ -70.5587831, 18.7133406 ], [ -70.5586703, 18.7133577 ], [ -70.5585869, 18.7133918 ], [ -70.5584854, 18.7134431 ], [ -70.558438, 18.7134367 ], [ -70.5584132, 18.7134602 ], [ -70.5583343, 18.7134901 ], [ -70.5581854, 18.7134218 ], [ -70.5580772, 18.7133662 ], [ -70.557926, 18.7132594 ], [ -70.5577772, 18.7131569 ], [ -70.5576576, 18.7130394 ], [ -70.5575855, 18.7129197 ], [ -70.5575584, 18.7128642 ], [ -70.5575291, 18.7127617 ], [ -70.5574712, 18.7126439 ], [ -70.5574361, 18.7125895 ], [ -70.5574983, 18.7125563 ], [ -70.5575876, 18.7125442 ], [ -70.557661, 18.7125472 ], [ -70.5577455, 18.7125653 ], [ -70.5578317, 18.7125459 ], [ -70.5579061, 18.7125438 ], [ -70.5579873, 18.7125459 ], [ -70.5580257, 18.7125267 ], [ -70.5580911, 18.7125545 ], [ -70.5581452, 18.7125481 ], [ -70.5582806, 18.7125844 ], [ -70.5583708, 18.7126485 ], [ -70.5584226, 18.7126698 ], [ -70.558307, 18.7127508 ], [ -70.5583293, 18.7128082 ], [ -70.5584378, 18.7128203 ], [ -70.5586005, 18.7127478 ], [ -70.5587663, 18.7126662 ], [ -70.5587886, 18.712772 ], [ -70.5589523, 18.7128386 ] ] ] ] } },
{ "type": "Feature", "properties": { "osm_id": "way/642889040", "landuse": "meadow" }, "geometry": { "type": "MultiPolygon", "coordinates": [ [ [ [ -70.5677364, 18.7133126 ], [ -70.5675315, 18.7133413 ], [ -70.5674936, 18.7134922 ], [ -70.5676377, 18.7135928 ], [ -70.5674557, 18.7137078 ], [ -70.5673419, 18.7138587 ], [ -70.567137, 18.7139162 ], [ -70.5670005, 18.7140096 ], [ -70.5668791, 18.7141389 ], [ -70.5668563, 18.7143186 ], [ -70.5670081, 18.7144335 ], [ -70.567137, 18.7145054 ], [ -70.5673495, 18.7145413 ], [ -70.5676453, 18.7145341 ], [ -70.5678198, 18.7145413 ], [ -70.5679184, 18.7145197 ], [ -70.5678653, 18.7143401 ], [ -70.5677895, 18.714218 ], [ -70.5678502, 18.7140886 ], [ -70.5679412, 18.7140168 ], [ -70.567964, 18.7138156 ], [ -70.5679791, 18.7136431 ], [ -70.5680929, 18.7135856 ], [ -70.568275, 18.7135138 ], [ -70.5680929, 18.7134132 ], [ -70.567964, 18.7132982 ], [ -70.5677364, 18.7133126 ] ] ] ] } },
{ "type": "Feature", "properties": { "osm_id": "way/642889936", "landuse": "farmland" }, "geometry": { "type": "MultiPolygon", "coordinates": [ [ [ [ -70.5602822, 18.7102619 ], [ -70.560191, 18.7103127 ], [ -70.5600247, 18.710333 ], [ -70.5599067, 18.7103533 ], [ -70.5597673, 18.7103787 ], [ -70.5595634, 18.7101552 ], [ -70.5594025, 18.7099214 ], [ -70.5593274, 18.709708 ], [ -70.55944, 18.7094184 ], [ -70.5595151, 18.709139 ], [ -70.559499, 18.7088341 ], [ -70.5594293, 18.7087144 ], [ -70.5605907, 18.7087093 ], [ -70.5613578, 18.7087042 ], [ -70.5612612, 18.7087703 ], [ -70.5611218, 18.7089049 ], [ -70.5609823, 18.7090624 ], [ -70.5609072, 18.7089507 ], [ -70.5608723, 18.7090421 ], [ -70.5607007, 18.709065 ], [ -70.5606175, 18.7091564 ], [ -70.5606229, 18.7092403 ], [ -70.5606926, 18.709286 ], [ -70.5606095, 18.7092758 ], [ -70.5605585, 18.7093216 ], [ -70.5605317, 18.7093648 ], [ -70.5605666, 18.709441 ], [ -70.5606202, 18.7094918 ], [ -70.5606712, 18.7095832 ], [ -70.5606819, 18.7097001 ], [ -70.560639, 18.7098551 ], [ -70.5605317, 18.7100278 ], [ -70.5604003, 18.7101853 ], [ -70.5602822, 18.7102619 ] ] ] ] } },
{ "type": "Feature", "properties": { "osm_id": "way/642890075", "landuse": "meadow" }, "geometry": { "type": "MultiPolygon", "coordinates": [ [ [ [ -70.5585856, 18.7193622 ], [ -70.5584069, 18.7194951 ], [ -70.5582857, 18.7196945 ], [ -70.5579413, 18.7197912 ], [ -70.55782, 18.7197731 ], [ -70.5576606, 18.7199241 ], [ -70.5574947, 18.7200027 ], [ -70.557265, 18.720051 ], [ -70.5572395, 18.7199422 ], [ -70.5573033, 18.7198456 ], [ -70.5573607, 18.7197247 ], [ -70.5574883, 18.7197247 ], [ -70.5575202, 18.7196583 ], [ -70.5575712, 18.7195797 ], [ -70.557769, 18.7196099 ], [ -70.5577818, 18.7195133 ], [ -70.5578009, 18.7194347 ], [ -70.5579413, 18.7194649 ], [ -70.5580114, 18.7193864 ], [ -70.5582475, 18.7193864 ], [ -70.5583559, 18.7193441 ], [ -70.5585026, 18.7192957 ], [ -70.5585856, 18.7193622 ] ] ] ] } },
{ "type": "Feature", "properties": { "osm_id": "way/642890583", "landuse": "farmland" }, "geometry": { "type": "MultiPolygon", "coordinates": [ [ [ [ -70.5564377, 18.7151652 ], [ -70.5563196, 18.7152769 ], [ -70.5561533, 18.7153328 ], [ -70.5560192, 18.715404 ], [ -70.5559656, 18.7154802 ], [ -70.5558529, 18.7155869 ], [ -70.5557457, 18.715658 ], [ -70.5555955, 18.7157901 ], [ -70.5555257, 18.7157444 ], [ -70.5555364, 18.7156427 ], [ -70.5555955, 18.7154852 ], [ -70.5555311, 18.7153887 ], [ -70.555633, 18.7153277 ], [ -70.5557564, 18.7152566 ], [ -70.5557564, 18.7152007 ], [ -70.5559173, 18.7151601 ], [ -70.5560782, 18.7151042 ], [ -70.5559227, 18.7150635 ], [ -70.5559388, 18.7150026 ], [ -70.5558744, 18.7149416 ], [ -70.5558583, 18.7148908 ], [ -70.5557296, 18.7149264 ], [ -70.555692, 18.7147841 ], [ -70.5557081, 18.7146977 ], [ -70.55581, 18.7145656 ], [ -70.5559012, 18.7144792 ], [ -70.5560407, 18.7143726 ], [ -70.5561051, 18.7143167 ], [ -70.5561641, 18.7141998 ], [ -70.5561641, 18.714088 ], [ -70.5562553, 18.7139864 ], [ -70.5563787, 18.7140626 ], [ -70.5563143, 18.7141439 ], [ -70.5562928, 18.7142252 ], [ -70.5562177, 18.7143421 ], [ -70.5561265, 18.7144284 ], [ -70.5561748, 18.7144894 ], [ -70.5562714, 18.7145555 ], [ -70.556325, 18.7144894 ], [ -70.5564269, 18.714525 ], [ -70.5564806, 18.7145555 ], [ -70.5564323, 18.7148603 ], [ -70.5564377, 18.7151652 ] ] ] ] } },
{ "type": "Feature", "properties": { "osm_id": "way/642890776", "landuse": "farmland" }, "geometry": { "type": "MultiPolygon", "coordinates": [ [ [ [ -70.5593996, 18.7087411 ], [ -70.5583565, 18.7087411 ], [ -70.5583868, 18.708856 ], [ -70.5583717, 18.7090249 ], [ -70.5582844, 18.7092476 ], [ -70.5581517, 18.7094021 ], [ -70.5580037, 18.7094524 ], [ -70.5579279, 18.7094668 ], [ -70.5578217, 18.709571 ], [ -70.5576168, 18.7097147 ], [ -70.5574423, 18.7099734 ], [ -70.5575372, 18.7101207 ], [ -70.557541, 18.71025 ], [ -70.5575296, 18.7104081 ], [ -70.557431, 18.7106237 ], [ -70.5572944, 18.7106812 ], [ -70.557082, 18.7107674 ], [ -70.5570061, 18.710832 ], [ -70.5569454, 18.7110153 ], [ -70.5568696, 18.7111123 ], [ -70.5568278, 18.7112416 ], [ -70.5567785, 18.711335 ], [ -70.5570668, 18.7112237 ], [ -70.5572944, 18.7111734 ], [ -70.5575208, 18.7109337 ], [ -70.5577951, 18.7107887 ], [ -70.5581588, 18.7106437 ], [ -70.5584076, 18.7104624 ], [ -70.5585224, 18.7102147 ], [ -70.5586053, 18.7100334 ], [ -70.5588222, 18.7100757 ], [ -70.5590328, 18.7101603 ], [ -70.5592688, 18.7097736 ], [ -70.5593715, 18.7095223 ], [ -70.5594708, 18.709192 ], [ -70.5594761, 18.7090269 ], [ -70.5594547, 18.7088465 ], [ -70.5593996, 18.7087411 ] ] ] ] } },
{ "type": "Feature", "properties": { "osm_id": "way/642891187", "landuse": "farmland" }, "geometry": { "type": "MultiPolygon", "coordinates": [ [ [ [ -70.5661794, 18.7285386 ], [ -70.5659541, 18.7285081 ], [ -70.5658146, 18.7284776 ], [ -70.565718, 18.728569 ], [ -70.5655034, 18.7284776 ], [ -70.5652889, 18.7284674 ], [ -70.5652567, 18.7282337 ], [ -70.5652138, 18.7279492 ], [ -70.5652138, 18.7277257 ], [ -70.565085, 18.7275428 ], [ -70.5650206, 18.7273193 ], [ -70.5649026, 18.7271059 ], [ -70.564731, 18.7269027 ], [ -70.5646237, 18.7267096 ], [ -70.5643769, 18.7265674 ], [ -70.5642267, 18.726354 ], [ -70.5639156, 18.7264149 ], [ -70.5638834, 18.7262625 ], [ -70.564055, 18.7259679 ], [ -70.5643018, 18.7259475 ], [ -70.5644198, 18.7256021 ], [ -70.5646022, 18.7254395 ], [ -70.5647953, 18.7254497 ], [ -70.5651279, 18.7255513 ], [ -70.5652352, 18.7257545 ], [ -70.5654605, 18.7259882 ], [ -70.5654498, 18.7262625 ], [ -70.5656, 18.7262727 ], [ -70.5658682, 18.7264759 ], [ -70.5661579, 18.7264353 ], [ -70.5661794, 18.7266791 ], [ -70.5661901, 18.7268823 ], [ -70.5662866, 18.726984 ], [ -70.5662759, 18.7272888 ], [ -70.5662545, 18.7275326 ], [ -70.5663939, 18.7276038 ], [ -70.5664047, 18.7273193 ], [ -70.5666192, 18.7271567 ], [ -70.5667694, 18.7269535 ], [ -70.5670269, 18.7268722 ], [ -70.5673381, 18.726984 ], [ -70.5673703, 18.7271364 ], [ -70.5674775, 18.7270856 ], [ -70.5678209, 18.7271973 ], [ -70.5679496, 18.7274006 ], [ -70.5681213, 18.7276038 ], [ -70.5681964, 18.7277663 ], [ -70.5683144, 18.7278679 ], [ -70.5684646, 18.7280305 ], [ -70.568411, 18.7282845 ], [ -70.5685075, 18.7284268 ], [ -70.5683359, 18.728569 ], [ -70.568132, 18.7286605 ], [ -70.5679603, 18.7284674 ], [ -70.5677243, 18.7282541 ], [ -70.5676492, 18.7281728 ], [ -70.5674668, 18.7283861 ], [ -70.5672308, 18.7282541 ], [ -70.5670591, 18.7280102 ], [ -70.5666836, 18.7282033 ], [ -70.5665549, 18.7284065 ], [ -70.5665119, 18.7286402 ], [ -70.5662545, 18.728691 ], [ -70.5661794, 18.7285386 ] ] ] ] } },
{ "type": "Feature", "properties": { "osm_id": "way/642894543", "landuse": "farmland" }, "geometry": { "type": "MultiPolygon", "coordinates": [ [ [ [ -70.5687153, 18.6544436 ], [ -70.5686295, 18.654591 ], [ -70.5685383, 18.6545503 ], [ -70.5686349, 18.6543978 ], [ -70.5687153, 18.6544436 ] ] ] ] } },
{ "type": "Feature", "properties": { "osm_id": "way/642894608", "landuse": "farmland" }, "geometry": { "type": "MultiPolygon", "coordinates": [ [ [ [ -70.5689567, 18.6544232 ], [ -70.5689353, 18.6543775 ], [ -70.5688119, 18.6544385 ], [ -70.5688441, 18.6544791 ], [ -70.5689567, 18.6544232 ] ] ] ] } },
{ "type": "Feature", "properties": { "osm_id": "way/642894943", "landuse": "farmland" }, "geometry": { "type": "MultiPolygon", "coordinates": [ [ [ [ -70.567735, 18.6529188 ], [ -70.5676894, 18.6529061 ], [ -70.5676572, 18.6530128 ], [ -70.5677082, 18.6530281 ], [ -70.567735, 18.6529188 ] ] ] ] } },
{ "type": "Feature", "properties": { "osm_id": "way/642897599", "landuse": "farmland" }, "geometry": { "type": "MultiPolygon", "coordinates": [ [ [ [ -70.5679536, 18.6517396 ], [ -70.5681521, 18.6514041 ], [ -70.5682459, 18.6513991 ], [ -70.5681789, 18.6512034 ], [ -70.5681065, 18.6511297 ], [ -70.5680689, 18.6511805 ], [ -70.5679938, 18.6511348 ], [ -70.5679455, 18.6511703 ], [ -70.5678972, 18.6511348 ], [ -70.5678275, 18.6511068 ], [ -70.5676478, 18.6511017 ], [ -70.5674761, 18.6511958 ], [ -70.5673286, 18.6513177 ], [ -70.5673715, 18.6514651 ], [ -70.5675459, 18.6514906 ], [ -70.5676907, 18.6515287 ], [ -70.5678382, 18.6516176 ], [ -70.5679536, 18.6517396 ] ] ] ] } },
{ "type": "Feature", "properties": { "osm_id": "way/642898035", "landuse": "farmland" }, "geometry": { "type": "MultiPolygon", "coordinates": [ [ [ [ -70.5660224, 18.6495629 ], [ -70.5659473, 18.6497052 ], [ -70.5656683, 18.649568 ], [ -70.5657595, 18.6494359 ], [ -70.5660224, 18.6495629 ] ] ] ] } },
{ "type": "Feature", "properties": { "osm_id": "way/755420546", "landuse": "residential" }, "geometry": { "type": "MultiPolygon", "coordinates": [ [ [ [ -70.4278276, 18.7007589 ], [ -70.4278163, 18.7006176 ], [ -70.4278238, 18.7004155 ], [ -70.4278408, 18.7002885 ], [ -70.4278654, 18.7001186 ], [ -70.4267853, 18.7001866 ], [ -70.4266985, 18.7002349 ], [ -70.4267343, 18.7002921 ], [ -70.4268363, 18.7004012 ], [ -70.4269118, 18.7004513 ], [ -70.4270774, 18.7005328 ], [ -70.427252, 18.7005905 ], [ -70.4274312, 18.7006547 ], [ -70.4276655, 18.7007221 ], [ -70.4278276, 18.7007589 ] ] ] ] } },
{ "type": "Feature", "properties": { "osm_id": "way/755420547", "landuse": "residential" }, "geometry": { "type": "MultiPolygon", "coordinates": [ [ [ [ -70.4308706, 18.7030847 ], [ -70.4307573, 18.7029577 ], [ -70.4306629, 18.7028755 ], [ -70.430559, 18.7028397 ], [ -70.4304193, 18.7028182 ], [ -70.4301833, 18.702786 ], [ -70.4299661, 18.7029631 ], [ -70.430053, 18.7032528 ], [ -70.4301682, 18.7032528 ], [ -70.430255, 18.7033601 ], [ -70.4301965, 18.7035265 ], [ -70.4302871, 18.7035891 ], [ -70.4303778, 18.7034853 ], [ -70.4306346, 18.703251 ], [ -70.4308706, 18.7030847 ] ] ] ] } },
{ "type": "Feature", "properties": { "osm_id": "way/755420548", "landuse": "residential" }, "geometry": { "type": "MultiPolygon", "coordinates": [ [ [ [ -70.4310443, 18.7035247 ], [ -70.4308234, 18.7036874 ], [ -70.4309178, 18.7038287 ], [ -70.4307648, 18.7039664 ], [ -70.4308725, 18.7040648 ], [ -70.4311765, 18.7038842 ], [ -70.4310443, 18.7035247 ] ] ] ] } },
{ "type": "Feature", "properties": { "osm_id": "way/755420549", "landuse": "farmland" }, "geometry": { "type": "MultiPolygon", "coordinates": [ [ [ [ -70.4443356, 18.7048732 ], [ -70.4471453, 18.7076061 ], [ -70.4472885, 18.7077568 ], [ -70.4473124, 18.7078021 ], [ -70.4472328, 18.7080245 ], [ -70.447006, 18.7082846 ], [ -70.4445067, 18.7109118 ], [ -70.4444471, 18.7109834 ], [ -70.4442202, 18.7108364 ], [ -70.4438262, 18.7110551 ], [ -70.4429746, 18.7119484 ], [ -70.4430581, 18.7120577 ], [ -70.4428114, 18.7123027 ], [ -70.4426801, 18.7121821 ], [ -70.4423577, 18.71251 ], [ -70.4423299, 18.7126344 ], [ -70.4424214, 18.7127475 ], [ -70.4425368, 18.7128229 ], [ -70.4427875, 18.7128945 ], [ -70.4437029, 18.7135993 ], [ -70.4437785, 18.7137011 ], [ -70.4438461, 18.7138029 ], [ -70.4439018, 18.7137916 ], [ -70.4440158, 18.7138747 ], [ -70.4455262, 18.714474 ], [ -70.4458425, 18.7145996 ], [ -70.4462864, 18.7147978 ], [ -70.4463477, 18.7148219 ], [ -70.4470059, 18.7155178 ], [ -70.447312, 18.715832 ], [ -70.4478733, 18.7161558 ], [ -70.4497102, 18.7174364 ], [ -70.4495163, 18.7176877 ], [ -70.4494143, 18.7177554 ], [ -70.4491336, 18.7177795 ], [ -70.448853, 18.7177602 ], [ -70.4487305, 18.717794 ], [ -70.4486183, 18.7177989 ], [ -70.4484958, 18.7176684 ], [ -70.4482203, 18.7174606 ], [ -70.4480417, 18.7173881 ], [ -70.4478886, 18.7174316 ], [ -70.4477202, 18.7173591 ], [ -70.4475263, 18.7174268 ], [ -70.4472916, 18.7176152 ], [ -70.4469702, 18.7176926 ], [ -70.4466844, 18.7176249 ], [ -70.4463936, 18.7174316 ], [ -70.4459344, 18.7171851 ], [ -70.4456333, 18.7170063 ], [ -70.4454802, 18.717016 ], [ -70.4451231, 18.7170111 ], [ -70.4447353, 18.7169725 ], [ -70.4444189, 18.7169532 ], [ -70.4442097, 18.7170256 ], [ -70.4440005, 18.7171513 ], [ -70.4437148, 18.7172189 ], [ -70.4435413, 18.7174219 ], [ -70.4436892, 18.7176007 ], [ -70.4445006, 18.7180937 ], [ -70.4445057, 18.7184851 ], [ -70.4446179, 18.7188234 ], [ -70.4447659, 18.7190215 ], [ -70.4450669, 18.719152 ], [ -70.4453527, 18.719239 ], [ -70.4455517, 18.7193356 ], [ -70.4458578, 18.7195773 ], [ -70.4460517, 18.7198624 ], [ -70.4460619, 18.720162 ], [ -70.4458374, 18.7201862 ], [ -70.445368, 18.7203215 ], [ -70.4446077, 18.7205825 ], [ -70.4441332, 18.7207178 ], [ -70.4438066, 18.7208772 ], [ -70.4435209, 18.7211044 ], [ -70.4429647, 18.7213847 ], [ -70.4426024, 18.7214861 ], [ -70.4423575, 18.7214523 ], [ -70.4422197, 18.7212832 ], [ -70.4419697, 18.7208966 ], [ -70.4417299, 18.7205873 ], [ -70.4414799, 18.7204423 ], [ -70.4412094, 18.7203892 ], [ -70.4409237, 18.7203988 ], [ -70.4406073, 18.7204133 ], [ -70.440393, 18.7203505 ], [ -70.4402297, 18.7202248 ], [ -70.4398368, 18.720046 ], [ -70.4394593, 18.7197657 ], [ -70.4390766, 18.7194661 ], [ -70.4388418, 18.7193115 ], [ -70.4385663, 18.7191375 ], [ -70.4382959, 18.7190505 ], [ -70.4381122, 18.7190699 ], [ -70.4379285, 18.7193791 ], [ -70.4377754, 18.7197368 ], [ -70.4377448, 18.7199494 ], [ -70.4379234, 18.720336 ], [ -70.4382193, 18.7207419 ], [ -70.4388163, 18.7211575 ], [ -70.4390204, 18.7209981 ], [ -70.4397144, 18.721317 ], [ -70.4400572, 18.7216431 ], [ -70.4402307, 18.7218799 ], [ -70.4404195, 18.7223051 ], [ -70.4406389, 18.7226966 ], [ -70.4406185, 18.7229189 ], [ -70.4403379, 18.723175 ], [ -70.4400572, 18.7234166 ], [ -70.4397613, 18.7235906 ], [ -70.4393378, 18.7236631 ], [ -70.4387459, 18.7235519 ], [ -70.438256, 18.7235181 ], [ -70.4377611, 18.7235036 ], [ -70.4371998, 18.7235761 ], [ -70.4369192, 18.7234988 ], [ -70.4368472, 18.7235526 ], [ -70.4370694, 18.7239871 ], [ -70.4372046, 18.7241976 ], [ -70.4372481, 18.7245224 ], [ -70.4371563, 18.7247419 ], [ -70.4369438, 18.7248792 ], [ -70.436881, 18.7249569 ], [ -70.4369535, 18.7250805 ], [ -70.4368617, 18.7251536 ], [ -70.4367796, 18.7252406 ], [ -70.4368955, 18.7253412 ], [ -70.4370597, 18.7254647 ], [ -70.4371032, 18.7256431 ], [ -70.4370356, 18.7257987 ], [ -70.4371129, 18.7260228 ], [ -70.4371129, 18.726279 ], [ -70.4371805, 18.7264162 ], [ -70.4370839, 18.7265169 ], [ -70.4370404, 18.7266815 ], [ -70.4370646, 18.7267776 ], [ -70.4372191, 18.7268371 ], [ -70.4374655, 18.7268691 ], [ -70.4376973, 18.7268828 ], [ -70.4380123, 18.72686 ], [ -70.4383349, 18.7267404 ], [ -70.4385032, 18.7265346 ], [ -70.4385873, 18.7264217 ], [ -70.4389099, 18.7264681 ], [ -70.4391273, 18.7265412 ], [ -70.4391273, 18.7266939 ], [ -70.4392255, 18.7268334 ], [ -70.4394218, 18.7269729 ], [ -70.4396813, 18.727119 ], [ -70.4396322, 18.7272917 ], [ -70.4397865, 18.7274909 ], [ -70.4399758, 18.7274444 ], [ -70.4402563, 18.7274975 ], [ -70.4404106, 18.7274643 ], [ -70.4405999, 18.727451 ], [ -70.4407542, 18.7275307 ], [ -70.4408103, 18.7276702 ], [ -70.4407752, 18.7277831 ], [ -70.4407612, 18.7278761 ], [ -70.4408804, 18.7279757 ], [ -70.4409295, 18.7280554 ], [ -70.4408523, 18.7281749 ], [ -70.4408033, 18.7283343 ], [ -70.4408664, 18.7284339 ], [ -70.4407892, 18.7285933 ], [ -70.44067, 18.7287195 ], [ -70.4406069, 18.7287992 ], [ -70.4406895, 18.7291122 ], [ -70.4406772, 18.7294817 ], [ -70.4407639, 18.7295697 ], [ -70.4410472, 18.729742 ], [ -70.4412436, 18.7295826 ], [ -70.4415732, 18.729669 ], [ -70.4416503, 18.7297553 ], [ -70.4420079, 18.7296955 ], [ -70.4421201, 18.7297553 ], [ -70.4419869, 18.7302401 ], [ -70.4417625, 18.7306452 ], [ -70.4415265, 18.7313767 ], [ -70.4415158, 18.7317759 ], [ -70.441673, 18.7320427 ], [ -70.4420921, 18.7324051 ], [ -70.4423445, 18.7326375 ], [ -70.4425096, 18.7327172 ], [ -70.4424238, 18.7329483 ], [ -70.4423962, 18.7331065 ], [ -70.442469, 18.7332968 ], [ -70.4423994, 18.7333452 ], [ -70.4423445, 18.7333481 ], [ -70.4418396, 18.7331953 ], [ -70.4414189, 18.7330625 ], [ -70.4409613, 18.7328401 ], [ -70.4406405, 18.7326973 ], [ -70.4406826, 18.7331223 ], [ -70.4405002, 18.7334211 ], [ -70.439813, 18.7332153 ], [ -70.4389996, 18.7329828 ], [ -70.4389084, 18.7332219 ], [ -70.4387612, 18.7338196 ], [ -70.4386279, 18.7338993 ], [ -70.4383544, 18.7338063 ], [ -70.4378425, 18.7336004 ], [ -70.4378075, 18.7337001 ], [ -70.4378285, 18.7337997 ], [ -70.4378916, 18.7339325 ], [ -70.4379407, 18.7341317 ], [ -70.4379617, 18.7342712 ], [ -70.4380108, 18.7344106 ], [ -70.4382002, 18.7344306 ], [ -70.4381861, 18.7347493 ], [ -70.43813, 18.7350482 ], [ -70.438102, 18.735274 ], [ -70.438081, 18.7354732 ], [ -70.4378916, 18.7356193 ], [ -70.4375691, 18.7357189 ], [ -70.4372031, 18.7360533 ], [ -70.4368661, 18.7363078 ], [ -70.436292, 18.7366792 ], [ -70.435716, 18.7368493 ], [ -70.4350162, 18.7368375 ], [ -70.4345703, 18.7354652 ], [ -70.4341802, 18.7343626 ], [ -70.4340935, 18.7338054 ], [ -70.4338953, 18.7335239 ], [ -70.433629, 18.7331603 ], [ -70.4333565, 18.7326324 ], [ -70.4331212, 18.7319111 ], [ -70.43257, 18.7322102 ], [ -70.4322913, 18.7324272 ], [ -70.4319321, 18.7326559 ], [ -70.4315543, 18.7326911 ], [ -70.4313624, 18.7327087 ], [ -70.4312695, 18.7325445 ], [ -70.431319, 18.7323627 ], [ -70.4312385, 18.7322395 ], [ -70.4311085, 18.7322102 ], [ -70.4310156, 18.7320459 ], [ -70.4309103, 18.7318935 ], [ -70.4307988, 18.7318231 ], [ -70.4306688, 18.7317586 ], [ -70.4305511, 18.7314536 ], [ -70.4306006, 18.731219 ], [ -70.4305201, 18.7308143 ], [ -70.4305927, 18.7304325 ], [ -70.4305628, 18.7302184 ], [ -70.4303879, 18.7299962 ], [ -70.4296414, 18.7292852 ], [ -70.4294452, 18.7290994 ], [ -70.4296542, 18.7289459 ], [ -70.4301661, 18.7287035 ], [ -70.4318667, 18.7282462 ], [ -70.431235, 18.7274192 ], [ -70.4317305, 18.7272374 ], [ -70.4314276, 18.7267368 ], [ -70.4314893, 18.726709 ], [ -70.4312895, 18.724967 ], [ -70.4286657, 18.7255319 ], [ -70.4278224, 18.7257601 ], [ -70.4272318, 18.7258769 ], [ -70.426982, 18.7258463 ], [ -70.427079, 18.7253705 ], [ -70.4268678, 18.7253469 ], [ -70.42682, 18.7251894 ], [ -70.4267526, 18.724898 ], [ -70.4267384, 18.7247291 ], [ -70.4267667, 18.7245108 ], [ -70.4267797, 18.7242451 ], [ -70.4267068, 18.7239422 ], [ -70.4265951, 18.7237001 ], [ -70.4263924, 18.7233467 ], [ -70.4265393, 18.7232438 ], [ -70.4266539, 18.7231046 ], [ -70.426598, 18.7231074 ], [ -70.4263189, 18.7231658 ], [ -70.4261837, 18.7227512 ], [ -70.4263277, 18.7226733 ], [ -70.4262983, 18.7225397 ], [ -70.4263982, 18.7223588 ], [ -70.4263542, 18.7223366 ], [ -70.4262396, 18.7224061 ], [ -70.4262249, 18.7224562 ], [ -70.4261162, 18.7224729 ], [ -70.4260721, 18.7222475 ], [ -70.4262484, 18.7221557 ], [ -70.4264746, 18.7220639 ], [ -70.426551, 18.7218524 ], [ -70.4266392, 18.721716 ], [ -70.4264482, 18.7215908 ], [ -70.4258929, 18.7212374 ], [ -70.4257136, 18.720422 ], [ -70.4257812, 18.7203969 ], [ -70.4258664, 18.7204136 ], [ -70.4261426, 18.7206196 ], [ -70.4266862, 18.719974 ], [ -70.4269271, 18.7199684 ], [ -70.4271152, 18.7196205 ], [ -70.4272327, 18.7193033 ], [ -70.4273179, 18.7191057 ], [ -70.4273085, 18.719035 ], [ -70.4270689, 18.7188491 ], [ -70.4270723, 18.7187735 ], [ -70.4272619, 18.718534 ], [ -70.4275181, 18.7182094 ], [ -70.4274915, 18.7181243 ], [ -70.4274083, 18.7180487 ], [ -70.4272053, 18.7178502 ], [ -70.4266522, 18.7175526 ], [ -70.4261939, 18.7174059 ], [ -70.4256303, 18.7172652 ], [ -70.4250606, 18.7172417 ], [ -70.4247571, 18.7171772 ], [ -70.4244165, 18.7170716 ], [ -70.4242121, 18.7169895 ], [ -70.4239149, 18.717447 ], [ -70.4235866, 18.7174177 ], [ -70.4233699, 18.7173766 ], [ -70.4235123, 18.7170775 ], [ -70.4234194, 18.7170129 ], [ -70.4236176, 18.716661 ], [ -70.4232522, 18.7165026 ], [ -70.4232398, 18.7163677 ], [ -70.4233637, 18.7161273 ], [ -70.4232522, 18.7160686 ], [ -70.4235488, 18.7154833 ], [ -70.423676, 18.7153162 ], [ -70.4241534, 18.7151663 ], [ -70.4247321, 18.7149279 ], [ -70.4249864, 18.7147313 ], [ -70.4251706, 18.7146059 ], [ -70.425469, 18.7144585 ], [ -70.4256844, 18.7142913 ], [ -70.4259491, 18.7142805 ], [ -70.426269, 18.7142684 ], [ -70.4267041, 18.7142684 ], [ -70.4269984, 18.7142765 ], [ -70.4271776, 18.7144098 ], [ -70.42734, 18.7146497 ], [ -70.4270556, 18.7151781 ], [ -70.4267383, 18.7153128 ], [ -70.4270337, 18.7160277 ], [ -70.4271321, 18.7162141 ], [ -70.4276681, 18.7165871 ], [ -70.4277392, 18.7167218 ], [ -70.4279744, 18.7169756 ], [ -70.4284284, 18.7173227 ], [ -70.4291503, 18.7162659 ], [ -70.4297629, 18.7151678 ], [ -70.4294128, 18.7150123 ], [ -70.4294292, 18.7148777 ], [ -70.4292761, 18.7146964 ], [ -70.4292269, 18.7144684 ], [ -70.4291175, 18.7142301 ], [ -70.4285815, 18.7141006 ], [ -70.4281822, 18.7138675 ], [ -70.4280127, 18.7137847 ], [ -70.4280127, 18.7136655 ], [ -70.4279142, 18.7135982 ], [ -70.4279416, 18.7135101 ], [ -70.4277338, 18.7133754 ], [ -70.4276791, 18.7133547 ], [ -70.4275916, 18.713479 ], [ -70.4274603, 18.7134738 ], [ -70.4272579, 18.7134013 ], [ -70.4271212, 18.7132874 ], [ -70.427072, 18.7132407 ], [ -70.4268258, 18.713422 ], [ -70.4265633, 18.7135723 ], [ -70.4263938, 18.7136344 ], [ -70.4263222, 18.7135149 ], [ -70.4262365, 18.7133772 ], [ -70.4261301, 18.7131855 ], [ -70.4261898, 18.7129766 ], [ -70.4262365, 18.712866 ], [ -70.4263818, 18.7128046 ], [ -70.4264623, 18.7126424 ], [ -70.4265271, 18.7123401 ], [ -70.4265648, 18.7120205 ], [ -70.4266928, 18.7120286 ], [ -70.4266586, 18.7127276 ], [ -70.4269615, 18.7128205 ], [ -70.4271791, 18.7128528 ], [ -70.42729, 18.7128528 ], [ -70.4276781, 18.7128407 ], [ -70.4278274, 18.7127599 ], [ -70.4280066, 18.7125296 ], [ -70.4274862, 18.7118225 ], [ -70.4273539, 18.711467 ], [ -70.4274563, 18.7112933 ], [ -70.4276184, 18.7110226 ], [ -70.4278104, 18.7107478 ], [ -70.4281431, 18.7104367 ], [ -70.428463, 18.7101983 ], [ -70.428719, 18.7100327 ], [ -70.4290475, 18.7099034 ], [ -70.4292863, 18.7097095 ], [ -70.4294996, 18.7098832 ], [ -70.4298366, 18.7100327 ], [ -70.430084, 18.7102266 ], [ -70.4302717, 18.7104408 ], [ -70.4304125, 18.7105741 ], [ -70.4305021, 18.710663 ], [ -70.4308007, 18.7102589 ], [ -70.4309798, 18.7099559 ], [ -70.4309628, 18.7097337 ], [ -70.431014, 18.7096893 ], [ -70.4313467, 18.7099115 ], [ -70.4315003, 18.7099721 ], [ -70.4317647, 18.7097862 ], [ -70.4326264, 18.7090994 ], [ -70.4340085, 18.708061 ], [ -70.4343199, 18.7078266 ], [ -70.4343071, 18.7077297 ], [ -70.4345844, 18.7077054 ], [ -70.4348489, 18.7072125 ], [ -70.4349171, 18.7070792 ], [ -70.4351645, 18.7068529 ], [ -70.4353906, 18.7070469 ], [ -70.4355613, 18.7073176 ], [ -70.4356338, 18.7073539 ], [ -70.4358769, 18.7072408 ], [ -70.4362651, 18.7071883 ], [ -70.4364997, 18.7071479 ], [ -70.4405522, 18.705459 ], [ -70.440919, 18.7053014 ], [ -70.4413414, 18.7051923 ], [ -70.4421177, 18.7051277 ], [ -70.4434358, 18.7050509 ], [ -70.4443356, 18.7048732 ] ] ] ] } },
{ "type": "Feature", "properties": { "osm_id": "way/932977730", "landuse": "farmland" }, "geometry": { "type": "MultiPolygon", "coordinates": [ [ [ [ -70.4392532, 18.7471527 ], [ -70.4391137, 18.7471781 ], [ -70.4387462, 18.7470511 ], [ -70.4387677, 18.7467692 ], [ -70.4389071, 18.7465254 ], [ -70.4390252, 18.7464111 ], [ -70.4391781, 18.7464289 ], [ -70.4393739, 18.7467057 ], [ -70.4392532, 18.7471527 ] ] ] ] } },
{ "type": "Feature", "properties": { "osm_id": "way/932981911", "landuse": "farmland" }, "geometry": { "type": "MultiPolygon", "coordinates": [ [ [ [ -70.4384834, 18.7328448 ], [ -70.4375017, 18.7324003 ], [ -70.437777, 18.7319402 ], [ -70.4387949, 18.732485 ], [ -70.4384834, 18.7328448 ] ] ] ] } },
{ "type": "Feature", "properties": { "osm_id": "way/932981918", "landuse": "farmland" }, "geometry": { "type": "MultiPolygon", "coordinates": [ [ [ [ -70.4331981, 18.7405476 ], [ -70.432789, 18.7406555 ], [ -70.4326898, 18.7405438 ], [ -70.4326656, 18.7404168 ], [ -70.4326241, 18.7402555 ], [ -70.4325154, 18.7401323 ], [ -70.4323867, 18.7400027 ], [ -70.4328521, 18.7397665 ], [ -70.4330572, 18.7401018 ], [ -70.4331981, 18.7405476 ] ] ] ] } },
{ "type": "Feature", "properties": { "osm_id": "way/933067812", "landuse": "farmland" }, "geometry": { "type": "MultiPolygon", "coordinates": [ [ [ [ -70.457581, 18.8023514 ], [ -70.4571832, 18.8022423 ], [ -70.4566096, 18.802221 ], [ -70.4565955, 18.8021451 ], [ -70.4571171, 18.8019269 ], [ -70.4573139, 18.8020932 ], [ -70.4574671, 18.8021278 ], [ -70.457581, 18.8023514 ] ] ] ] } },
{ "type": "Feature", "properties": { "osm_id": "way/933067813", "landuse": "farmland" }, "geometry": { "type": "MultiPolygon", "coordinates": [ [ [ [ -70.4565491, 18.8019735 ], [ -70.4564212, 18.8014265 ], [ -70.4571958, 18.8014159 ], [ -70.4572717, 18.8016408 ], [ -70.4572057, 18.8018311 ], [ -70.4568992, 18.8018577 ], [ -70.4565646, 18.8019868 ], [ -70.4565491, 18.8019735 ] ] ] ] } },
{ "type": "Feature", "properties": { "osm_id": "way/1431791145", "landuse": "cemetery" }, "geometry": { "type": "MultiPolygon", "coordinates": [ [ [ [ -70.4556997, 18.6994115 ], [ -70.4561568, 18.6992772 ], [ -70.4560233, 18.6988995 ], [ -70.4559399, 18.6984001 ], [ -70.4559616, 18.6981204 ], [ -70.4559383, 18.6978928 ], [ -70.455643, 18.6973065 ], [ -70.4552576, 18.697512 ], [ -70.4554077, 18.6978991 ], [ -70.4554344, 18.6984649 ], [ -70.4556997, 18.6994115 ] ] ] ] } },
{ "type": "Feature", "properties": { "osm_id": "way/1431794587", "landuse": "quarry" }, "geometry": { "type": "MultiPolygon", "coordinates": [ [ [ [ -70.4544646, 18.6940325 ], [ -70.4548283, 18.6938571 ], [ -70.4545401, 18.6928497 ], [ -70.4538265, 18.6915888 ], [ -70.4527562, 18.6905359 ], [ -70.4520632, 18.6904254 ], [ -70.4510409, 18.6909649 ], [ -70.4504097, 18.6911924 ], [ -70.4501146, 18.6922842 ], [ -70.449552, 18.6921868 ], [ -70.4494148, 18.6929407 ], [ -70.449847, 18.6930512 ], [ -70.4497647, 18.6937336 ], [ -70.4519862, 18.6938392 ], [ -70.4544646, 18.6940325 ] ] ] ] } }
]
}
