{
"type": "FeatureCollection",
"name": "muni",
"crs": { "type": "name", "properties": { "name": "urn:ogc:def:crs:OGC:1.3:CRS84" } },
"features": [
{ "type": "Feature", "properties": { "name": "Rancho Arriba, San José de Ocoa, 92401, República Dominicana", "osm_id": 7156019, "bbox": "(4:18.6315579,18.7969432,-70.5592220,-70.3436378)" }, "geometry": { "type": "MultiPolygon", "coordinates": [ [ [ [ -70.559222, 18.7408431 ], [ -70.5586839, 18.7406597 ], [ -70.5576742, 18.7403962 ], [ -70.5564369, 18.7400386 ], [ -70.5551748, 18.7397132 ], [ -70.5543337, 18.7395283 ], [ -70.5539977, 18.7395071 ], [ -70.5532592, 18.7395212 ], [ -70.5525292, 18.7395592 ], [ -70.5520251, 18.7395154 ], [ -70.5516883, 18.7393983 ], [ -70.5512334, 18.7392181 ], [ -70.5508797, 18.7391011 ], [ -70.5505017, 18.7390642 ], [ -70.5493771, 18.7390975 ], [ -70.5489823, 18.7390688 ], [ -70.5487547, 18.7389587 ], [ -70.5485092, 18.7387368 ], [ -70.5483303, 18.7384504 ], [ -70.5481926, 18.7380757 ], [ -70.548104, 18.7375646 ], [ -70.5480176, 18.7372934 ], [ -70.5477211, 18.7369919 ], [ -70.5473158, 18.7367314 ], [ -70.546657100000019, 18.736305 ], [ -70.5460501, 18.7360141 ], [ -70.5453507, 18.7357159 ], [ -70.5448964, 18.7356077 ], [ -70.5441563, 18.7354539 ], [ -70.5439216, 18.7354878 ], [ -70.5435689, 18.7354747 ], [ -70.5431737, 18.73539 ], [ -70.5428362, 18.7352009 ], [ -70.5425734, 18.7349231 ], [ -70.5423338, 18.7344213 ], [ -70.5422128, 18.7340304 ], [ -70.5419919, 18.7337363 ], [ -70.5416794, 18.7335229 ], [ -70.540963600000012, 18.7332729 ], [ -70.5403501, 18.73319 ], [ -70.5398031, 18.7330346 ], [ -70.5394061, 18.7327659 ], [ -70.5389848, 18.7325934 ], [ -70.5387411, 18.7325554 ], [ -70.5382957, 18.7325031 ], [ -70.5378071, 18.7323072 ], [ -70.5376035, 18.732069 ], [ -70.5374319, 18.7316625 ], [ -70.5374535, 18.7312624 ], [ -70.5374745, 18.7307984 ], [ -70.537597, 18.7304295 ], [ -70.5376611, 18.7300851 ], [ -70.5376089, 18.7298856 ], [ -70.5374604, 18.7297227 ], [ -70.5373293, 18.7296 ], [ -70.5370431, 18.7295064 ], [ -70.5367828, 18.7295005 ], [ -70.5365154, 18.7296307 ], [ -70.536383, 18.7298397 ], [ -70.5362604, 18.7299586 ], [ -70.5360918, 18.730122 ], [ -70.5358405, 18.730188 ], [ -70.5353964, 18.7302637 ], [ -70.5350694, 18.7302788 ], [ -70.5349768, 18.7302831 ], [ -70.5344808, 18.7301992 ], [ -70.5340596, 18.7300267 ], [ -70.5337359, 18.7295015 ], [ -70.5337078, 18.7291819 ], [ -70.533712, 18.728718 ], [ -70.5336833, 18.7283263 ], [ -70.5335616, 18.7278635 ], [ -70.5332815, 18.7275139 ], [ -70.5331039, 18.7273714 ], [ -70.532666, 18.727207 ], [ -70.5322377, 18.7271865 ], [ -70.5320624, 18.7272999 ], [ -70.5318888, 18.7275893 ], [ -70.5317186, 18.7279319 ], [ -70.5316415, 18.7280871 ], [ -70.5314932, 18.7284002 ], [ -70.5312936, 18.7286098 ], [ -70.5310256, 18.728676 ], [ -70.5306982, 18.7286707 ], [ -70.5306331, 18.7286541 ], [ -70.5304542, 18.7286087 ], [ -70.5304076, 18.7285723 ], [ -70.5302514, 18.7284504 ], [ -70.530065, 18.72826 ], [ -70.5299454, 18.728029 ], [ -70.5300077, 18.7274927 ], [ -70.5299976, 18.7263731 ], [ -70.5300308, 18.7253972 ], [ -70.5301588, 18.7247003 ], [ -70.5302535, 18.7240278 ], [ -70.5304056, 18.7232108 ], [ -70.5305023, 18.7227622 ], [ -70.5298373, 18.7228663 ], [ -70.5289303, 18.7229697 ], [ -70.5275192, 18.7231732 ], [ -70.5262048, 18.722896 ], [ -70.5259906, 18.7225844 ], [ -70.5254815, 18.7218439 ], [ -70.5252845, 18.7215572 ], [ -70.5250252, 18.7211417 ], [ -70.5245677, 18.7204087 ], [ -70.5240548, 18.7194518 ], [ -70.5239382, 18.7177224 ], [ -70.5238288, 18.7167611 ], [ -70.5234072, 18.7147451 ], [ -70.5228888, 18.713211 ], [ -70.521871, 18.7122581 ], [ -70.5216479, 18.71226 ], [ -70.5210029, 18.7128483 ], [ -70.5205351, 18.7131373 ], [ -70.5203938, 18.7123747 ], [ -70.5203686, 18.7123154 ], [ -70.520208200000013, 18.7119119 ], [ -70.5201447, 18.7115128 ], [ -70.5201388, 18.7108565 ], [ -70.5197132, 18.7101465 ], [ -70.5196794, 18.7097187 ], [ -70.5197055, 18.7092904 ], [ -70.519971, 18.7088317 ], [ -70.5201389, 18.7084633 ], [ -70.520206, 18.7083161 ], [ -70.5201077, 18.7073751 ], [ -70.5199785, 18.7070693 ], [ -70.5197712, 18.7065788 ], [ -70.5188964, 18.7058725 ], [ -70.5185624, 18.7053615 ], [ -70.5179878, 18.7047383 ], [ -70.517717, 18.7045978 ], [ -70.5176435, 18.7036329 ], [ -70.517677, 18.7029096 ], [ -70.5177088, 18.7019962 ], [ -70.5177812, 18.7011585 ], [ -70.5178043, 18.7008754 ], [ -70.5178181, 18.7005777 ], [ -70.5177856, 18.7002651 ], [ -70.5179078, 18.6999084 ], [ -70.518186, 18.6996147 ], [ -70.5184102, 18.6992978 ], [ -70.5185007, 18.6989481 ], [ -70.5185594, 18.6985884 ], [ -70.5185982, 18.698221 ], [ -70.5186272, 18.6978492 ], [ -70.5186568, 18.6974797 ], [ -70.5186443, 18.6971071 ], [ -70.5184232, 18.6967666 ], [ -70.5182062, 18.6964239 ], [ -70.5179833, 18.6960857 ], [ -70.517744, 18.6957613 ], [ -70.517472, 18.6954642 ], [ -70.5171262, 18.6952298 ], [ -70.5167737, 18.6950022 ], [ -70.5165006, 18.6947153 ], [ -70.5162979, 18.6943747 ], [ -70.5161252, 18.6940125 ], [ -70.515966, 18.6936388 ], [ -70.5158027, 18.6932674 ], [ -70.5156182, 18.6929086 ], [ -70.5154033, 18.692567 ], [ -70.5151698, 18.6922368 ], [ -70.5149316, 18.6919078 ], [ -70.5147035, 18.6915753 ], [ -70.5144963, 18.6912292 ], [ -70.514295300000015, 18.6908795 ], [ -70.5140984, 18.6905276 ], [ -70.5139091, 18.69017 ], [ -70.5137317, 18.68981 ], [ -70.5135691, 18.6894442 ], [ -70.5134277, 18.6890715 ], [ -70.5133212, 18.6886872 ], [ -70.5132365, 18.6882938 ], [ -70.5131568, 18.6879002 ], [ -70.5130651, 18.6875102 ], [ -70.5129438, 18.6871328 ], [ -70.5127829, 18.6867625 ], [ -70.51258820000001, 18.6863959 ], [ -70.5123609, 18.686051 ], [ -70.5121031, 18.6857492 ], [ -70.5117462, 18.6855917 ], [ -70.5113037, 18.6855434 ], [ -70.5110114, 18.6852871 ], [ -70.5107691, 18.6849637 ], [ -70.5105447, 18.6846154 ], [ -70.5103165, 18.6842683 ], [ -70.510063, 18.6839495 ], [ -70.5097623, 18.6836843 ], [ -70.5094049, 18.6834737 ], [ -70.5090105, 18.6832973 ], [ -70.5086038, 18.6831368 ], [ -70.5082095, 18.6829717 ], [ -70.5078522, 18.6827825 ], [ -70.5075569, 18.6825511 ], [ -70.5074401, 18.6822053 ], [ -70.5074626, 18.6817714 ], [ -70.507299, 18.6814272 ], [ -70.5069135, 18.6814223 ], [ -70.5065277, 18.6814187 ], [ -70.5061422, 18.6814127 ], [ -70.5057573, 18.6814023 ], [ -70.5053728, 18.6813828 ], [ -70.5049888, 18.6813395 ], [ -70.5046057, 18.6812726 ], [ -70.5042235, 18.681209 ], [ -70.5037587, 18.6811822 ], [ -70.503333, 18.6812173 ], [ -70.5029478, 18.6812825 ], [ -70.5025707, 18.6813804 ], [ -70.5022122, 18.681512 ], [ -70.5018747, 18.6816773 ], [ -70.5015493, 18.6818731 ], [ -70.501233, 18.6820868 ], [ -70.5009233, 18.6823129 ], [ -70.5006172, 18.6825401 ], [ -70.5003173, 18.6827707 ], [ -70.5000357, 18.6830225 ], [ -70.4997547, 18.6832755 ], [ -70.4994569, 18.683506 ], [ -70.4991453, 18.683722 ], [ -70.4988278, 18.6839301 ], [ -70.4985072, 18.6841337 ], [ -70.4981855, 18.6843373 ], [ -70.4978661, 18.6845431 ], [ -70.4976838, 18.684129 ], [ -70.4974867, 18.683716 ], [ -70.497313, 18.6833007 ], [ -70.4972015, 18.6828803 ], [ -70.4972045, 18.6824465 ], [ -70.4973102, 18.6820052 ], [ -70.4974245, 18.6815616 ], [ -70.4974515, 18.6811231 ], [ -70.4973987, 18.6806819 ], [ -70.4973928, 18.6806424 ], [ -70.4964637, 18.6802082 ], [ -70.4954448, 18.6790632 ], [ -70.4947436, 18.6796448 ], [ -70.4937223, 18.6782106 ], [ -70.492298, 18.6768768 ], [ -70.4908951, 18.6779451 ], [ -70.4890564, 18.6753631 ], [ -70.4876338, 18.6742212 ], [ -70.486215, 18.6734633 ], [ -70.4850935, 18.6721259 ], [ -70.4847832, 18.6712632 ], [ -70.4841688, 18.6702098 ], [ -70.4831518, 18.6692566 ], [ -70.4816261, 18.6678264 ], [ -70.4806096, 18.6669692 ], [ -70.4798069, 18.6674556 ], [ -70.4788906, 18.6665016 ], [ -70.4786269, 18.6662897 ], [ -70.4781794, 18.6659301 ], [ -70.4774317, 18.6656742 ], [ -70.4772749, 18.665725 ], [ -70.4770611, 18.6658002 ], [ -70.4768271, 18.6658013 ], [ -70.4766121, 18.6658023 ], [ -70.4764165, 18.665803 ], [ -70.4761424, 18.6658038 ], [ -70.4759461, 18.6657859 ], [ -70.4757542, 18.6656917 ], [ -70.4755634, 18.6656163 ], [ -70.4753743, 18.6655594 ], [ -70.4751755, 18.6656713 ], [ -70.4750536, 18.6658391 ], [ -70.4748636, 18.6659848 ], [ -70.4746892, 18.666003 ], [ -70.4745115, 18.6659488 ], [ -70.4743115, 18.6658767 ], [ -70.4740922, 18.6657486 ], [ -70.4739421, 18.6656549 ], [ -70.4737488, 18.6655439 ], [ -70.473556, 18.6654514 ], [ -70.4733519, 18.665434 ], [ -70.4731248, 18.6654354 ], [ -70.4729231, 18.6654547 ], [ -70.4726773, 18.6654558 ], [ -70.4725136, 18.665326 ], [ -70.4724334, 18.6652373 ], [ -70.4723957, 18.6651956 ], [ -70.4722913, 18.6650059 ], [ -70.4722459, 18.6647654 ], [ -70.4722156, 18.6645937 ], [ -70.4721131, 18.6644225 ], [ -70.4720317, 18.6641961 ], [ -70.4718416, 18.6639132 ], [ -70.471696, 18.6637676 ], [ -70.4714623, 18.6634575 ], [ -70.4713323, 18.6632501 ], [ -70.4711306, 18.6629281 ], [ -70.4708781, 18.6626641 ], [ -70.4705869, 18.662382 ], [ -70.4702964, 18.6621733 ], [ -70.4700456, 18.6621019 ], [ -70.4697367, 18.6619942 ], [ -70.4694475, 18.6619414 ], [ -70.4691388, 18.6618521 ], [ -70.4689152, 18.661597 ], [ -70.4688724, 18.6610928 ], [ -70.4690226, 18.6606513 ], [ -70.469259400000013, 18.6602184 ], [ -70.4698385, 18.6592874 ], [ -70.4700634, 18.6585884 ], [ -70.470031, 18.6581759 ], [ -70.46999, 18.6578919 ], [ -70.4697555, 18.6574717 ], [ -70.4695606, 18.6571889 ], [ -70.4694333, 18.6569422 ], [ -70.46922, 18.6567604 ], [ -70.46864, 18.656670399999989 ], [ -70.4679655, 18.656913 ], [ -70.4673619, 18.6572273 ], [ -70.4669952, 18.6573953 ], [ -70.4666881, 18.6575576 ], [ -70.4663692, 18.6576169 ], [ -70.4661254, 18.6575981 ], [ -70.4658593, 18.6574919 ], [ -70.4657179, 18.6573695 ], [ -70.4657175, 18.6573691 ], [ -70.465657, 18.6572561 ], [ -70.4657026, 18.6568945 ], [ -70.4657378, 18.6565795 ], [ -70.4656232, 18.6564131 ], [ -70.4653927, 18.6561322 ], [ -70.4650747, 18.6558378 ], [ -70.4648228, 18.6556471 ], [ -70.4644558, 18.6554849 ], [ -70.4641658, 18.6553404 ], [ -70.4638478, 18.6552878 ], [ -70.4634049, 18.6552637 ], [ -70.4627562, 18.6555695 ], [ -70.4621132, 18.6556188 ], [ -70.461345, 18.6556776 ], [ -70.4612821, 18.6556631 ], [ -70.4597276, 18.655305 ], [ -70.4589473, 18.6546775 ], [ -70.4587781, 18.6548731 ], [ -70.4585436, 18.6551618 ], [ -70.4583034, 18.655446 ], [ -70.4580232, 18.6556989 ], [ -70.4577192, 18.6559339 ], [ -70.457476, 18.6562046 ], [ -70.4573378, 18.6565412 ], [ -70.4572518, 18.65691 ], [ -70.4571607, 18.6572722 ], [ -70.4570067, 18.6575919 ], [ -70.4567297, 18.6578256 ], [ -70.4563778, 18.6580045 ], [ -70.4560375, 18.6581844 ], [ -70.4556866, 18.6583487 ], [ -70.4553418, 18.6585162 ], [ -70.4550387, 18.6587253 ], [ -70.4548133, 18.6590083 ], [ -70.4546411, 18.6593428 ], [ -70.4544602, 18.6596717 ], [ -70.4542143, 18.6599436 ], [ -70.4539054, 18.6601606 ], [ -70.4535816, 18.6603641 ], [ -70.4533818, 18.6607011 ], [ -70.453233, 18.6610411 ], [ -70.4530866, 18.6613833 ], [ -70.4529405, 18.6617244 ], [ -70.4527932, 18.6620655 ], [ -70.4526427, 18.6624055 ], [ -70.4524873, 18.6627411 ], [ -70.4523255, 18.6630732 ], [ -70.4521552, 18.663401 ], [ -70.4519573, 18.663712 ], [ -70.4516794, 18.6639796 ], [ -70.4513984, 18.6642415 ], [ -70.4512046, 18.6645468 ], [ -70.4510869, 18.6648888 ], [ -70.4510023, 18.6652475 ], [ -70.4509366, 18.665614 ], [ -70.4508749, 18.6659838 ], [ -70.4508025, 18.6663469 ], [ -70.4504108, 18.6664471 ], [ -70.4500546, 18.6665379 ], [ -70.4496971, 18.6666254 ], [ -70.4495667, 18.6666533 ], [ -70.4493696, 18.6667561 ], [ -70.4492558, 18.6668371 ], [ -70.449135, 18.6669981 ], [ -70.4490829, 18.6671659 ], [ -70.4490235, 18.6673629 ], [ -70.4490477, 18.6675082 ], [ -70.4491101, 18.6676679 ], [ -70.449188, 18.6678492 ], [ -70.4492997, 18.6680011 ], [ -70.4492302, 18.6680984 ], [ -70.4491044, 18.6681419 ], [ -70.4489903, 18.668153 ], [ -70.4488762, 18.6681749 ], [ -70.4487196, 18.6681624 ], [ -70.4486688, 18.6681516 ], [ -70.4485998, 18.6681466 ], [ -70.4485253, 18.6681472 ], [ -70.4484514, 18.6681478 ], [ -70.4483808, 18.6681926 ], [ -70.4483457, 18.6682206 ], [ -70.4482935, 18.6682767 ], [ -70.4482652, 18.6683329 ], [ -70.4482612, 18.6683951 ], [ -70.4482509, 18.668452 ], [ -70.4482282, 18.6685033 ], [ -70.4482104, 18.6685375 ], [ -70.4481838, 18.6685474 ], [ -70.4480891, 18.6685825 ], [ -70.4480226, 18.6685992 ], [ -70.4479563, 18.6685988 ], [ -70.4478902, 18.6685985 ], [ -70.4478542, 18.6686039 ], [ -70.4477764, 18.6686374 ], [ -70.4477287, 18.6686711 ], [ -70.447687, 18.6687161 ], [ -70.447621500000011, 18.6687385 ], [ -70.4475621, 18.668744 ], [ -70.4473965, 18.6686789 ], [ -70.4473745, 18.668639 ], [ -70.4473018, 18.6685932 ], [ -70.4472427, 18.6685536 ], [ -70.4471727, 18.6685308 ], [ -70.4471109, 18.6685303 ], [ -70.4470431, 18.6685297 ], [ -70.4469999, 18.6685293 ], [ -70.4469246, 18.6685066 ], [ -70.44685680000002, 18.6684952 ], [ -70.4467897, 18.6684838 ], [ -70.4467062, 18.6684832 ], [ -70.446647, 18.6684828 ], [ -70.4465841, 18.6685091 ], [ -70.446539, 18.6685462 ], [ -70.4465059, 18.668594 ], [ -70.4464848, 18.668653 ], [ -70.4464749, 18.6687015 ], [ -70.4464712, 18.6687613 ], [ -70.4464739, 18.6688326 ], [ -70.4464759, 18.6688879 ], [ -70.4464769, 18.6689152 ], [ -70.446478, 18.6689434 ], [ -70.44648, 18.6689993 ], [ -70.4464825, 18.6690668 ], [ -70.4464906, 18.6691236 ], [ -70.4465047, 18.6691921 ], [ -70.4465175, 18.6692484 ], [ -70.4465302, 18.6693101 ], [ -70.4465368, 18.6693606 ], [ -70.4465371, 18.669394 ], [ -70.4465873, 18.6695573 ], [ -70.4465879, 18.669612 ], [ -70.4465889, 18.6696942 ], [ -70.4465878, 18.6697612 ], [ -70.4465864, 18.6698394 ], [ -70.4465854, 18.669895 ], [ -70.446584, 18.6699616 ], [ -70.4465826, 18.6700281 ], [ -70.4465815, 18.6700832 ], [ -70.4465803, 18.6701383 ], [ -70.4465733, 18.6701986 ], [ -70.4465549, 18.6702424 ], [ -70.4465075, 18.6702915 ], [ -70.4464545, 18.6703404 ], [ -70.4464075, 18.6703837 ], [ -70.4463613, 18.6704054 ], [ -70.4462866, 18.670427 ], [ -70.4462409, 18.670427 ], [ -70.4461494, 18.6704162 ], [ -70.4460752, 18.6703892 ], [ -70.4460122, 18.6703783 ], [ -70.4459663, 18.6703621 ], [ -70.4458915, 18.6703456 ], [ -70.4458169, 18.6703291 ], [ -70.4457539, 18.6703182 ], [ -70.4456912, 18.6703181 ], [ -70.445545, 18.6702369 ], [ -70.4454595, 18.670199 ], [ -70.4453906, 18.6701828 ], [ -70.4453269, 18.6701775 ], [ -70.4452749, 18.6701775 ], [ -70.4452, 18.6701829 ], [ -70.4451369, 18.6701937 ], [ -70.4450798, 18.6702153 ], [ -70.4450229, 18.6702423 ], [ -70.4449588, 18.67028 ], [ -70.4448949, 18.6703175 ], [ -70.4448488, 18.670355 ], [ -70.4447971, 18.6704032 ], [ -70.4447628, 18.670446 ], [ -70.4447171, 18.670494 ], [ -70.4446946, 18.6705476 ], [ -70.4446659, 18.6705956 ], [ -70.4446308, 18.6706536 ], [ -70.4445903, 18.6706953 ], [ -70.4445845, 18.6707058 ], [ -70.4444242, 18.6707898 ], [ -70.444236700000019, 18.6709138 ], [ -70.4442085, 18.6709614 ], [ -70.4441804, 18.6710036 ], [ -70.4441578, 18.6710511 ], [ -70.4441242, 18.6711089 ], [ -70.4440962, 18.6711562 ], [ -70.4440847, 18.6712086 ], [ -70.4440733, 18.6712609 ], [ -70.4440674, 18.6712767 ], [ -70.443978700000017, 18.6714101 ], [ -70.4439368, 18.671473 ], [ -70.4438925, 18.6715238 ], [ -70.4438647, 18.6715742 ], [ -70.4438264, 18.6716142 ], [ -70.4437937, 18.6716639 ], [ -70.4437559, 18.6716985 ], [ -70.4437131, 18.6717231 ], [ -70.443654400000014, 18.6717426 ], [ -70.443596, 18.6717571 ], [ -70.443527, 18.6717569 ], [ -70.4434688, 18.6717664 ], [ -70.4433999, 18.6717662 ], [ -70.443347, 18.671766 ], [ -70.4432729, 18.6717608 ], [ -70.4432094, 18.6717557 ], [ -70.4431512, 18.6717506 ], [ -70.443098, 18.6717357 ], [ -70.4430385, 18.6716962 ], [ -70.4430003, 18.6716665 ], [ -70.4429297, 18.6716217 ], [ -70.4428855, 18.6715818 ], [ -70.4428265, 18.6715616 ], [ -70.4427923, 18.6715165 ], [ -70.4427735, 18.6714662 ], [ -70.4427287, 18.6714103 ], [ -70.4427207, 18.6713542 ], [ -70.4426921, 18.6713082 ], [ -70.4426427, 18.6712569 ], [ -70.442613600000016, 18.6711958 ], [ -70.4425949, 18.6711401 ], [ -70.4425971, 18.6710846 ], [ -70.4425727, 18.6710446 ], [ -70.4424695, 18.6709751 ], [ -70.4424209, 18.6709654 ], [ -70.4423722, 18.6709507 ], [ -70.4423182, 18.6709261 ], [ -70.4422644, 18.6709116 ], [ -70.4421999, 18.6709125 ], [ -70.4421409, 18.6709083 ], [ -70.4420823, 18.670914 ], [ -70.442029300000016, 18.6709443 ], [ -70.4419747, 18.6709681 ], [ -70.4419711, 18.6709697 ], [ -70.4419289, 18.6709899 ], [ -70.4418815, 18.6710151 ], [ -70.4418446, 18.6710302 ], [ -70.4417606, 18.6710902 ], [ -70.441463, 18.6711589 ], [ -70.4413933, 18.6711867 ], [ -70.4413615, 18.6712173 ], [ -70.4413029, 18.6712395 ], [ -70.44125, 18.6712855 ], [ -70.4412079, 18.6713358 ], [ -70.4411764, 18.671371 ], [ -70.4411291, 18.6714165 ], [ -70.4411136, 18.6714606 ], [ -70.4410875, 18.6715051 ], [ -70.4410615, 18.6715495 ], [ -70.4410407, 18.6715985 ], [ -70.4410252, 18.6716425 ], [ -70.4408848, 18.6718063 ], [ -70.4408122, 18.67191 ], [ -70.440719, 18.6720441 ], [ -70.4405965, 18.6723114 ], [ -70.4404234, 18.6726645 ], [ -70.4403256, 18.6728733 ], [ -70.4403055, 18.6730462 ], [ -70.4403, 18.6731859 ], [ -70.4402662, 18.6733272 ], [ -70.4402269, 18.6734948 ], [ -70.4401301, 18.6736072 ], [ -70.4400444, 18.6737117 ], [ -70.4399121, 18.6738563 ], [ -70.4397522, 18.6740088 ], [ -70.4397042, 18.6741458 ], [ -70.4396946, 18.6742004 ], [ -70.439670400000011, 18.6742311 ], [ -70.4396659, 18.6742367 ], [ -70.4396373, 18.6742775 ], [ -70.4395021, 18.6742993 ], [ -70.4394717, 18.6742969 ], [ -70.4394445, 18.6742947 ], [ -70.4393966, 18.67429 ], [ -70.4393439, 18.6742899 ], [ -70.4393009, 18.6743078 ], [ -70.4392579, 18.6743347 ], [ -70.4392197, 18.6743661 ], [ -70.4392082, 18.6743768 ], [ -70.4391815, 18.674402 ], [ -70.4391482, 18.6744333 ], [ -70.4391149, 18.6744601 ], [ -70.4390674, 18.6745002 ], [ -70.4390247, 18.6745358 ], [ -70.4389915, 18.6745715 ], [ -70.438949, 18.6746115 ], [ -70.4389206, 18.6746515 ], [ -70.4388923, 18.6746871 ], [ -70.438864, 18.6747315 ], [ -70.4388357, 18.6747716 ], [ -70.4387603, 18.6747218 ], [ -70.438630800000013, 18.6746433 ], [ -70.4385235, 18.6745735 ], [ -70.4382677, 18.6743134 ], [ -70.4380101, 18.6740545 ], [ -70.4377858, 18.6737332 ], [ -70.4376468, 18.6733683 ], [ -70.4375588, 18.6730268 ], [ -70.4374889, 18.6726772 ], [ -70.4374229, 18.6723275 ], [ -70.437345, 18.6719396 ], [ -70.4372762, 18.6715505 ], [ -70.4372134, 18.6711601 ], [ -70.437152, 18.6707698 ], [ -70.4370954, 18.6703783 ], [ -70.4370628, 18.6700251 ], [ -70.4370234, 18.669673 ], [ -70.4369366, 18.6692919 ], [ -70.4367816, 18.6689294 ], [ -70.4365817, 18.668583 ], [ -70.4363886, 18.6682807 ], [ -70.4362021, 18.6679749 ], [ -70.436024, 18.6676205 ], [ -70.4359301, 18.6672372 ], [ -70.4358724, 18.6668886 ], [ -70.435804, 18.6665412 ], [ -70.4357365, 18.6661939 ], [ -70.435619300000013, 18.6658187 ], [ -70.4354471, 18.6654631 ], [ -70.4352502, 18.6651156 ], [ -70.4350654, 18.6648098 ], [ -70.4348827, 18.664504 ], [ -70.4348853, 18.6643631 ], [ -70.4348896, 18.6641255 ], [ -70.4349845, 18.6637205 ], [ -70.4351337, 18.6633511 ], [ -70.4353919, 18.6630555 ], [ -70.4357145, 18.6628023 ], [ -70.4360698, 18.6625714 ], [ -70.4364293, 18.6623461 ], [ -70.4367749, 18.6621153 ], [ -70.4371255, 18.6618935 ], [ -70.4374786, 18.6616751 ], [ -70.4378298, 18.6614533 ], [ -70.4381808, 18.6612315 ], [ -70.438512, 18.6609873 ], [ -70.438816, 18.6607082 ], [ -70.439169300000017, 18.6604898 ], [ -70.4395329, 18.6602837 ], [ -70.4398557, 18.6600339 ], [ -70.4401248, 18.6597223 ], [ -70.4404102, 18.6594276 ], [ -70.4407085, 18.6591452 ], [ -70.4410083, 18.6588639 ], [ -70.4407558, 18.6585677 ], [ -70.4404536, 18.6583181 ], [ -70.4401514, 18.6580697 ], [ -70.4398489, 18.6578213 ], [ -70.4395455, 18.657574 ], [ -70.439229, 18.6573381 ], [ -70.4389127, 18.6571033 ], [ -70.4386373, 18.6568321 ], [ -70.4383971, 18.6565301 ], [ -70.4381732, 18.6562145 ], [ -70.4379575, 18.655892 ], [ -70.4377424, 18.6555695 ], [ -70.4375246, 18.6552515 ], [ -70.437309500000012, 18.6549312 ], [ -70.4372084, 18.6547791 ], [ -70.4370959, 18.6546098 ], [ -70.4368831, 18.6542873 ], [ -70.4366704, 18.6539659 ], [ -70.4362622, 18.6538416 ], [ -70.4362362, 18.6538337 ], [ -70.4362329, 18.6538356 ], [ -70.4359128, 18.6540191 ], [ -70.4355891, 18.6542046 ], [ -70.4352657, 18.65439 ], [ -70.4349423, 18.6545755 ], [ -70.4346198, 18.654762 ], [ -70.4342979, 18.6549497 ], [ -70.4339787, 18.655143 ], [ -70.433667, 18.655351 ], [ -70.4333553, 18.6555578 ], [ -70.4330352, 18.6557466 ], [ -70.4326988, 18.6558994 ], [ -70.4323428, 18.6560128 ], [ -70.4319744, 18.656100299999988 ], [ -70.4316018, 18.6561754 ], [ -70.4312324, 18.6562539 ], [ -70.430864, 18.6563369 ], [ -70.4304944, 18.6564154 ], [ -70.4301235, 18.656486 ], [ -70.4297513, 18.6565397 ], [ -70.429376500000018, 18.6565707 ], [ -70.4289977, 18.6565861 ], [ -70.4286174, 18.6565844 ], [ -70.4282389, 18.6565647 ], [ -70.4278653, 18.6565258 ], [ -70.4275032, 18.6564427 ], [ -70.4274623, 18.6564269 ], [ -70.4274548, 18.6564286 ], [ -70.4272209, 18.6564304 ], [ -70.4272173, 18.6564358 ], [ -70.4256305, 18.6566647 ], [ -70.4254019, 18.6566152 ], [ -70.4253542, 18.6564885 ], [ -70.4248707, 18.6562099 ], [ -70.4240061, 18.6562816 ], [ -70.4234651, 18.6563264 ], [ -70.4232716, 18.6560546 ], [ -70.4231654, 18.6559053 ], [ -70.422869, 18.6558722 ], [ -70.4228131, 18.6560366 ], [ -70.4227606, 18.6561906 ], [ -70.4223935, 18.6565462 ], [ -70.422098500000018, 18.6566896 ], [ -70.4215129, 18.656612 ], [ -70.421467, 18.6566059 ], [ -70.4210699, 18.6565532 ], [ -70.4205351, 18.6556429 ], [ -70.4199021, 18.655189 ], [ -70.4198689, 18.6551335 ], [ -70.4198295, 18.6550817 ], [ -70.4197845, 18.6550343 ], [ -70.4197343, 18.6549918 ], [ -70.4196797, 18.6549548 ], [ -70.4196211, 18.6549236 ], [ -70.4195594, 18.6548986 ], [ -70.4194951, 18.6548802 ], [ -70.4194292, 18.6548685 ], [ -70.4193623, 18.6548636 ], [ -70.419298, 18.6548655 ], [ -70.4192343, 18.6548737 ], [ -70.4191719, 18.6548882 ], [ -70.4191113, 18.6549088 ], [ -70.4190534, 18.6549352 ], [ -70.4189986, 18.6549673 ], [ -70.4189476, 18.6550046 ], [ -70.4189009, 18.6550467 ], [ -70.4188591, 18.6550932 ], [ -70.4188225, 18.6551437 ], [ -70.4187917, 18.6551974 ], [ -70.4182773, 18.65566 ], [ -70.4175423, 18.6563006 ], [ -70.4168059, 18.6567649 ], [ -70.4158429, 18.6567016 ], [ -70.4129897, 18.6563349 ], [ -70.4120256, 18.6561305 ], [ -70.4105404, 18.6555771 ], [ -70.4095387, 18.6553024 ], [ -70.4091269, 18.6547409 ], [ -70.4088281, 18.6544256 ], [ -70.4081619, 18.6544306 ], [ -70.4076833, 18.6547517 ], [ -70.4072785, 18.655037 ], [ -70.406652800000018, 18.6554651 ], [ -70.4059862, 18.6554348 ], [ -70.4057242, 18.655084 ], [ -70.4057213, 18.6547311 ], [ -70.4055348, 18.6545561 ], [ -70.4046841, 18.654633 ], [ -70.4041775, 18.654545 ], [ -70.4039056, 18.6544977 ], [ -70.4038152, 18.6544128 ], [ -70.403085, 18.6537276 ], [ -70.4025633, 18.6533081 ], [ -70.4023369, 18.6527806 ], [ -70.4024421, 18.6520741 ], [ -70.4025133, 18.6517208 ], [ -70.4021749, 18.6510882 ], [ -70.402172, 18.6507354 ], [ -70.4024655, 18.6504156 ], [ -70.4026098, 18.6499559 ], [ -70.4024938, 18.6493569 ], [ -70.402266, 18.648653 ], [ -70.4021503, 18.6480893 ], [ -70.4019615, 18.647632 ], [ -70.4023287, 18.6472765 ], [ -70.4022876, 18.6467828 ], [ -70.4022493, 18.6466758 ], [ -70.4022119, 18.6465717 ], [ -70.4026175, 18.6463922 ], [ -70.4029848, 18.6460366 ], [ -70.40264670000002, 18.6454394 ], [ -70.4022379, 18.6452307 ], [ -70.4018193, 18.6446238 ], [ -70.4017771, 18.644347 ], [ -70.4017214, 18.6442019 ], [ -70.4017097, 18.644105 ], [ -70.4016503, 18.6440025 ], [ -70.4014968, 18.6439824 ], [ -70.4013667, 18.6440807 ], [ -70.4012899, 18.644244 ], [ -70.4012082, 18.644393 ], [ -70.4011306, 18.6445578 ], [ -70.4011024, 18.6447259 ], [ -70.4010588, 18.6448987 ], [ -70.4009492, 18.6450279 ], [ -70.4008147, 18.6451325 ], [ -70.4006457, 18.6451837 ], [ -70.4004734, 18.6451721 ], [ -70.4003231, 18.6450745 ], [ -70.4003003, 18.6448408 ], [ -70.4003962, 18.6446634 ], [ -70.4004769, 18.6444915 ], [ -70.400495, 18.6443402 ], [ -70.4005132, 18.6441885 ], [ -70.4005429, 18.6439683 ], [ -70.4004986, 18.643835 ], [ -70.4004552, 18.6436521 ], [ -70.4004011, 18.6434878 ], [ -70.4003518, 18.6433396 ], [ -70.4002976, 18.6431774 ], [ -70.4002435, 18.6430151 ], [ -70.4001893, 18.6428515 ], [ -70.400135100000014, 18.6426878 ], [ -70.4000998, 18.642493 ], [ -70.4001359, 18.6424183 ], [ -70.4001378, 18.6423455 ], [ -70.4001428, 18.6422555 ], [ -70.4001869, 18.6421777 ], [ -70.4002208, 18.6420946 ], [ -70.4002627, 18.6420088 ], [ -70.4003178, 18.6419349 ], [ -70.400378, 18.6418754 ], [ -70.4004376, 18.6418163 ], [ -70.4005146, 18.6417847 ], [ -70.4005958, 18.6417927 ], [ -70.400662, 18.6418626 ], [ -70.4007075, 18.6419224 ], [ -70.4007394, 18.6419945 ], [ -70.4007678, 18.6420839 ], [ -70.4007989, 18.642156 ], [ -70.4008401, 18.6422331 ], [ -70.4008868, 18.6423003 ], [ -70.4009549, 18.6423529 ], [ -70.4010366, 18.6423934 ], [ -70.4011235, 18.6423997 ], [ -70.4011997, 18.6423767 ], [ -70.4012471, 18.6423061 ], [ -70.4012265, 18.6422316 ], [ -70.401202, 18.6421496 ], [ -70.401182, 18.6420824 ], [ -70.4011619, 18.642015 ], [ -70.4011484, 18.6419127 ], [ -70.4011563, 18.6418529 ], [ -70.4011776, 18.6417809 ], [ -70.4011954, 18.6416772 ], [ -70.4011891, 18.6415808 ], [ -70.4011605, 18.6414908 ], [ -70.401139, 18.6414232 ], [ -70.4011079, 18.6413254 ], [ -70.4010798, 18.6412378 ], [ -70.401049300000011, 18.6411455 ], [ -70.4010265, 18.6410787 ], [ -70.4010007, 18.6410022 ], [ -70.4009964, 18.6409894 ], [ -70.4009718, 18.6409146 ], [ -70.4009422, 18.6408247 ], [ -70.4009151, 18.6407423 ], [ -70.400888, 18.6406599 ], [ -70.4008584, 18.6405701 ], [ -70.4009061, 18.6404963 ], [ -70.4009323, 18.6404131 ], [ -70.4009399, 18.6403034 ], [ -70.4009525, 18.6402085 ], [ -70.4009698, 18.6401532 ], [ -70.4009933, 18.6400628 ], [ -70.4010115, 18.6399575 ], [ -70.4010202, 18.6399298 ], [ -70.4010573, 18.6397743 ], [ -70.4010594, 18.6396746 ], [ -70.401043700000017, 18.6396051 ], [ -70.401025600000011, 18.6395035 ], [ -70.400986, 18.6394414 ], [ -70.4008824, 18.6394233 ], [ -70.40080260000002, 18.6394474 ], [ -70.4007123, 18.6394664 ], [ -70.4006278, 18.6394509 ], [ -70.400541, 18.6394188 ], [ -70.4004833, 18.6393696 ], [ -70.4003477, 18.6393523 ], [ -70.4002552, 18.6393152 ], [ -70.4002283, 18.6392324 ], [ -70.4002411, 18.6391618 ], [ -70.4002618, 18.6390536 ], [ -70.400289, 18.6389688 ], [ -70.4003328, 18.6388891 ], [ -70.4003921, 18.6388297 ], [ -70.4004162, 18.6387735 ], [ -70.4004128, 18.638683 ], [ -70.400394, 18.6385964 ], [ -70.4003616, 18.6384979 ], [ -70.4003232, 18.6384346 ], [ -70.4002625, 18.6383508 ], [ -70.4002349, 18.6383157 ], [ -70.4001661, 18.6381998 ], [ -70.4001316, 18.638131 ], [ -70.4000894, 18.6380644 ], [ -70.4000241, 18.638027 ], [ -70.3999487, 18.6380294 ], [ -70.3998549, 18.6380504 ], [ -70.3997943, 18.638096 ], [ -70.3997803, 18.6381794 ], [ -70.3997478, 18.6382593 ], [ -70.3997308, 18.6383374 ], [ -70.3997235, 18.6384261 ], [ -70.3997242, 18.6385123 ], [ -70.3996588, 18.6385845 ], [ -70.3995811, 18.6386185 ], [ -70.3995096, 18.6386162 ], [ -70.3994555, 18.6385307 ], [ -70.399419800000018, 18.638446 ], [ -70.399354, 18.6384059 ], [ -70.3992664, 18.6384079 ], [ -70.3991917, 18.6384497 ], [ -70.3991147, 18.6384834 ], [ -70.3990431, 18.6385328 ], [ -70.399014, 18.6385511 ], [ -70.3988548, 18.6384674 ], [ -70.3987377, 18.6384289 ], [ -70.3986551, 18.6383883 ], [ -70.3985886, 18.6383182 ], [ -70.3985561, 18.6382461 ], [ -70.398529, 18.6381643 ], [ -70.3985224, 18.6380925 ], [ -70.3985239, 18.6379932 ], [ -70.3985402, 18.6379384 ], [ -70.3985717, 18.6377729 ], [ -70.3985784, 18.6376886 ], [ -70.3986059, 18.6376145 ], [ -70.3986151, 18.6375376 ], [ -70.3986272, 18.6374434 ], [ -70.3986368, 18.637342 ], [ -70.3986906, 18.6372679 ], [ -70.3987365, 18.6371963 ], [ -70.3987825, 18.6371245 ], [ -70.3988524, 18.6370696 ], [ -70.3989277, 18.6370291 ], [ -70.3989901, 18.6369763 ], [ -70.3990708, 18.6369268 ], [ -70.3991544, 18.6368843 ], [ -70.3992149, 18.6368235 ], [ -70.3992538, 18.6367776 ], [ -70.3992946, 18.63668 ], [ -70.3993049, 18.6366005 ], [ -70.3993262, 18.6365008 ], [ -70.3993634, 18.6364211 ], [ -70.3994306, 18.6363485 ], [ -70.3994783, 18.636299 ], [ -70.399549600000014, 18.6362073 ], [ -70.3996258, 18.6361561 ], [ -70.3996915, 18.6360997 ], [ -70.3997464, 18.6360132 ], [ -70.399814, 18.6359405 ], [ -70.399876, 18.6358781 ], [ -70.399925, 18.635802 ], [ -70.3999564, 18.635696 ], [ -70.3999183, 18.6356283 ], [ -70.399894, 18.6355478 ], [ -70.3998517, 18.6354745 ], [ -70.3997986, 18.6353957 ], [ -70.3997178, 18.6353422 ], [ -70.3996221, 18.6353419 ], [ -70.3995091, 18.6353747 ], [ -70.3994517, 18.6354553 ], [ -70.3993572, 18.6354558 ], [ -70.3992974, 18.635393 ], [ -70.3992712, 18.6353181 ], [ -70.3992443, 18.6352459 ], [ -70.3992298, 18.6351314 ], [ -70.3992869, 18.6350543 ], [ -70.3993356, 18.6349798 ], [ -70.399416, 18.6349115 ], [ -70.3994741, 18.6348586 ], [ -70.3995543, 18.6347806 ], [ -70.3996318, 18.6347202 ], [ -70.3997292, 18.6346365 ], [ -70.3997996, 18.6345721 ], [ -70.3998617, 18.6345102 ], [ -70.399866, 18.6344399 ], [ -70.3998567, 18.6343565 ], [ -70.399834, 18.6342599 ], [ -70.3998017, 18.6341565 ], [ -70.39977, 18.6340777 ], [ -70.3997253, 18.6339957 ], [ -70.3996908, 18.6339199 ], [ -70.3996793, 18.6339059 ], [ -70.399538, 18.6339776 ], [ -70.3991379, 18.6341308 ], [ -70.3987255, 18.6342615 ], [ -70.3983063, 18.6343606 ], [ -70.3978853, 18.6344213 ], [ -70.3974578, 18.634446 ], [ -70.3970262, 18.6344424 ], [ -70.3965932, 18.6344185 ], [ -70.3961637, 18.6343833 ], [ -70.3957393, 18.634313 ], [ -70.3953183, 18.6341976 ], [ -70.3949005, 18.6341046 ], [ -70.3942136, 18.6342408 ], [ -70.3938062, 18.6343737 ], [ -70.3933962, 18.6342977 ], [ -70.3930539, 18.6341658 ], [ -70.3926398, 18.6340582 ], [ -70.3922163, 18.6340929 ], [ -70.391689, 18.6337636 ], [ -70.3903297, 18.6340448 ], [ -70.3890282, 18.634487 ], [ -70.3884116, 18.6354109 ], [ -70.388328200000018, 18.6355335 ], [ -70.3880813, 18.6357296 ], [ -70.3878854, 18.6359355 ], [ -70.3876173, 18.6360753 ], [ -70.3872231, 18.6361629 ], [ -70.3867745, 18.6362182 ], [ -70.3863536, 18.6362355 ], [ -70.386272, 18.6362388 ], [ -70.3857875, 18.6362424 ], [ -70.385374, 18.6361765 ], [ -70.3850256, 18.6359792 ], [ -70.3822462, 18.6315579 ], [ -70.3822462, 18.6315591 ], [ -70.3822488, 18.6316949 ], [ -70.3822172, 18.6317976 ], [ -70.3821797, 18.6318986 ], [ -70.3821364, 18.6319974 ], [ -70.3820876, 18.6320939 ], [ -70.3820333, 18.6321877 ], [ -70.3819737, 18.6322784 ], [ -70.3819089, 18.632366 ], [ -70.3818482, 18.6324396 ], [ -70.381784, 18.6325104 ], [ -70.3817162, 18.6325782 ], [ -70.3816451, 18.6326428 ], [ -70.3815619, 18.6327111 ], [ -70.381475, 18.632775 ], [ -70.3813846, 18.6328344 ], [ -70.381291, 18.6328891 ], [ -70.3811945, 18.6329389 ], [ -70.3810953, 18.6329838 ], [ -70.3809938, 18.6330235 ], [ -70.3808901, 18.633058 ], [ -70.3799837, 18.6335565 ], [ -70.3795372, 18.633802 ], [ -70.3794594, 18.63383 ], [ -70.3793842, 18.6338639 ], [ -70.3793122, 18.6339035 ], [ -70.3792438, 18.6339486 ], [ -70.3791795, 18.6339988 ], [ -70.3791239, 18.6340496 ], [ -70.3790724, 18.6341043 ], [ -70.3790255, 18.6341625 ], [ -70.3789832, 18.6342239 ], [ -70.3789459, 18.6342882 ], [ -70.3789139, 18.634355 ], [ -70.3788872, 18.6344239 ], [ -70.3788646, 18.6344844 ], [ -70.3788352, 18.6345422 ], [ -70.3787994, 18.6345966 ], [ -70.3787637, 18.6346402 ], [ -70.3787238, 18.6346805 ], [ -70.3786801, 18.634717 ], [ -70.378633, 18.6347494 ], [ -70.3785829, 18.6347775 ], [ -70.3785243, 18.6348031 ], [ -70.3784633, 18.6348229 ], [ -70.3784004, 18.6348364 ], [ -70.3783363, 18.6348436 ], [ -70.3782719, 18.6348443 ], [ -70.3782077, 18.6348386 ], [ -70.3781444, 18.6348266 ], [ -70.3780829, 18.6348083 ], [ -70.3780237, 18.634784 ], [ -70.3779322, 18.6347851 ], [ -70.3777166, 18.6347845 ], [ -70.377501, 18.6347901 ], [ -70.3774999, 18.6347901 ], [ -70.3772977, 18.6348011 ], [ -70.3770948, 18.6348176 ], [ -70.3768925, 18.6348397 ], [ -70.376691, 18.6348673 ], [ -70.3764794, 18.6349022 ], [ -70.3762691, 18.6349433 ], [ -70.376057, 18.6349815 ], [ -70.3745933, 18.6352453 ], [ -70.3743148, 18.6352954 ], [ -70.374554, 18.6353764 ], [ -70.3749229, 18.6354816 ], [ -70.3753218, 18.6358026 ], [ -70.3753902, 18.6358539 ], [ -70.3754007, 18.6358618 ], [ -70.3755769, 18.635994 ], [ -70.3755809, 18.635997 ], [ -70.3756067, 18.6360164 ], [ -70.3756019, 18.6360589 ], [ -70.375567, 18.6363675 ], [ -70.375399, 18.6365982 ], [ -70.3751881, 18.6367751 ], [ -70.3748061, 18.6367914 ], [ -70.3743373, 18.6365924 ], [ -70.3737147, 18.6366105 ], [ -70.3732347, 18.6367759 ], [ -70.3731655, 18.6369653 ], [ -70.3733667, 18.6373417 ], [ -70.3738211, 18.6375273 ], [ -70.374189, 18.6375111 ], [ -70.3746436, 18.6377102 ], [ -70.3748349, 18.6377358 ], [ -70.3750262, 18.6377614 ], [ -70.3753391, 18.637948 ], [ -70.3753275, 18.6382584 ], [ -70.3751597, 18.638516 ], [ -70.375078, 18.6385788 ], [ -70.3750399, 18.638608 ], [ -70.3747517, 18.6388294 ], [ -70.374047, 18.6392124 ], [ -70.3740391, 18.6392157 ], [ -70.3734545, 18.6394596 ], [ -70.3733016, 18.6398116 ], [ -70.3732609, 18.6400278 ], [ -70.3732985, 18.6401326 ], [ -70.3733333, 18.6402296 ], [ -70.3735904, 18.6403557 ], [ -70.3736317, 18.6403759 ], [ -70.373655, 18.640381 ], [ -70.3739862, 18.6404543 ], [ -70.3745543, 18.640693 ], [ -70.3749191, 18.6407962 ], [ -70.3749457, 18.6408037 ], [ -70.3753914, 18.6409298 ], [ -70.3760872, 18.6411946 ], [ -70.3768273, 18.6417019 ], [ -70.3771141, 18.6421586 ], [ -70.3774155, 18.6426692 ], [ -70.3775084, 18.6429535 ], [ -70.37751830000002, 18.6429839 ], [ -70.3775606, 18.6431134 ], [ -70.37755, 18.6435453 ], [ -70.377214100000018, 18.64402 ], [ -70.3767645, 18.6444416 ], [ -70.3767051, 18.6445059 ], [ -70.3762874, 18.6449579 ], [ -70.3759511, 18.6453922 ], [ -70.375559, 18.6459213 ], [ -70.3754232, 18.6466375 ], [ -70.3757122, 18.647364 ], [ -70.3761275, 18.647865 ], [ -70.3762125, 18.6479676 ], [ -70.3768829, 18.6485969 ], [ -70.3770581, 18.6492568 ], [ -70.376724, 18.6499609 ], [ -70.3760504, 18.6506811 ], [ -70.3757893, 18.6509289 ], [ -70.3753198, 18.6513746 ], [ -70.3748017, 18.6520801 ], [ -70.3745405, 18.6531758 ], [ -70.3745278, 18.6532291 ], [ -70.3745466, 18.6536825 ], [ -70.374563, 18.6540789 ], [ -70.374753, 18.6548197 ], [ -70.3748454, 18.6557501 ], [ -70.3751762, 18.6563954 ], [ -70.3755078, 18.6571351 ], [ -70.3755376, 18.657311 ], [ -70.375597, 18.6576607 ], [ -70.3755176, 18.6583495 ], [ -70.3747502, 18.659745 ], [ -70.3743362, 18.6600673 ], [ -70.3740327, 18.6603035 ], [ -70.3738407, 18.6603855 ], [ -70.3734542, 18.6605506 ], [ -70.3725695, 18.6614342 ], [ -70.3721089, 18.6622607 ], [ -70.37135, 18.6629544 ], [ -70.3702896, 18.66334 ], [ -70.3697972, 18.663519 ], [ -70.3684449, 18.6643655 ], [ -70.3676704, 18.6649204 ], [ -70.3674174, 18.6651016 ], [ -70.3661116, 18.6664605 ], [ -70.3659649, 18.6675951 ], [ -70.3663542, 18.6684694 ], [ -70.3662884, 18.6690906 ], [ -70.365798, 18.6697284 ], [ -70.3657996, 18.6699371 ], [ -70.3658008, 18.6700792 ], [ -70.3660584, 18.6704282 ], [ -70.3666854, 18.6709364 ], [ -70.3672557, 18.6714315 ], [ -70.3673735, 18.6719974 ], [ -70.3672081, 18.6721769 ], [ -70.3671106, 18.6722827 ], [ -70.3669103, 18.6725 ], [ -70.3664312, 18.6727734 ], [ -70.3656668, 18.6727924 ], [ -70.3649538, 18.6721634 ], [ -70.3643973, 18.6716142 ], [ -70.3639417, 18.6712937 ], [ -70.363513, 18.6710826 ], [ -70.3634015, 18.6710277 ], [ -70.3629922, 18.6711791 ], [ -70.3625207, 18.672424 ], [ -70.3622482, 18.6737484 ], [ -70.3622713, 18.6748682 ], [ -70.36229560000001, 18.6761365 ], [ -70.3618245, 18.6774353 ], [ -70.3617292, 18.6783269 ], [ -70.3617192, 18.6784211 ], [ -70.3616221, 18.6786782 ], [ -70.3614395, 18.6786961 ], [ -70.361325, 18.6787073 ], [ -70.3612691, 18.6788714 ], [ -70.361242, 18.6789508 ], [ -70.361329, 18.6792066 ], [ -70.3612182, 18.6795178 ], [ -70.3609767, 18.6794116 ], [ -70.3608514, 18.6796823 ], [ -70.3607964, 18.6798852 ], [ -70.3605276, 18.6799141 ], [ -70.3603459, 18.6802123 ], [ -70.3602348, 18.680483 ], [ -70.360080600000018, 18.680673 ], [ -70.3598273, 18.6808772 ], [ -70.359716, 18.6811209 ], [ -70.3594064, 18.6813526 ], [ -70.3592942, 18.6813953 ], [ -70.3583171, 18.681767 ], [ -70.3577855, 18.6824426 ], [ -70.3579098, 18.6837197 ], [ -70.3579317, 18.6839448 ], [ -70.3582373, 18.6843904 ], [ -70.3587435, 18.6847386 ], [ -70.359384, 18.6850858 ], [ -70.3598689, 18.6853958 ], [ -70.359943, 18.6854431 ], [ -70.3599842, 18.6854695 ], [ -70.3600136, 18.6854883 ], [ -70.3600164, 18.6854901 ], [ -70.3601261, 18.6855602 ], [ -70.3605334, 18.686133 ], [ -70.3603725, 18.6869978 ], [ -70.360061, 18.6881675 ], [ -70.3600618, 18.6882583 ], [ -70.3600638, 18.688508 ], [ -70.3600926, 18.6886033 ], [ -70.360255400000014, 18.6891417 ], [ -70.3605961, 18.6897789 ], [ -70.3606668, 18.6902262 ], [ -70.360646800000012, 18.6903125 ], [ -70.360604, 18.690497 ], [ -70.3604523, 18.6911506 ], [ -70.3603099, 18.6917641 ], [ -70.3602896, 18.6918969 ], [ -70.3602611, 18.6919452 ], [ -70.3601826, 18.6920439 ], [ -70.3600742, 18.6921804 ], [ -70.3597932, 18.6924523 ], [ -70.3594924, 18.6926164 ], [ -70.359486, 18.6926418 ], [ -70.3592944, 18.69273 ], [ -70.3583743, 18.6931535 ], [ -70.3579023, 18.6934176 ], [ -70.357689, 18.693745 ], [ -70.3576551, 18.6940568 ], [ -70.3578145, 18.694501 ], [ -70.3580916, 18.6955865 ], [ -70.358368, 18.696576 ], [ -70.3586916, 18.6976136 ], [ -70.3586831, 18.69766 ], [ -70.3586472, 18.6978942 ], [ -70.3585579, 18.6981738 ], [ -70.3584379, 18.6982491 ], [ -70.358388, 18.6984626 ], [ -70.3583886, 18.6985346 ], [ -70.3584464, 18.6986781 ], [ -70.358504, 18.6988036 ], [ -70.3586184, 18.6989467 ], [ -70.3588274, 18.6991072 ], [ -70.3588852, 18.6992507 ], [ -70.3588846, 18.6992521 ], [ -70.3588929, 18.699259 ], [ -70.3590638, 18.6996416 ], [ -70.3589851, 18.7014803 ], [ -70.3589789, 18.7016253 ], [ -70.3589504, 18.7017619 ], [ -70.3587849, 18.7025543 ], [ -70.3579991, 18.703146 ], [ -70.3579538, 18.7032788 ], [ -70.3578561, 18.7034527 ], [ -70.3576429, 18.7051268 ], [ -70.3576666, 18.705152 ], [ -70.3576688, 18.7054219 ], [ -70.3577103, 18.7058894 ], [ -70.3577124, 18.7061593 ], [ -70.3577521, 18.7063929 ], [ -70.3581335, 18.7068759 ], [ -70.3584369, 18.7070356 ], [ -70.3587606, 18.7073751 ], [ -70.3589049, 18.7076183 ], [ -70.358952, 18.7076976 ], [ -70.3588982, 18.7080578 ], [ -70.3586366, 18.7084015 ], [ -70.3581106, 18.7087292 ], [ -70.3580758, 18.7087348 ], [ -70.3579637, 18.7088856 ], [ -70.3574003, 18.7094624 ], [ -70.3572014, 18.7096658 ], [ -70.3566886, 18.7101904 ], [ -70.3565177, 18.710405099999988 ], [ -70.3552686, 18.711974 ], [ -70.3543927, 18.713216 ], [ -70.353347500000012, 18.7144784 ], [ -70.3529295, 18.71494 ], [ -70.3515947, 18.7170629 ], [ -70.3506335, 18.718205 ], [ -70.3493689, 18.7200754 ], [ -70.3491626, 18.7208876 ], [ -70.3483662, 18.7220449 ], [ -70.3473344, 18.7231718 ], [ -70.3466023, 18.7239767 ], [ -70.3461676, 18.7242037 ], [ -70.3451674, 18.7250745 ], [ -70.3447681, 18.7255252 ], [ -70.3441254, 18.7258372 ], [ -70.3440324, 18.7258823 ], [ -70.3439413, 18.7259385 ], [ -70.3439362, 18.7259382 ], [ -70.3439022, 18.7259362 ], [ -70.3436378, 18.7259381 ], [ -70.3442152, 18.7262152 ], [ -70.3448237, 18.7264933 ], [ -70.3452828, 18.7266312 ], [ -70.3457145, 18.7266922 ], [ -70.3461864, 18.7267402 ], [ -70.3468735, 18.7267353 ], [ -70.3474998, 18.7267269 ], [ -70.3483542, 18.7269239 ], [ -70.3496928, 18.727676 ], [ -70.3500851, 18.7277902 ], [ -70.3514393, 18.7281843 ], [ -70.3524175, 18.7284689 ], [ -70.3551407, 18.7290587 ], [ -70.3561532, 18.7290514 ], [ -70.3562051, 18.7289866 ], [ -70.3572186, 18.7289421 ], [ -70.3592993, 18.7291809 ], [ -70.3618118, 18.7300768 ], [ -70.3637399, 18.7312308 ], [ -70.3644818, 18.7312759 ], [ -70.3644866, 18.7312762 ], [ -70.3655513, 18.7311161 ], [ -70.366883, 18.7310048 ], [ -70.3685073, 18.7314433 ], [ -70.3707293, 18.7320431 ], [ -70.3723297, 18.7325115 ], [ -70.3738134, 18.7334149 ], [ -70.3745184, 18.7338669 ], [ -70.3754054, 18.7340011 ], [ -70.3769936, 18.7341301 ], [ -70.3779553, 18.7343692 ], [ -70.3786591, 18.7346805 ], [ -70.3790694, 18.735205 ], [ -70.3795433, 18.7357533 ], [ -70.3797401, 18.7359737 ], [ -70.3800768, 18.7365339 ], [ -70.3801558, 18.7371664 ], [ -70.3802342, 18.7377285 ], [ -70.3803489, 18.73822 ], [ -70.3806124, 18.738851 ], [ -70.3811332, 18.7397876 ], [ -70.381725300000014, 18.7404943 ], [ -70.3824252, 18.7413524 ], [ -70.3834446, 18.7421575 ], [ -70.38425, 18.7428625 ], [ -70.3854805, 18.743412 ], [ -70.3866565, 18.7438096 ], [ -70.3874607, 18.7443623 ], [ -70.3877896, 18.7445798 ], [ -70.3883718, 18.7449649 ], [ -70.3888049, 18.7457743 ], [ -70.388997, 18.7458494 ], [ -70.3891055, 18.7473433 ], [ -70.3889814, 18.7478044 ], [ -70.3888265, 18.748415 ], [ -70.3887782, 18.7490247 ], [ -70.3884625, 18.7495349 ], [ -70.3886295, 18.750397 ], [ -70.3894857, 18.750797 ], [ -70.39050060000001, 18.7510434 ], [ -70.3911411, 18.7511402 ], [ -70.3921048, 18.7516408 ], [ -70.3931234, 18.7523443 ], [ -70.3938181, 18.7525422 ], [ -70.3946718, 18.7526374 ], [ -70.3956061, 18.753004 ], [ -70.3963864, 18.7536911 ], [ -70.3967113, 18.7542981 ], [ -70.3971969, 18.7550055 ], [ -70.3976279, 18.7555609 ], [ -70.3984809, 18.7555545 ], [ -70.3999172, 18.7551883 ], [ -70.40156850000001, 18.7550236 ], [ -70.4030078, 18.7550128 ], [ -70.4049226, 18.7544905 ], [ -70.4064677, 18.7543774 ], [ -70.4075338, 18.7543693 ], [ -70.4082831, 18.7547192 ], [ -70.4087675, 18.7552742 ], [ -70.4089358, 18.7562886 ], [ -70.409016100000017, 18.7571895 ], [ -70.4090534, 18.7576081 ], [ -70.409167600000018, 18.7585214 ], [ -70.4091748, 18.7593847 ], [ -70.4094519, 18.7606522 ], [ -70.4099913, 18.7614099 ], [ -70.4103983, 18.7615357 ], [ -70.4103865, 18.7615779 ], [ -70.4103751, 18.7616191 ], [ -70.4111662, 18.761655 ], [ -70.4120716, 18.7615466 ], [ -70.412763400000017, 18.761389 ], [ -70.4138799, 18.761025 ], [ -70.4147303, 18.7607139 ], [ -70.4154208, 18.760404 ], [ -70.4161112, 18.760094 ], [ -70.417204, 18.7588705 ], [ -70.418594, 18.7574787 ], [ -70.419504100000012, 18.756505 ], [ -70.4207042, 18.755529 ], [ -70.4234991, 18.7545409 ], [ -70.4256196, 18.7538341 ], [ -70.4282277, 18.7536301 ], [ -70.4316118, 18.7537423 ], [ -70.4341391, 18.7554265 ], [ -70.4344616, 18.7557077 ], [ -70.4351096, 18.7561324 ], [ -70.4361442, 18.7565542 ], [ -70.4362788, 18.7572284 ], [ -70.436284, 18.7578422 ], [ -70.4368707, 18.7586358 ], [ -70.4370692, 18.7592481 ], [ -70.437459, 18.7596134 ], [ -70.4381091, 18.7602837 ], [ -70.4386958, 18.7610772 ], [ -70.4389582, 18.7616277 ], [ -70.4394742, 18.7616851 ], [ -70.4399923, 18.761988 ], [ -70.4404476, 18.7624756 ], [ -70.4408673, 18.762869 ], [ -70.4413565, 18.7632666 ], [ -70.441939, 18.7635691 ], [ -70.4425206, 18.7637488 ], [ -70.4428407, 18.7637361 ], [ -70.4432197, 18.7638642 ], [ -70.4436923, 18.7640332 ], [ -70.4440554, 18.7640995 ], [ -70.4448906, 18.7642657 ], [ -70.4454717, 18.7643993 ], [ -70.4460908, 18.7647398 ], [ -70.4463667, 18.7650687 ], [ -70.446371, 18.7650739 ], [ -70.446382, 18.7650869 ], [ -70.4463827, 18.7650878 ], [ -70.4464937, 18.7652201 ], [ -70.4465357, 18.7652693 ], [ -70.4467866, 18.7655632 ], [ -70.4471885, 18.7659399 ], [ -70.447663, 18.766316 ], [ -70.4477396, 18.7667989 ], [ -70.4477069, 18.7672135 ], [ -70.4474546, 18.7673881 ], [ -70.4474579, 18.7677679 ], [ -70.447714, 18.7680421 ], [ -70.4481507, 18.7682459 ], [ -70.4487316, 18.768345 ], [ -70.4490216, 18.7683428 ], [ -70.4494589, 18.7686156 ], [ -70.4495715, 18.7690636 ], [ -70.4497919, 18.7694072 ], [ -70.4502301, 18.7697837 ], [ -70.4505959, 18.7701606 ], [ -70.451576, 18.7703257 ], [ -70.4522016, 18.7704775 ], [ -70.4532502, 18.7703159 ], [ -70.4532755, 18.7703336 ], [ -70.4533763, 18.7703828 ], [ -70.4534802, 18.7704259 ], [ -70.4535867, 18.7704628 ], [ -70.4536955, 18.7704933 ], [ -70.4538038, 18.7705168 ], [ -70.4539134, 18.7705339 ], [ -70.454024, 18.7705447 ], [ -70.454135, 18.7705489 ], [ -70.4542461, 18.7705467 ], [ -70.4543568, 18.770538 ], [ -70.4544668, 18.7705228 ], [ -70.4545755, 18.7705012 ], [ -70.4546827, 18.7704734 ], [ -70.4547879, 18.7704393 ], [ -70.4548907, 18.7703992 ], [ -70.4549864, 18.7703553 ], [ -70.4550792, 18.7703061 ], [ -70.4551688, 18.7702519 ], [ -70.455255, 18.7701927 ], [ -70.4553196, 18.7701447 ], [ -70.4553811, 18.7700931 ], [ -70.4554394, 18.7700381 ], [ -70.4554877, 18.7699872 ], [ -70.4555332, 18.7699339 ], [ -70.4556145, 18.7698219 ], [ -70.4557116, 18.7696979 ], [ -70.4558135, 18.7695775 ], [ -70.4559201, 18.7694608 ], [ -70.4560313, 18.7693481 ], [ -70.4561469, 18.7692395 ], [ -70.4562668, 18.7691351 ], [ -70.4563907, 18.7690351 ], [ -70.4565185, 18.7689397 ], [ -70.4566366, 18.7688578 ], [ -70.4567575, 18.7687798 ], [ -70.4569234, 18.7686765 ], [ -70.457092, 18.7685774 ], [ -70.4572633, 18.7684825 ], [ -70.4574372, 18.768392 ], [ -70.4576401, 18.7682934 ], [ -70.457846, 18.7682008 ], [ -70.4580547, 18.7681141 ], [ -70.4582661, 18.7680336 ], [ -70.45848, 18.7679591 ], [ -70.4586961, 18.7678909 ], [ -70.4588175, 18.7678565 ], [ -70.4589143, 18.767829 ], [ -70.4591344, 18.7677734 ], [ -70.4593562, 18.7677242 ], [ -70.4595794, 18.7676814 ], [ -70.4598039, 18.7676451 ], [ -70.4598599, 18.7676371 ], [ -70.459923, 18.7676223 ], [ -70.4599843, 18.7676016 ], [ -70.4600431, 18.7675752 ], [ -70.4600989, 18.7675434 ], [ -70.4601512, 18.7675065 ], [ -70.4601993, 18.7674649 ], [ -70.4602429, 18.7674189 ], [ -70.4602815, 18.7673691 ], [ -70.4603147, 18.7673158 ], [ -70.4603423, 18.7672597 ], [ -70.4603639, 18.7672013 ], [ -70.4603793, 18.7671412 ], [ -70.4603874, 18.7670897 ], [ -70.4603886, 18.7670384 ], [ -70.4604076, 18.7669844 ], [ -70.460432, 18.7669323 ], [ -70.4604614, 18.7668826 ], [ -70.4604956, 18.7668358 ], [ -70.4605239, 18.7668041 ], [ -70.4605343, 18.7667924 ], [ -70.4605772, 18.7667526 ], [ -70.4606239, 18.7667169 ], [ -70.4606639, 18.7666913 ], [ -70.4607059, 18.7666687 ], [ -70.4607496, 18.7666492 ], [ -70.4607962, 18.7666247 ], [ -70.4608417, 18.7665984 ], [ -70.4609192, 18.7665478 ], [ -70.4609928, 18.7664922 ], [ -70.4610109, 18.7664764 ], [ -70.4610621, 18.7664317 ], [ -70.4611268, 18.7663667 ], [ -70.4611864, 18.7662975 ], [ -70.4612408, 18.7662245 ], [ -70.4612896, 18.766148 ], [ -70.4613279, 18.7660778 ], [ -70.4613615, 18.7660055 ], [ -70.4613893, 18.7659343 ], [ -70.4614592, 18.765755 ], [ -70.4616156, 18.7653539 ], [ -70.4616624, 18.7652488 ], [ -70.4616816, 18.7651995 ], [ -70.4617055, 18.7651521 ], [ -70.4617374, 18.7651018 ], [ -70.4617745, 18.7650549 ], [ -70.4618165, 18.7650118 ], [ -70.4618629, 18.7649731 ], [ -70.4619132, 18.7649391 ], [ -70.4619669, 18.7649101 ], [ -70.4620234, 18.7648866 ], [ -70.4620821, 18.7648686 ], [ -70.4621425, 18.7648565 ], [ -70.4622038, 18.7648503 ], [ -70.4622655, 18.7648501 ], [ -70.4624277, 18.7648475 ], [ -70.4625896, 18.7648384 ], [ -70.462751, 18.764823 ], [ -70.4629115, 18.7648011 ], [ -70.463071, 18.7647728 ], [ -70.4632291, 18.7647382 ], [ -70.4633754, 18.7647002 ], [ -70.463403, 18.764692 ], [ -70.463520100000011, 18.7646568 ], [ -70.4636628, 18.764608 ], [ -70.4638035, 18.764554 ], [ -70.463857, 18.76453 ], [ -70.4639116, 18.7645082 ], [ -70.4640054, 18.7644767 ], [ -70.4641014, 18.7644518 ], [ -70.464199, 18.7644336 ], [ -70.4642978, 18.7644222 ], [ -70.4643971, 18.7644176 ], [ -70.4644966, 18.76442 ], [ -70.4645956, 18.7644292 ], [ -70.4646936, 18.7644452 ], [ -70.4647901, 18.764468 ], [ -70.4648847, 18.7644974 ], [ -70.4649367, 18.7645167 ], [ -70.4649403, 18.7645182 ], [ -70.4649878, 18.764538 ], [ -70.4650407, 18.7645514 ], [ -70.4650946, 18.7645604 ], [ -70.4651492, 18.7645649 ], [ -70.46520390000002, 18.7645649 ], [ -70.4652459, 18.7645618 ], [ -70.4652876, 18.764556 ], [ -70.4659328, 18.7649401 ], [ -70.4662603, 18.7655514 ], [ -70.4662022, 18.7662885 ], [ -70.4660808, 18.7671488 ], [ -70.4660882, 18.7680082 ], [ -70.4662209, 18.7686724 ], [ -70.4662229, 18.7686824 ], [ -70.4666154, 18.7693545 ], [ -70.4668683, 18.7698266 ], [ -70.4670739, 18.7702104 ], [ -70.467271, 18.7706385 ], [ -70.4675958, 18.7709429 ], [ -70.4681795, 18.771368 ], [ -70.4686977, 18.7716709 ], [ -70.4696047, 18.7722162 ], [ -70.4703801, 18.7724557 ], [ -70.4714793, 18.7728767 ], [ -70.4726441, 18.77342 ], [ -70.4732267, 18.7737223 ], [ -70.47376060000002, 18.7737181 ], [ -70.4738711, 18.7737173 ], [ -70.4745155, 18.7737122 ], [ -70.4753533, 18.7737056 ], [ -70.4759311, 18.7734555 ], [ -70.476509, 18.7732053 ], [ -70.4765625, 18.7732049 ], [ -70.4771534, 18.7732003 ], [ -70.4783133, 18.7731911 ], [ -70.4792794, 18.7731221 ], [ -70.47937730000001, 18.7731057 ], [ -70.4796655, 18.7730576 ], [ -70.480761, 18.7730489 ], [ -70.4814672, 18.7727364 ], [ -70.4822833, 18.7727299 ], [ -70.4824983, 18.7727282 ], [ -70.4835293, 18.77272 ], [ -70.4848187, 18.7727712 ], [ -70.485788500000012, 18.7731318 ], [ -70.4865634, 18.7733098 ], [ -70.4877878, 18.7733 ], [ -70.4883667, 18.7731727 ], [ -70.4890106, 18.7731062 ], [ -70.4902994, 18.7730959 ], [ -70.491136, 18.7729664 ], [ -70.4919082, 18.7728375 ], [ -70.4928738, 18.772707 ], [ -70.4940337, 18.7726977 ], [ -70.4940447, 18.7726956 ], [ -70.494677, 18.7725698 ], [ -70.4957709, 18.7723769 ], [ -70.4966086, 18.7723702 ], [ -70.4970597, 18.7723666 ], [ -70.497852600000016, 18.7723602 ], [ -70.4980465, 18.7723587 ], [ -70.4980766, 18.7723585 ], [ -70.4989587, 18.7723514 ], [ -70.4990765, 18.7723504 ], [ -70.4992578, 18.772349 ], [ -70.5008617, 18.7723361 ], [ -70.5019824, 18.7722626 ], [ -70.502347, 18.7726234 ], [ -70.5033568, 18.7739819 ], [ -70.5039275, 18.7745228 ], [ -70.5040514, 18.7747099 ], [ -70.5043049, 18.7750924 ], [ -70.5043439, 18.7751508 ], [ -70.505138, 18.7765799 ], [ -70.5057319, 18.7777927 ], [ -70.5063479, 18.7785941 ], [ -70.5066678, 18.7790027 ], [ -70.5068902, 18.779266 ], [ -70.5076328, 18.7801458 ], [ -70.5082949, 18.7806532 ], [ -70.5090222, 18.7814562 ], [ -70.5093511, 18.7818192 ], [ -70.5104261, 18.7832878 ], [ -70.5112139, 18.7846074 ], [ -70.5119759, 18.7862163 ], [ -70.5125869, 18.7876085 ], [ -70.5128002, 18.7881184 ], [ -70.5135832, 18.7894176 ], [ -70.514246, 18.7913718 ], [ -70.5147511, 18.7923571 ], [ -70.5152142, 18.793249 ], [ -70.515937, 18.7939479 ], [ -70.516526, 18.7942028 ], [ -70.5176371, 18.7944016 ], [ -70.518653, 18.7944543 ], [ -70.519143, 18.7945452 ], [ -70.5210852, 18.795442 ], [ -70.5217892, 18.7953301 ], [ -70.5224321, 18.7947195 ], [ -70.5230672, 18.794171 ], [ -70.5238212, 18.7938871 ], [ -70.5246993, 18.7935783 ], [ -70.5258112, 18.7932677 ], [ -70.5271371, 18.7929553 ], [ -70.5280261, 18.7929107 ], [ -70.5286602, 18.7929745 ], [ -70.5292403, 18.7931899 ], [ -70.5302232, 18.7938008 ], [ -70.5311731, 18.7943543 ], [ -70.5320242, 18.7948466 ], [ -70.5330443, 18.7953261 ], [ -70.5341593, 18.79585 ], [ -70.5350561, 18.7960471 ], [ -70.5363443, 18.7963753 ], [ -70.5374022, 18.7964208 ], [ -70.5377179, 18.7964555 ], [ -70.5388923, 18.796587 ], [ -70.5401554, 18.7968995 ], [ -70.5408711, 18.7969419 ], [ -70.5408922, 18.7969432 ], [ -70.5422962, 18.7968017 ], [ -70.5433923, 18.7965125 ], [ -70.5443853, 18.7961429 ], [ -70.5447574, 18.7953594 ], [ -70.5451952, 18.79438 ], [ -70.5451602, 18.7930814 ], [ -70.5450315, 18.7917408 ], [ -70.5444813, 18.7907435 ], [ -70.5436602, 18.7896763 ], [ -70.5429574, 18.7889728 ], [ -70.5421363, 18.7878027 ], [ -70.5415042, 18.786822 ], [ -70.5405732, 18.7849187 ], [ -70.5395883, 18.78327 ], [ -70.5393272, 18.7818107 ], [ -70.5393994, 18.7808196 ], [ -70.5396972, 18.7799881 ], [ -70.5396985, 18.7799865 ], [ -70.5397648, 18.7799059 ], [ -70.5396751, 18.7799132 ], [ -70.5395987, 18.7796744 ], [ -70.5395232, 18.7792516 ], [ -70.5391422, 18.7789243 ], [ -70.5386617, 18.7788622 ], [ -70.5381821, 18.7787555 ], [ -70.5380244, 18.7783732 ], [ -70.5378013, 18.7779819 ], [ -70.5374744, 18.7776406 ], [ -70.537256900000017, 18.7771954 ], [ -70.5374286, 18.7767922 ], [ -70.5378664, 18.7766237 ], [ -70.5377971, 18.7762445 ], [ -70.5375227, 18.7757803 ], [ -70.5374035, 18.7754125 ], [ -70.5377549, 18.7751987 ], [ -70.5380964, 18.775035 ], [ -70.5382308, 18.7746621 ], [ -70.5382067, 18.7742744 ], [ -70.5382347, 18.7738772 ], [ -70.5382692, 18.7734737 ], [ -70.5381461, 18.7730182 ], [ -70.5380232, 18.7725636 ], [ -70.5380028, 18.7724457 ], [ -70.5379447, 18.7721095 ], [ -70.5375933, 18.7720297 ], [ -70.5370602, 18.7721168 ], [ -70.5366628, 18.7720371 ], [ -70.5363168, 18.771667 ], [ -70.5361157, 18.7712523 ], [ -70.5357606, 18.77109 ], [ -70.5352912, 18.770678 ], [ -70.5349096, 18.7703896 ], [ -70.5344442, 18.7703525 ], [ -70.5339647, 18.7705166 ], [ -70.5335807, 18.770351 ], [ -70.5335193, 18.7702549 ], [ -70.5333182, 18.7699402 ], [ -70.5332112, 18.7694067 ], [ -70.5333906, 18.7689953 ], [ -70.5336219, 18.7686643 ], [ -70.5338037, 18.7684634 ], [ -70.5339219, 18.7683328 ], [ -70.5340388, 18.7678756 ], [ -70.5340212, 18.7674165 ], [ -70.5337137, 18.7671251 ], [ -70.5333098, 18.7673729 ], [ -70.5332793, 18.7673758 ], [ -70.532845, 18.7674165 ], [ -70.5324886, 18.7672091 ], [ -70.531930300000013, 18.7675147 ], [ -70.5316301, 18.7678195 ], [ -70.5312434, 18.7678832 ], [ -70.5307255, 18.7680786 ], [ -70.5303697, 18.7684345 ], [ -70.5301024, 18.7684538 ], [ -70.5294787, 18.7684479 ], [ -70.5291308, 18.7683617 ], [ -70.5285235, 18.7681057 ], [ -70.5282655, 18.7677687 ], [ -70.5280872, 18.7672806 ], [ -70.5282524, 18.7668839 ], [ -70.5285512, 18.7665246 ], [ -70.5289382, 18.7662063 ], [ -70.5291146, 18.765832 ], [ -70.5292912, 18.765457 ], [ -70.5295526, 18.7651289 ], [ -70.5299005, 18.7647201 ], [ -70.5301273, 18.7642923 ], [ -70.5304329, 18.7639221 ], [ -70.5309067, 18.7639409 ], [ -70.5313869, 18.7639918 ], [ -70.5318234, 18.764005 ], [ -70.5322623, 18.7638069 ], [ -70.532529, 18.7634257 ], [ -70.5326216, 18.7631613 ], [ -70.5326633, 18.7630423 ], [ -70.5324428, 18.7626261 ], [ -70.5322229, 18.7623326 ], [ -70.5317839, 18.7620362 ], [ -70.5315134, 18.7616717 ], [ -70.5310454, 18.76152 ], [ -70.5310213, 18.7615122 ], [ -70.5305811, 18.761383 ], [ -70.5303196, 18.7611276 ], [ -70.5299791, 18.7606989 ], [ -70.5299511, 18.760353 ], [ -70.5299417, 18.7602361 ], [ -70.5302398, 18.7598675 ], [ -70.5305455, 18.7595354 ], [ -70.5308948, 18.7592033 ], [ -70.5311596, 18.758827 ], [ -70.5317237, 18.758833 ], [ -70.5321651, 18.7587935 ], [ -70.532479, 18.7584975 ], [ -70.5327473, 18.7581177 ], [ -70.5328366, 18.7576958 ], [ -70.5328382, 18.7571902 ], [ -70.5328406, 18.7567291 ], [ -70.5330644, 18.7562696 ], [ -70.5334636, 18.7559749 ], [ -70.5339079, 18.7557617 ], [ -70.5343534, 18.7558008 ], [ -70.5348463, 18.7558798 ], [ -70.5352033, 18.7556271 ], [ -70.5352902, 18.7551251 ], [ -70.5357322, 18.7549201 ], [ -70.536173, 18.7548832 ], [ -70.5365809, 18.7551697 ], [ -70.5369414, 18.7554618 ], [ -70.5373904, 18.7555447 ], [ -70.5377978, 18.7553727 ], [ -70.5380692, 18.7549902 ], [ -70.538431, 18.754734 ], [ -70.5388344, 18.7544376 ], [ -70.5392372, 18.7542262 ], [ -70.539723, 18.7541883 ], [ -70.5399025, 18.7546536 ], [ -70.5398876, 18.7548499 ], [ -70.5398675, 18.7551147 ], [ -70.5397418, 18.7555352 ], [ -70.539809500000018, 18.7557044 ], [ -70.539928, 18.7560004 ], [ -70.5403404, 18.7561261 ], [ -70.5408385, 18.7562109 ], [ -70.5413285, 18.7560422 ], [ -70.5414745, 18.7556562 ], [ -70.5415654, 18.7551446 ], [ -70.5415588, 18.7546785 ], [ -70.5418449, 18.7545706 ], [ -70.5418442, 18.7544974 ], [ -70.5417955, 18.7543268 ], [ -70.5422284, 18.7541975 ], [ -70.5427152, 18.7534537 ], [ -70.5427914, 18.7524806 ], [ -70.5429534, 18.7517169 ], [ -70.5431846, 18.7513626 ], [ -70.5437523, 18.750494 ], [ -70.5451742, 18.7500542 ], [ -70.5469655, 18.7497164 ], [ -70.5487973, 18.7494719 ], [ -70.5505603, 18.7489965 ], [ -70.5514613, 18.7487044 ], [ -70.5523355, 18.7482737 ], [ -70.5536083, 18.7476058 ], [ -70.5547864, 18.7468935 ], [ -70.556015500000015, 18.7454998 ], [ -70.5570474, 18.7437767 ], [ -70.5579344, 18.7423858 ], [ -70.559222, 18.7408431 ] ] ] ] } }
]
}
