{"type": "FeatureCollection", "features": [{"type": "Feature", "properties": {"kind": "switchback", "zone": 1, "length_m": 1160, "gain_m": 72.3, "mean_grade_pct": 7.8, "max_grade_pct": 12.6, "pct_off_own_land": 57}, "geometry": {"type": "LineString", "coordinates": [[-70.4585076401623, 18.721086112759988], [-70.45860323928122, 18.72117572450372], [-70.45869883850084, 18.72126533619094], [-70.45879443782111, 18.721354947821645], [-70.45889003724206, 18.72144455939584], [-70.4589856367637, 18.721534170913532], [-70.45889081237722, 18.721534909500065], [-70.45898641195363, 18.721624521013023], [-70.45889158751682, 18.72162525960338], [-70.45898718714798, 18.72171487111162], [-70.45889236266083, 18.72171560970579], [-70.45898796234677, 18.72180522120931], [-70.45889313780928, 18.721805959807305], [-70.45879831326735, 18.72180669835734], [-70.45889391296215, 18.72189630990792], [-70.4587990883699, 18.721897048461773], [-70.45889468811947, 18.72198666000763], [-70.45899028796971, 18.722076271496977], [-70.45908588792064, 18.722165882929815], [-70.45918148797226, 18.722255494306136], [-70.45927631274816, 18.722254755545123], [-70.45937113751962, 18.72225401673614], [-70.45946596228666, 18.72225327787919], [-70.45956078704926, 18.722252538974274], [-70.45965483623411, 18.722161449954964], [-70.45974888531826, 18.72207036089443], [-70.45984293430175, 18.721979271792677], [-70.4599377588956, 18.721978532707357], [-70.45993853461108, 18.722068882764113], [-70.46003335925083, 18.722068143627], [-70.4600341350211, 18.722158493679032], [-70.46012895970675, 18.722157754490127], [-70.46022378438799, 18.72215701525326], [-70.46031860906479, 18.72215627596842], [-70.46041343373714, 18.72215553663561], [-70.46041420971319, 18.72224588667144], [-70.46050903443145, 18.72224514728684], [-70.46050981046228, 18.72233549731794], [-70.46051058649753, 18.722425847348134], [-70.46051136253723, 18.722516197377434], [-70.46051213858136, 18.722606547405828], [-70.46051291462994, 18.72269689743332], [-70.46051369068293, 18.72278724745991], [-70.46041808965997, 18.722697636837054], [-70.46041886566263, 18.722787986867466], [-70.46041964166972, 18.72287833689698], [-70.46042041768125, 18.7229686869256], [-70.46032481659462, 18.722879076260398], [-70.46022999151509, 18.72287981557584], [-70.46013516643113, 18.72288055484331], [-70.46004034134273, 18.722881294062816], [-70.46013594229163, 18.722970904883404], [-70.4600411171529, 18.722971644106735], [-70.45994706777397, 18.723062733328923], [-70.45985224257603, 18.723063472460137], [-70.45975819304164, 18.72315456159696], [-70.45975896871406, 18.723244911649648], [-70.45975974439094, 18.723335261701425], [-70.45966414340656, 18.723245650692565], [-70.45966491903309, 18.72333600074817], [-70.45966569466403, 18.72342635080288], [-70.45957009367079, 18.72333673974694], [-70.45947526830409, 18.723337478697736], [-70.45938121841286, 18.723428567666748], [-70.45947681936904, 18.723518178821546], [-70.45938199389721, 18.723518917732015], [-70.45928716842094, 18.723519656594515], [-70.459382769386, 18.72360926779639], [-70.45928794385938, 18.72361000666271], [-70.45919311832833, 18.723610745481064], [-70.45909829279287, 18.723611484251443], [-70.45900346725296, 18.72361222297385], [-70.45890864170862, 18.72361296164829], [-70.45881381615986, 18.723613700274754], [-70.4587182154703, 18.723524088762115], [-70.45862261488142, 18.72343447719296], [-70.45852701439324, 18.723344865567288], [-70.45843141400576, 18.72325525388511], [-70.45833581371895, 18.723165642146405], [-70.45824021353283, 18.723076030351194], [-70.45814461344739, 18.722986418499474], [-70.45804901346266, 18.722896806591233], [-70.45795418827677, 18.722897544755394], [-70.45785936308647, 18.72289828287158], [-70.45776453789173, 18.722899020939796], [-70.45766971269259, 18.72289975896004], [-70.457574887489, 18.722900496932315], [-70.45748006228101, 18.722901234856618], [-70.45738523706855, 18.722901972732952], [-70.45728963750591, 18.722812360405687], [-70.45719403804395, 18.722722748021912], [-70.45709843868268, 18.722633135581628], [-70.45700283942209, 18.722543523084845], [-70.4569080143889, 18.722544260706062], [-70.45681318935128, 18.72254499827931], [-70.45671836430924, 18.722545735804584], [-70.45662353926278, 18.72254647328189], [-70.45652794028655, 18.722456860521454], [-70.45643234141099, 18.72236724770452], [-70.45633674263613, 18.722277634831087]]}}, {"type": "Feature", "properties": {"kind": "switchback", "zone": 2, "length_m": 814, "gain_m": 67.6, "mean_grade_pct": 8.6, "max_grade_pct": 12.9, "pct_off_own_land": 71}, "geometry": {"type": "LineString", "coordinates": [[-70.4585076401623, 18.721086112759988], [-70.45860323928122, 18.72117572450372], [-70.45869883850084, 18.72126533619094], [-70.45879443782111, 18.721354947821645], [-70.45889003724206, 18.72144455939584], [-70.4589856367637, 18.721534170913532], [-70.45889081237722, 18.721534909500065], [-70.45898641195363, 18.721624521013023], [-70.45889158751682, 18.72162525960338], [-70.45898718714798, 18.72171487111162], [-70.45889236266083, 18.72171560970579], [-70.45898796234677, 18.72180522120931], [-70.45889313780928, 18.721805959807305], [-70.45879831326735, 18.72180669835734], [-70.45889391296215, 18.72189630990792], [-70.4587990883699, 18.721897048461773], [-70.45889468811947, 18.72198666000763], [-70.45899028796971, 18.722076271496977], [-70.45908588792064, 18.722165882929815], [-70.45918148797226, 18.722255494306136], [-70.45927631274816, 18.722254755545123], [-70.45937113751962, 18.72225401673614], [-70.45946596228666, 18.72225327787919], [-70.45956078704926, 18.722252538974274], [-70.45965483623411, 18.722161449954964], [-70.45974888531826, 18.72207036089443], [-70.45984293430175, 18.721979271792677], [-70.4599377588956, 18.721978532707357], [-70.45993853461108, 18.722068882764113], [-70.46003335925083, 18.722068143627], [-70.4600341350211, 18.722158493679032], [-70.46012895970675, 18.722157754490127], [-70.46022378438799, 18.72215701525326], [-70.46031860906479, 18.72215627596842], [-70.46041343373714, 18.72215553663561], [-70.46041420971319, 18.72224588667144], [-70.46050903443145, 18.72224514728684], [-70.46050981046228, 18.72233549731794], [-70.46051058649753, 18.722425847348134], [-70.46051136253723, 18.722516197377434], [-70.46051213858136, 18.722606547405828], [-70.46051291462994, 18.72269689743332], [-70.46051369068293, 18.72278724745991], [-70.46041808965997, 18.722697636837054], [-70.46041886566263, 18.722787986867466], [-70.46041964166972, 18.72287833689698], [-70.46042041768125, 18.7229686869256], [-70.46032481659462, 18.722879076260398], [-70.46022999151509, 18.72287981557584], [-70.46013516643113, 18.72288055484331], [-70.46004034134273, 18.722881294062816], [-70.46013594229163, 18.722970904883404], [-70.4600411171529, 18.722971644106735], [-70.45994706777397, 18.723062733328923], [-70.45985224257603, 18.723063472460137], [-70.45975819304164, 18.72315456159696], [-70.45975896871406, 18.723244911649648], [-70.45975974439094, 18.723335261701425], [-70.45966414340656, 18.723245650692565], [-70.45966491903309, 18.72333600074817], [-70.45966569466403, 18.72342635080288], [-70.45957009367079, 18.72333673974694], [-70.45947526830409, 18.723337478697736], [-70.45938121841286, 18.723428567666748], [-70.45947681936904, 18.723518178821546], [-70.45938199389721, 18.723518917732015], [-70.45928716842094, 18.723519656594515], [-70.45919234294024, 18.723520395409047], [-70.4590975174551, 18.723521134175602], [-70.45900269196557, 18.72352187289419], [-70.45890786647158, 18.723522611564803], [-70.45881304097314, 18.723523350187442]]}}, {"type": "Feature", "properties": {"kind": "switchback", "zone": 3, "length_m": 1387, "gain_m": 95.3, "mean_grade_pct": 7.7, "max_grade_pct": 12.7, "pct_off_own_land": 72}, "geometry": {"type": "LineString", "coordinates": [[-70.4585076401623, 18.721086112759988], [-70.45860323928122, 18.72117572450372], [-70.45869883850084, 18.72126533619094], [-70.45879443782111, 18.721354947821645], [-70.45889003724206, 18.72144455939584], [-70.4589856367637, 18.721534170913532], [-70.45889081237722, 18.721534909500065], [-70.45898641195363, 18.721624521013023], [-70.45889158751682, 18.72162525960338], [-70.45898718714798, 18.72171487111162], [-70.45889236266083, 18.72171560970579], [-70.45898796234677, 18.72180522120931], [-70.45889313780928, 18.721805959807305], [-70.45879831326735, 18.72180669835734], [-70.45889391296215, 18.72189630990792], [-70.4587990883699, 18.721897048461773], [-70.45889468811947, 18.72198666000763], [-70.45899028796971, 18.722076271496977], [-70.45908588792064, 18.722165882929815], [-70.45918148797226, 18.722255494306136], [-70.45927631274816, 18.722254755545123], [-70.45937113751962, 18.72225401673614], [-70.45946596228666, 18.72225327787919], [-70.45956078704926, 18.722252538974274], [-70.45965483623411, 18.722161449954964], [-70.45974888531826, 18.72207036089443], [-70.45984293430175, 18.721979271792677], [-70.4599377588956, 18.721978532707357], [-70.45993853461108, 18.722068882764113], [-70.46003335925083, 18.722068143627], [-70.4600341350211, 18.722158493679032], [-70.46012895970675, 18.722157754490127], [-70.46022378438799, 18.72215701525326], [-70.46031860906479, 18.72215627596842], [-70.46041343373714, 18.72215553663561], [-70.46041420971319, 18.72224588667144], [-70.46050903443145, 18.72224514728684], [-70.46050981046228, 18.72233549731794], [-70.46051058649753, 18.722425847348134], [-70.46051136253723, 18.722516197377434], [-70.46051213858136, 18.722606547405828], [-70.46051291462994, 18.72269689743332], [-70.46051369068293, 18.72278724745991], [-70.46041808965997, 18.722697636837054], [-70.46041886566263, 18.722787986867466], [-70.46041964166972, 18.72287833689698], [-70.46042041768125, 18.7229686869256], [-70.46032481659462, 18.722879076260398], [-70.46022999151509, 18.72287981557584], [-70.46013516643113, 18.72288055484331], [-70.46004034134273, 18.722881294062816], [-70.46013594229163, 18.722970904883404], [-70.4600411171529, 18.722971644106735], [-70.45994706777397, 18.723062733328923], [-70.45985224257603, 18.723063472460137], [-70.45975819304164, 18.72315456159696], [-70.45975896871406, 18.723244911649648], [-70.45975974439094, 18.723335261701425], [-70.45966414340656, 18.723245650692565], [-70.45966491903309, 18.72333600074817], [-70.45966569466403, 18.72342635080288], [-70.45957009367079, 18.72333673974694], [-70.45947526830409, 18.723337478697736], [-70.45938121841286, 18.723428567666748], [-70.45947681936904, 18.723518178821546], [-70.45938199389721, 18.723518917732015], [-70.45928716842094, 18.723519656594515], [-70.459382769386, 18.72360926779639], [-70.45928794385938, 18.72361000666271], [-70.45919311832833, 18.723610745481064], [-70.45909829279287, 18.723611484251443], [-70.45900346725296, 18.72361222297385], [-70.45890864170862, 18.72361296164829], [-70.45881381615986, 18.723613700274754], [-70.45871899060667, 18.723614438853243], [-70.458814591351, 18.723704050361157], [-70.45871976574746, 18.723704788943472], [-70.45881536654657, 18.72379440044666], [-70.45872054089268, 18.72379513903279], [-70.45862571523438, 18.723795877570954], [-70.45872131604234, 18.723885489121226], [-70.45862649033369, 18.723886227663208], [-70.45872209119644, 18.723975839208745], [-70.45862726543743, 18.723976577754552], [-70.45853243967397, 18.723977316252377], [-70.45843761390611, 18.723978054702233], [-70.45834356309095, 18.724069143206023], [-70.45824951217509, 18.72416023166858], [-70.45815546115854, 18.724251320089895], [-70.45806063522191, 18.72425205835932], [-70.45796658404988, 18.724343146695247], [-70.45787253277717, 18.72443423498994], [-70.45787175805407, 18.72434388487254], [-70.45777770672657, 18.72443497312308], [-70.45777848140375, 18.72452532324339], [-70.45777925608537, 18.72461567336281], [-70.45778003077142, 18.724706023481325], [-70.45778080546188, 18.72479637359893], [-70.45768675385001, 18.7248874618199], [-70.45768597920546, 18.724797111699367], [-70.45759192753881, 18.724888199876183], [-70.45759115294462, 18.724797849751834], [-70.45749710122318, 18.72488893788449], [-70.45740304940105, 18.7249800259759], [-70.45730899747824, 18.725071114026072], [-70.45721494545471, 18.725162202035], [-70.45712089333048, 18.725253290002687], [-70.45702684110556, 18.725344377929126], [-70.45693278877992, 18.725435465814318], [-70.45693356305266, 18.725525815959077], [-70.4569343373298, 18.72561616610294], [-70.45693511161137, 18.725706516245896], [-70.45693588589738, 18.72579686638795], [-70.45703148708384, 18.725886478766675], [-70.45712708837101, 18.725976091088878], [-70.45722268975888, 18.726065703354568], [-70.45731829124745, 18.726155315563737], [-70.45741389283674, 18.726244927716397], [-70.45741466740105, 18.726335277833957]]}}]}