{"type": "FeatureCollection", "features": [{"type": "Feature", "properties": {"zone": 1, "direction": "NE", "likely_owner": "Negocios e Inversiones Diversos / S\u00e1nchez D\u00edaz (P. 328)", "cadastral_parcels": [{"layer": "approved", "id": "304760331910", "expediente": "6642024034813-07", "parcel_ha": 39.75, "overlap_ha": 1.37}, {"layer": "approved", "id": "304760349243", "expediente": "6642024034813-07", "parcel_ha": 28.25, "overlap_ha": 1.37}], "area_ha": 1.37, "mean_slope_pct": 25.7, "mean_elev_m": 788, "elev_above_field_m": 82, "aspect_deg": 227, "faces": "SW", "terrace_lots_est": 5, "dist_from_own_m": 0, "road_from_strip_foot": {"length_m": 1160, "gain_m": 72.3, "mean_grade_pct": 7.8, "max_grade_pct": 12.6, "pct_off_own_land": 57}, "kind": "zone"}, "geometry": {"type": "Polygon", "coordinates": [[[-70.45600833683396, 18.72268679102956], [-70.45600988415742, 18.722867491445655], [-70.45610470940883, 18.7228667542668], [-70.45610548312754, 18.722957104469682], [-70.45591583251961, 18.722958578787054], [-70.4559150589016, 18.722868228576544], [-70.45582023364133, 18.722868965659455], [-70.45581946007808, 18.722778615444227], [-70.45553498442183, 18.722780826393706], [-70.4555318908171, 18.722419425478034], [-70.45581636586925, 18.722417214574318], [-70.45581481879137, 18.722236514133947], [-70.45590964369921, 18.72223577707773], [-70.45590887011657, 18.722145426860017], [-70.45609851981834, 18.7221439526113], [-70.45609387781118, 18.721601851331823], [-70.4564731759535, 18.721598902350337], [-70.45647394981167, 18.721689252550576], [-70.45666359895698, 18.721687777764398], [-70.45666437292023, 18.7217781279561], [-70.45685402214852, 18.72177665297043], [-70.45685479621689, 18.721867003153605], [-70.45694962087474, 18.721866265585], [-70.45695039499786, 18.72195661576345], [-70.45704521970163, 18.721955878143056], [-70.45704599387952, 18.722046228316803], [-70.4571408186292, 18.72204549064463], [-70.45714236709894, 18.72222619098176], [-70.45685789253459, 18.72222840387728], [-70.45686021481932, 18.722499454410585], [-70.45695503982955, 18.722498716815263], [-70.45695581398365, 18.722589066987407], [-70.45686098892307, 18.722589804586548], [-70.45686176303126, 18.722680154761605], [-70.45676693791592, 18.722680892316593], [-70.45676771197817, 18.72277124249457], [-70.45667288680808, 18.7227719800054], [-70.4566736608244, 18.72286233018629], [-70.45657883559954, 18.722863067652973], [-70.45657960956997, 18.72295341783678], [-70.45638995900627, 18.72295489263385], [-70.45638841127122, 18.72277419225008], [-70.4562935860834, 18.72277492956903], [-70.45629126466503, 18.72250387897516], [-70.45591196447371, 18.722506827725486], [-70.45591351167882, 18.722687528152814], [-70.45600833683396, 18.72268679102956]]]}}, {"type": "Feature", "properties": {"zone": 2, "direction": "N", "likely_owner": "Bobea di Franco (P. 304760288101) / P. 328 further NE", "cadastral_parcels": [{"layer": "historic", "id": "328", "parcel_ha": 185.92, "overlap_ha": 28.36}, {"layer": "historic", "id": "332-A-1", "parcel_ha": 17.7, "overlap_ha": 6.46}, {"layer": "approved", "id": "304760331910", "expediente": "6642024034813-07", "parcel_ha": 39.75, "overlap_ha": 1.57}, {"layer": "approved", "id": "304760349243", "expediente": "6642024034813-07", "parcel_ha": 28.25, "overlap_ha": 1.52}, {"layer": "historic", "id": "332-A-2", "parcel_ha": 18.15, "overlap_ha": 0.31}, {"layer": "historic", "id": "330", "parcel_ha": 5.51, "overlap_ha": 0.08}, {"layer": "approved", "id": "304760131359", "expediente": "6642024034813-07", "parcel_ha": 10.47, "overlap_ha": 0.05}, {"layer": "historic", "id": "332-A-6", "parcel_ha": 10.22, "overlap_ha": 0.05}], "area_ha": 45.0, "mean_slope_pct": 17.2, "mean_elev_m": 781, "elev_above_field_m": 75, "aspect_deg": 235, "faces": "SW", "terrace_lots_est": 179, "dist_from_own_m": 0, "road_from_strip_foot": {"length_m": 814, "gain_m": 67.6, "mean_grade_pct": 8.6, "max_grade_pct": 12.9, "pct_off_own_land": 71}, "kind": "zone"}, "geometry": {"type": "Polygon", "coordinates": [[[-70.45394767894669, 18.725684555831872], [-70.4540425058561, 18.72568381959029], [-70.45404173311245, 18.72559346933059], [-70.45413655996708, 18.72559273304484], [-70.45413578717752, 18.72550238278804], [-70.45498922821726, 18.725495754091575], [-70.45498845497895, 18.725405403868177], [-70.45508328168869, 18.72540466711027], [-70.45508250840444, 18.725314316889783], [-70.45517733505942, 18.725313580087715], [-70.45517656172926, 18.725223229870124], [-70.45536621492525, 18.725221756129674], [-70.45536544149878, 18.72513140591882], [-70.45555509457641, 18.72512993199409], [-70.45555354753536, 18.724949231584922], [-70.45536389465913, 18.724950705494397], [-70.45536234783717, 18.724770005066382], [-70.45479338970661, 18.72477442559765], [-70.4547941628133, 18.72486477583499], [-70.4546993363924, 18.7248655124261], [-70.45470010945314, 18.72495586266634], [-70.45451045649739, 18.724957335712244], [-70.45450968353732, 18.724866985464388], [-70.45403555132238, 18.72487066722053], [-70.45403477861849, 18.724780316952707], [-70.4539399522126, 18.724781053156196], [-70.45394072486613, 18.724871403427823], [-70.45384589840549, 18.72487213958715], [-70.45384435320352, 18.72469143903538], [-70.45374952683915, 18.72469217513911], [-70.45374643668961, 18.724330774009534], [-70.4535567843504, 18.7243322460426], [-70.45355987409717, 18.724693647202642], [-70.45327539495108, 18.724695854938133], [-70.45327616724776, 18.724786205237308], [-70.45318134080655, 18.72478694105699], [-70.4531821130573, 18.724877291359082], [-70.45308728656133, 18.724878027134594], [-70.45308772148776, 18.724928914910258], [-70.45299759790576, 18.724745025253135], [-70.4528999109057, 18.724482249062255], [-70.4528292387947, 18.72421173051443], [-70.45278623844987, 18.723935984490687], [-70.4527787399442, 18.723796145130397], [-70.45317284633965, 18.72379308767456], [-70.45317207414186, 18.723702737361663], [-70.45277389685788, 18.723705826380552], [-70.45277130948924, 18.72365757445781], [-70.45278459056154, 18.72337908863635], [-70.4528169284606, 18.72316335467519], [-70.45288296441646, 18.72316284243098], [-70.45288373643673, 18.723253192760705], [-70.45297856203528, 18.723252457149652], [-70.45298010618974, 18.723433157798794], [-70.45307493188459, 18.72343242213216], [-70.45307570401877, 18.723522772451567], [-70.45354983267842, 18.72351909337978], [-70.45355060506876, 18.723609443679255], [-70.45411955961673, 18.723605027187162], [-70.45412265043055, 18.72396642828464], [-70.45431230231398, 18.723964955706354], [-70.45431152950322, 18.723874605440955], [-70.45440635538796, 18.72387386908366], [-70.45440558253127, 18.72378351882117], [-70.45459523418683, 18.723782045970278], [-70.45459214240142, 18.723420644941793], [-70.45449731677724, 18.72342138137598], [-70.45449577101172, 18.723240680848708], [-70.45440094548383, 18.723241417227303], [-70.4543978542072, 18.722880016146707], [-70.45354442606964, 18.722886641258224], [-70.45354365371462, 18.722796290951543], [-70.45325917774032, 18.72279849844716], [-70.45325840554074, 18.722708148128145], [-70.45297392967775, 18.72271035518061], [-70.4529747017263, 18.72280070551104], [-70.45290634020141, 18.72280123581914], [-70.45299115601884, 18.722568924839507], [-70.45311345049018, 18.722315672425182], [-70.45326077370956, 18.72207481894668], [-70.45343175602812, 18.72184860341709], [-70.45362480787664, 18.721639128762877], [-70.45466044800858, 18.720619069994772], [-70.454757831575, 18.72061831370605], [-70.45476092321535, 18.720979714815805], [-70.45466609895921, 18.720980451243044], [-70.45466996335735, 18.721432202629014], [-70.45476478786519, 18.721431466182725], [-70.45476942559077, 18.721973567793285], [-70.45495907519725, 18.72197209471106], [-70.45496680610016, 18.72287559724701], [-70.45506163140018, 18.722874860595827], [-70.45506240456513, 18.722965210840652], [-70.45515722991108, 18.72296447413769], [-70.45515800313078, 18.723054824377808], [-70.45534765391011, 18.723053350820344], [-70.45534842723492, 18.723143701051935], [-70.4554432526683, 18.723142964197436], [-70.45544479943186, 18.723323664650277], [-70.45553962496152, 18.723322927740185], [-70.45554117184345, 18.723503628181795], [-70.45573082309086, 18.723502154202432], [-70.45573159663914, 18.723592504414263], [-70.45582642230657, 18.72359176734881], [-70.45582719590962, 18.723682117555924], [-70.45592202162298, 18.723681380438688], [-70.45592279528078, 18.723771730641083], [-70.45601762104006, 18.72377099347206], [-70.45601839475265, 18.72386134366974], [-70.45611322055785, 18.723860606448934], [-70.45611399432521, 18.723950956641893], [-70.45620882017633, 18.723950219369296], [-70.45620959399845, 18.72404056955755], [-70.45630441989549, 18.724039832233156], [-70.4563059676537, 18.724220532599325], [-70.45659044562039, 18.724218320315423], [-70.45658967158803, 18.72412797014424], [-70.45677932344302, 18.724126495056066], [-70.4567785493144, 18.724036144891606], [-70.45696820105098, 18.724034669619172], [-70.45696742682608, 18.723944319461445], [-70.45782085896859, 18.723937678395156], [-70.45782163364659, 18.72402802851852], [-70.45839058851112, 18.724023598959285], [-70.45839136349564, 18.72411394905883], [-70.45886549267935, 18.72411025642109], [-70.45886626792003, 18.72420060650062], [-70.45896109379383, 18.72419986782533], [-70.4589603185028, 18.724109517749618], [-70.45924479594657, 18.72410730144737], [-70.45924402050893, 18.724016951382215], [-70.45933884626432, 18.724016212522677], [-70.45933807078077, 18.723925862460447], [-70.45943289648137, 18.723925123556754], [-70.45943134542688, 18.72374442343724], [-70.45952617102236, 18.723743684493225], [-70.45953780511844, 18.72509893524434], [-70.45972745780654, 18.725097457097675], [-70.4597266820684, 18.725007107061558], [-70.45982150835545, 18.725006367920084], [-70.4598207325714, 18.724916017886887], [-70.4600103850315, 18.724914539467665], [-70.46000960915119, 18.724824189441225], [-70.46010443532423, 18.724823450163473], [-70.4601028834762, 18.724642750115525], [-70.46029253560759, 18.7246412714314], [-70.46028943156199, 18.72427987135529], [-70.46038425741965, 18.72427913195656], [-70.46038115324359, 18.72391773188133], [-70.46028632758733, 18.723918471264756], [-70.46028555160474, 18.723828121239862], [-70.46019072599438, 18.723828860571487], [-70.46018995006659, 18.72373851054187], [-70.46009512450213, 18.7237392498217], [-70.46009202103667, 18.723377849678926], [-70.45990237029724, 18.72337932806406], [-70.45990314605626, 18.723469678108753], [-70.4597134951984, 18.723471156309646], [-70.45971271954006, 18.723380806257307], [-70.45961789415483, 18.723381545281978], [-70.45961634295215, 18.723200845166936], [-70.45952151766316, 18.723201584135985], [-70.45951996657888, 18.723020884009696], [-70.45942514138616, 18.723021622923124], [-70.4594235904203, 18.72284092278558], [-70.45961324059995, 18.722839444926045], [-70.45961246502299, 18.722749094863566], [-70.45989694010818, 18.722746877725953], [-70.45989616438462, 18.722656527674044], [-70.45999098935381, 18.72265578853606], [-70.45999021358433, 18.722565438487077], [-70.4598953886655, 18.72256617762124], [-70.45989461295079, 18.722475827567532], [-70.45979978807785, 18.722476566649895], [-70.45979901241795, 18.722386216591463], [-70.4597041875909, 18.722386955622035], [-70.45970263638505, 18.722206255494807], [-70.45903886317649, 18.722211427312182], [-70.45903731269313, 18.722030727127834], [-70.45894248803201, 18.72203146575937], [-70.45894016249122, 18.721760415464615], [-70.45884533797667, 18.721761154036717], [-70.45884378773899, 18.721580453828064], [-70.4587489633207, 18.721581192344562], [-70.45874586309982, 18.72121979190115], [-70.45903033573732, 18.721217576253636], [-70.4590311109369, 18.721307926354374], [-70.45941040792626, 18.72130497147088], [-70.4594088571288, 18.721124271299082], [-70.4595036812644, 18.72112353246594], [-70.45950290582198, 18.721033182382513], [-70.4595977299028, 18.721032443505226], [-70.45959462797612, 18.720671043177802], [-70.45978427572176, 18.720669565309922], [-70.45978039790978, 18.72021781491859], [-70.45987522152429, 18.72021707593183], [-70.45987367032987, 18.720036375776637], [-70.45996849383926, 18.720035636749568], [-70.45996694256189, 18.719854936598416], [-70.46006176596619, 18.719854197531024], [-70.46006099028382, 18.719763847457923], [-70.46015581363335, 18.7197631083464], [-70.46015503790508, 18.719672758276225], [-70.46062915433454, 18.719669062018294], [-70.460627602388, 18.71948836191349], [-70.46081724872742, 18.7194868830899], [-70.46081647266013, 18.719396533043792], [-70.46091129577286, 18.71939579356389], [-70.46091051965968, 18.719305443520714], [-70.46100534271763, 18.719304703996666], [-70.46100456655856, 18.71921435395642], [-70.4612890355548, 18.71921213510801], [-70.46128825924917, 18.71912178507834], [-70.46147790512383, 18.719120305613917], [-70.46147557593159, 18.718849255542477], [-70.46157039871126, 18.718848515749816], [-70.46156962227239, 18.718758165728023], [-70.46166444499731, 18.718757425891233], [-70.46166366851254, 18.718667075872368], [-70.46175849118269, 18.718666335991447], [-70.46175771465204, 18.718575985975516], [-70.4618525372674, 18.718575246050463], [-70.46185176069086, 18.718484896037456], [-70.46194658325147, 18.718484156068275], [-70.46194580662905, 18.718393806058202], [-70.46223027413325, 18.718391585874404], [-70.46223105090665, 18.71848193587299], [-70.46232587344952, 18.718481195711973], [-70.46232665027769, 18.718571545705835], [-70.46242147286642, 18.718570805493034], [-70.46242302663677, 18.718751505470383], [-70.46251784932173, 18.71875076520196], [-70.46251862626389, 18.718841115185448], [-70.46261344899473, 18.71884037486524], [-70.46261577999886, 18.719111424798808], [-70.46271060287624, 18.719110684419142], [-70.46271215700186, 18.71929138436268], [-70.46280697997548, 18.719290643927394], [-70.46280931134821, 18.71956169382445], [-70.46290413446837, 18.719560953329704], [-70.46290568883974, 18.719741653248906], [-70.46300051205613, 18.719740912698533], [-70.46300284379748, 18.720011962559074], [-70.46309766716043, 18.720011221949246], [-70.46309922177754, 18.720191921844098], [-70.46319404523672, 18.72019118117864], [-70.46319482260226, 18.720281531120886], [-70.46328964610733, 18.72028079040363], [-70.46329042352767, 18.720371140341147], [-70.4633652945142, 18.72037055544709], [-70.4633029212925, 18.720457037396265], [-70.46310689065253, 18.720677827231967], [-70.46288869136966, 18.72087885311366], [-70.46273820079968, 18.721004247394777], [-70.46268561556043, 18.721151733015766], [-70.46256478623211, 18.721406616000994], [-70.46255510357312, 18.72142269083823], [-70.46255334420734, 18.721438985400514], [-70.46249353675505, 18.721718399986074], [-70.46240513195649, 18.721990841919972], [-70.46237558991052, 18.722057692848015], [-70.46241273764815, 18.72213004012109], [-70.4625297977389, 18.722389383060854], [-70.46261975508706, 18.722658367215736], [-70.46268175194176, 18.722934428178245], [-70.4627151971076, 18.72321493406125], [-70.46271977158588, 18.72349721058863], [-70.46269543162104, 18.723778566590433], [-70.46264240912338, 18.72405631965966], [-70.46256120946339, 18.724327821726], [-70.46245260665899, 18.724590484302613], [-70.46231763600092, 18.724841803165493], [-70.46191260253038, 18.72551300354823], [-70.46175628538492, 18.72574557981549], [-70.46157739101936, 18.725962884562595], [-70.46137755165164, 18.72616293500918], [-70.46115859063015, 18.72634390580223], [-70.46092250579791, 18.726504145673236], [-70.46067145126352, 18.726642192506834], [-70.46040771774554, 18.726756786683712], [-70.46013371166943, 18.726846882575707], [-70.45980823195725, 18.726937578370897], [-70.45954421664312, 18.72699906423356], [-70.45927548608327, 18.727037796029013], [-70.45900419604096, 18.727053463042193], [-70.45873252281625, 18.727045939584183], [-70.45846264578493, 18.727015286000928], [-70.45784641901396, 18.726918454614342], [-70.45784565086088, 18.72682888189569], [-70.45803530562186, 18.726827405331036], [-70.45803453070589, 18.72673705524326], [-70.45831901266308, 18.726734840047886], [-70.45831591243923, 18.726373439733585], [-70.45841073954803, 18.726372701254448], [-70.45840918936196, 18.726192001099534], [-70.45850401636561, 18.726191262580063], [-70.45850324122887, 18.72610091250507], [-70.45840841427558, 18.726101651020723], [-70.45840763919361, 18.726011300941014], [-70.45831281228624, 18.726012039404868], [-70.45831203725906, 18.725921689320433], [-70.45793272978668, 18.725924642680788], [-70.45793195496535, 18.72583429258018], [-70.4572681670707, 18.72583945908689], [-70.45726739260624, 18.725749108958645], [-70.4568880853419, 18.7257520601774], [-70.45688731108329, 18.725661710032988], [-70.4566976575253, 18.725663185346857], [-70.4566984316832, 18.725753535498914], [-70.45631912431267, 18.72575648556619], [-70.45632067223895, 18.7259371858981], [-70.4564154991889, 18.725936448445612], [-70.45641936933374, 18.72638819924055], [-70.45651419653106, 18.726387461721018], [-70.4565165188221, 18.726658512175714], [-70.45661134616606, 18.72665777459675], [-70.45661366864798, 18.726928825031887], [-70.45670849613857, 18.726928087393496], [-70.45671018919658, 18.727125663713828], [-70.45652562493918, 18.72714206960199], [-70.45623361613092, 18.72714116808805], [-70.45594305026462, 18.7271135287984], [-70.45565661803558, 18.72705940766868], [-70.45537697185678, 18.726979305861306], [-70.45510670129364, 18.726873965124273], [-70.45484830908083, 18.726744360921742], [-70.45460418794374, 18.726591693400092], [-70.45437659843944, 18.72641737627314], [-70.45416764802212, 18.726223023729506], [-70.45397927152725, 18.72601043548341], [-70.45395012240239, 18.725970263295455], [-70.45394767894669, 18.725684555831872]], [[-70.45353824735301, 18.722163838779526], [-70.45363307231656, 18.72216310287837], [-70.45363384469103, 18.72225345318755], [-70.4537286697005, 18.722252717234614], [-70.45372789727568, 18.722162366929243], [-70.45382272223038, 18.72216163093215], [-70.45381885992086, 18.72170987941079], [-70.45362921051043, 18.721711351318927], [-70.45362998286282, 18.721801701632618], [-70.45353515810065, 18.721802437518544], [-70.45353824735301, 18.722163838779526]], [[-70.45355446708668, 18.724061195163106], [-70.45402859714636, 18.72405751477775], [-70.45402782448221, 18.723967164501822], [-70.45355369467427, 18.723970844868138], [-70.45355446708668, 18.724061195163106]], [[-70.45574784217432, 18.725489858654456], [-70.45565301544517, 18.725490595752017], [-70.45565533624399, 18.725761646336753], [-70.45584499, 18.725760172070768], [-70.45584421629528, 18.725669821884384], [-70.45603386993291, 18.725668347434116], [-70.45603232233528, 18.7254876470739], [-70.45593749561938, 18.725488384315398], [-70.45593826936563, 18.725578734499766], [-70.45574861581986, 18.725580208846456], [-70.45574784217432, 18.725489858654456]], [[-70.45725577617065, 18.724393856926795], [-70.4575402543067, 18.724391643180766], [-70.45753793068594, 18.72412059278442], [-70.45744310479608, 18.724121330736285], [-70.45744233031502, 18.724030980598545], [-70.45734750447107, 18.72403171849862], [-70.45734827890178, 18.724122068640177], [-70.45725345300305, 18.724122806496094], [-70.45725577617065, 18.724393856926795]], [[-70.4589688469478, 18.725103368532903], [-70.45906367332066, 18.725102629771417], [-70.45906212255372, 18.724921929644754], [-70.45896729628156, 18.724922668398595], [-70.4589688469478, 18.725103368532903]], [[-70.45998245613352, 18.72166193794766], [-70.46007728054452, 18.72166119880378], [-70.46007650477348, 18.72157084874871], [-70.46017132912972, 18.72157010956068], [-70.46017055331278, 18.721479759508526], [-70.46026537761425, 18.72147902027636], [-70.460263825893, 18.72129832017701], [-70.46035865008935, 18.721297580904526], [-70.46035632238971, 18.72102653076021], [-70.46026149834437, 18.721027270021214], [-70.46025839500827, 18.720665869800868], [-70.46016357115984, 18.72066660899861], [-70.46016434693686, 18.72075695905887], [-70.46006952303367, 18.720757698212473], [-70.46007029876479, 18.720848048275666], [-70.45997547480682, 18.720848787385123], [-70.45997935327732, 18.721300537706664], [-70.45988452906322, 18.721301276787276], [-70.45988530472027, 18.721391626852704], [-70.45979048045142, 18.72139236588918], [-70.45979125606257, 18.721482715957528], [-70.45969643173893, 18.721483454949865], [-70.45969798287386, 18.72166415509151], [-70.45960315844512, 18.721664894043524], [-70.45960626056683, 18.7220262943313], [-70.45970108519693, 18.722025555363984], [-70.4597003096095, 18.721935205297218], [-70.45979513418484, 18.721934466285763], [-70.45979435855152, 18.721844116221924], [-70.45988918307208, 18.721843377166326], [-70.45988840739285, 18.721753027105397], [-70.45998323185863, 18.721752288005653], [-70.45998245613352, 18.72166193794766]], [[-70.46025684336684, 18.720485169685286], [-70.46035166711016, 18.720484430447236], [-70.4603501153858, 18.7203037303357], [-70.46006564444451, 18.720305947883016], [-70.4600679715847, 18.720576998083395], [-70.46025761918534, 18.72057551974353], [-70.46025684336684, 18.720485169685286]], [[-70.4604682182623, 18.723013492237], [-70.46037339311391, 18.723014231630142], [-70.46037572110626, 18.72328528171496], [-70.46056537170067, 18.723283802857765], [-70.4605645955981, 18.723193452838043], [-70.4606594208383, 18.723192713341312], [-70.4606578685458, 18.72301201330682], [-70.46056304340627, 18.723012752795896], [-70.46056226731702, 18.72292240277347], [-70.46046744222339, 18.72292314221075], [-70.4604682182623, 18.723013492237]], [[-70.46207247635846, 18.722097415561894], [-70.46197765178891, 18.722098155732226], [-70.46197842859337, 18.722188505705343], [-70.46188360396904, 18.72218924583154], [-70.46188671102986, 18.722550645730315], [-70.46198153585554, 18.72254990558881], [-70.46197998221558, 18.722369205648885], [-70.46207480693614, 18.722368465467056], [-70.46207403007247, 18.722278115499574], [-70.4622636793996, 18.72227663499968], [-70.46225979464445, 18.721824885187033], [-70.46207014582073, 18.72182636564862], [-70.46207247635846, 18.722097415561894]], [[-70.46243468048056, 18.72010675518554], [-70.46252950392049, 18.720106014859653], [-70.46252794991625, 18.719925314917013], [-70.46243312657698, 18.719926055235238], [-70.46243468048056, 18.72010675518554]]]}}, {"type": "Feature", "properties": {"zone": 3, "direction": "N", "likely_owner": "Bobea di Franco (P. 304760288101) / P. 328 further NE", "cadastral_parcels": [{"layer": "historic", "id": "328", "parcel_ha": 185.92, "overlap_ha": 0.72}], "area_ha": 0.72, "mean_slope_pct": 27.2, "mean_elev_m": 811, "elev_above_field_m": 105, "aspect_deg": 264, "faces": "W", "terrace_lots_est": 2, "dist_from_own_m": 206, "road_from_strip_foot": {"length_m": 1387, "gain_m": 95.3, "mean_grade_pct": 7.7, "max_grade_pct": 12.7, "pct_off_own_land": 72}, "kind": "zone"}, "geometry": {"type": "Polygon", "coordinates": [[[-70.45679867809645, 18.726385248874518], [-70.45679790385724, 18.7262948987326], [-70.45670307672354, 18.726295636392265], [-70.45670230253909, 18.72620528624563], [-70.45689195670134, 18.726203810885956], [-70.4568911824206, 18.726113460746046], [-70.45698600944473, 18.726112722998057], [-70.45698523511807, 18.72602237286107], [-70.45726971601286, 18.726020159340678], [-70.45726894153955, 18.725929809214232], [-70.4574585953466, 18.725928333301717], [-70.4574593699206, 18.726018683420524], [-70.45755419686782, 18.726017945388474], [-70.4575557461298, 18.72619864561575], [-70.45765057317331, 18.72619790752809], [-70.45765134786129, 18.72628825763655], [-70.45812548326417, 18.72628456645946], [-70.45812780811002, 18.726555616722155], [-70.45784332642837, 18.726557831606726], [-70.45784410123478, 18.726648181703947], [-70.45708548281945, 18.726654085982208], [-70.45708470841589, 18.726563735854448], [-70.45698988114441, 18.726564473669495], [-70.45698910679563, 18.726474123537013], [-70.45689427957008, 18.72647486130027], [-70.45689350527607, 18.726384511163058], [-70.45679867809645, 18.726385248874518]]]}}]}