{"type": "FeatureCollection", "features": [{"type": "Feature", "properties": {"name": "6642024034813_1-1-1_3", "label": "Parcela resultante _3 (plano individual 2026-07)", "plan_area_m2": 104744.43, "area_m2": 104520.8, "area_ha": 10.45, "area_acres": 25.8, "vertices": 40, "source": "KMZ export of DWG '2026.07 Catastral Finca Rancho Arriba' (agrimensor Walderson Mart\u00ednez Betances, CODIA 23017; RTK NTRIP)", "crs_note": "vertices in WGS84 from the KMZ; plan stations are UTM 19N"}, "geometry": {"type": "Polygon", "coordinates": [[[-70.4608489247425, 18.7159541638473], [-70.4609097300535, 18.7161322795563], [-70.4609329644719, 18.7161783789868], [-70.4609726190046, 18.7162570575108], [-70.461117510205, 18.7165022165602], [-70.460762089772, 18.7167174316054], [-70.4609038939804, 18.7167904824386], [-70.4611081261477, 18.7168969398497], [-70.4612219957979, 18.7168987030763], [-70.4613340584071, 18.7169332208837], [-70.4613998771596, 18.7169448794501], [-70.4614240715633, 18.7170029013498], [-70.4613457410567, 18.7170422844204], [-70.461220183299, 18.7173833210481], [-70.460913112943, 18.7182984076896], [-70.4608911578469, 18.7187023771232], [-70.4599855980957, 18.7194569097771], [-70.4598630065419, 18.7200903572852], [-70.4595813508251, 18.7203710435798], [-70.4595790002608, 18.7205505612336], [-70.459553793343, 18.7210015973894], [-70.4593296426104, 18.7213526614662], [-70.4588597637983, 18.7212292166068], [-70.4586799906794, 18.7212970411046], [-70.4585422973105, 18.7210535684303], [-70.4558606608868, 18.723693395868], [-70.4558058225883, 18.723649398384], [-70.4585012897518, 18.7209944115658], [-70.4584601841748, 18.7209352788072], [-70.4588634339532, 18.7205543718137], [-70.4577691873903, 18.7189304060952], [-70.457755868781, 18.7188240013011], [-70.4581620798832, 18.7184458370488], [-70.4584111954119, 18.7182135152627], [-70.4586507984672, 18.7179871851025], [-70.4589782529925, 18.7176794840765], [-70.4592245669824, 18.7174487001467], [-70.4595781767329, 18.7171146740671], [-70.460108114487, 18.7166134990317], [-70.4608564292566, 18.7159172287699], [-70.4608489247425, 18.7159541638473]]]}}]}