{"type": "FeatureCollection", "features": [{"type": "Feature", "properties": {"kind": "reference", "label": "Casa de mam\u00e1 (lote aprox.)", "note": "Traced from the Google Earth screenshot and georeferenced on Esri imagery (about +/-10 m). Replace with the KML for exact limits.", "area_m2": 2293}, "geometry": {"type": "Polygon", "coordinates": [[[-70.4610013937645, 18.71625680243181], [-70.46078417486706, 18.716418727741193], [-70.46078486284704, 18.71649883814203], [-70.46050580489147, 18.7166398811067], [-70.46034468655608, 18.716480905502657], [-70.46086701607202, 18.715948069319516], [-70.4610013937645, 18.71625680243181]]]}}]}