{"type": "FeatureCollection", "features": [{"type": "Feature", "id": "Aprobados.184995", "geometry": {"type": "MultiPolygon", "coordinates": [[[[-70.42587757, 18.702637], [-70.42591751, 18.70271902], [-70.42574557, 18.70279514], [-70.42570563, 18.70271322], [-70.42587757, 18.702637]]]]}, "geometry_name": "the_geom", "properties": {"Posicional": "304698655364", "Expediente": "6642020049484-04", "Area": 200.01098633, "Municipio": "RANCHO ARRIBA", "Provincia": "San Jos\u00e9 de Ocoa", "Operacion": "Urbanizaci\u00f3n parcelaria", "FechaInsc": "27/1/2021 1:04:42 p.\u00a0m.", "area_calc_m2": 200, "touches_family_land": false, "owner": null, "owner_source": null, "family": false}}, {"type": "Feature", "id": "Aprobados.184996", "geometry": {"type": "MultiPolygon", "coordinates": [[[[-70.42591751, 18.70271902], [-70.42595745, 18.70280094], [-70.42578551, 18.70287706], [-70.42574557, 18.70279514], [-70.42591751, 18.70271902]]]]}, "geometry_name": "the_geom", "properties": {"Posicional": "304698655423", "Expediente": "6642020049484-04", "Area": 199.89916992, "Municipio": "RANCHO ARRIBA", "Provincia": "San Jos\u00e9 de Ocoa", "Operacion": "Urbanizaci\u00f3n parcelaria", "FechaInsc": "27/1/2021 1:04:42 p.\u00a0m.", "area_calc_m2": 200, "touches_family_land": false, "owner": null, "owner_source": null, "family": false}}, {"type": "Feature", "id": "Aprobados.185001", "geometry": {"type": "MultiPolygon", "coordinates": [[[[-70.42561358, 18.70295328], [-70.42557354, 18.70287126], [-70.42574557, 18.70279514], [-70.42578551, 18.70287706], [-70.42561358, 18.70295328]]]]}, "geometry_name": "the_geom", "properties": {"Posicional": "304698657501", "Expediente": "6642020049484-04", "Area": 200.09790039, "Municipio": "RANCHO ARRIBA", "Provincia": "San Jos\u00e9 de Ocoa", "Operacion": "Urbanizaci\u00f3n parcelaria", "FechaInsc": "27/1/2021 1:04:42 p.\u00a0m.", "area_calc_m2": 200, "touches_family_land": false, "owner": null, "owner_source": null, "family": false}}, {"type": "Feature", "id": "Aprobados.185002", "geometry": {"type": "MultiPolygon", "coordinates": [[[[-70.42557354, 18.70287126], [-70.4255336, 18.70278934], [-70.42570563, 18.70271322], [-70.42574557, 18.70279514], [-70.42557354, 18.70287126]]]]}, "geometry_name": "the_geom", "properties": {"Posicional": "304698657442", "Expediente": "6642020049484-04", "Area": 199.99023438, "Municipio": "RANCHO ARRIBA", "Provincia": "San Jos\u00e9 de Ocoa", "Operacion": "Urbanizaci\u00f3n parcelaria", "FechaInsc": "27/1/2021 1:04:42 p.\u00a0m.", "area_calc_m2": 200, "touches_family_land": false, "owner": null, "owner_source": null, "family": false}}, {"type": "Feature", "id": "Aprobados.184934", "geometry": {"type": "MultiPolygon", "coordinates": [[[[-70.42593505, 18.70380543], [-70.42597499, 18.70388735], [-70.42579927, 18.70396522], [-70.42575933, 18.70388321], [-70.42593505, 18.70380543]]]]}, "geometry_name": "the_geom", "properties": {"Posicional": "304698665613", "Expediente": "6642020049484-04", "Area": 204.39813232, "Municipio": "RANCHO ARRIBA", "Provincia": "San Jos\u00e9 de Ocoa", "Operacion": "Urbanizaci\u00f3n parcelaria", "FechaInsc": "27/1/2021 1:04:42 p.\u00a0m.", "area_calc_m2": 204, "touches_family_land": false, "owner": null, "owner_source": null, "family": false}}, {"type": "Feature", "id": "Aprobados.184935", "geometry": {"type": "MultiPolygon", "coordinates": [[[[-70.42589511, 18.70372351], [-70.42593505, 18.70380543], [-70.42575933, 18.70388321], [-70.42571939, 18.70380129], [-70.42589511, 18.70372351]]]]}, "geometry_name": "the_geom", "properties": {"Posicional": "304698665554", "Expediente": "6642020049484-04", "Area": 204.28436279, "Municipio": "RANCHO ARRIBA", "Provincia": "San Jos\u00e9 de Ocoa", "Operacion": "Urbanizaci\u00f3n parcelaria", "FechaInsc": "27/1/2021 1:04:42 p.\u00a0m.", "area_calc_m2": 204, "touches_family_land": false, "owner": null, "owner_source": null, "family": false}}, {"type": "Feature", "id": "Aprobados.184921", "geometry": {"type": "MultiPolygon", "coordinates": [[[[-70.42485127, 18.7052368], [-70.42463866, 18.70533672], [-70.42443914, 18.7049273], [-70.42465146, 18.7048271], [-70.42485127, 18.7052368]]]]}, "geometry_name": "the_geom", "properties": {"Posicional": "304698778914", "Expediente": "6642020049484-04", "Area": 1248.88195801, "Municipio": "RANCHO ARRIBA", "Provincia": "San Jos\u00e9 de Ocoa", "Operacion": "Urbanizaci\u00f3n parcelaria", "FechaInsc": "27/1/2021 1:04:42 p.\u00a0m.", "area_calc_m2": 1249, "touches_family_land": false, "owner": null, "owner_source": null, "family": false}}, {"type": "Feature", "id": "Aprobados.412049", "geometry": {"type": "MultiPolygon", "coordinates": [[[[-70.42003482, 18.71257933], [-70.42005003, 18.71245439], [-70.42017701, 18.71246182], [-70.42018167, 18.71254571], [-70.42018185, 18.71257942], [-70.42003482, 18.71257933]]]]}, "geometry_name": "the_geom", "properties": {"Posicional": "305609266164", "Expediente": "6642023036601-02", "Area": 194.89, "Municipio": "RANCHO ARRIBA", "Provincia": "San Jos\u00e9 de Ocoa", "Operacion": "Urbanizaci\u00f3n parcelaria", "FechaInsc": "6/6/2023 8:42:20 a.\u00a0m.", "area_calc_m2": 195, "touches_family_land": false, "owner": null, "owner_source": null, "family": false}}]}