{"type": "FeatureCollection", "features": [{"type": "Feature", "id": "ParcelasHistoricas.379658", "geometry": {"type": "MultiPolygon", "coordinates": [[[[-70.46765229646871, 18.719368925560975], [-70.46754769649677, 18.71930677561673], [-70.46703824575248, 18.71744821593785], [-70.46700030505961, 18.71618379599765], [-70.46783100463777, 18.71632567556618], [-70.46857365439408, 18.716688235172935], [-70.46901603423201, 18.71687440493964], [-70.46951074386166, 18.716748494689412], [-70.47016195345851, 18.716731824355293], [-70.47015338366054, 18.717079594348576], [-70.47047681350516, 18.7171505241801], [-70.47029593409569, 18.718000604245876], [-70.47038724421523, 18.71830933418908], [-70.4701180845072, 18.71853761432011], [-70.46997279463274, 18.718604154392654], [-70.46976519477826, 18.718639524498226], [-70.46974978488699, 18.718815104500536], [-70.46816865605886, 18.71919645530105], [-70.46766184646663, 18.719375445555855], [-70.46765229646871, 18.719368925560975]]]]}, "geometry_name": "the_geom", "properties": {"AREA": 88374.939, "PARCELA": "134", "PROVINCIA": "Peravia", "MUNICIPIO": "San Jos? de Ocoa", "DC": "2", "area_calc_m2": 88375, "touches_family_land": false, "owner": null, "owner_source": null, "family": false, "shift_note": "RI historic layer shifted -11.0 m E, -10.5 m N to the plano 2026 frame"}}, {"type": "Feature", "id": "ParcelasHistoricas.239288", "geometry": {"type": "MultiPolygon", "coordinates": [[[[-70.45364589684701, 18.722744942657428], [-70.45456867622137, 18.72262494218641], [-70.4564723659528, 18.72418100115785], [-70.45661644599252, 18.724404721076656], [-70.45723122547896, 18.72415420076827], [-70.45745411528578, 18.72405106065685], [-70.4591717743864, 18.72429607976545], [-70.45939006424948, 18.72428729965343], [-70.4611477015272, 18.72135767884218], [-70.46156905078841, 18.720503088652595], [-70.4616210006705, 18.72035035863072], [-70.46210921032282, 18.720257518382613], [-70.46234436014173, 18.720188728263874], [-70.46279578983994, 18.72013769803336], [-70.46315750963356, 18.72015933784667], [-70.46311528943508, 18.71976382788095], [-70.46320901937355, 18.719755217833022], [-70.46396702901447, 18.719930247437716], [-70.46425870889355, 18.72002808728463], [-70.46455870849147, 18.71963827714279], [-70.46470878809666, 18.719101317082703], [-70.46504907764812, 18.718672496921393], [-70.4653220075657, 18.718818336776444], [-70.46571249730331, 18.718771806577177], [-70.46600245698754, 18.71852367643603], [-70.46667916643052, 18.718262406096475], [-70.46691335637608, 18.71841628597119], [-70.46759897764984, 18.72139787552368], [-70.4685455079435, 18.722927184988272], [-70.46757613873311, 18.723286335475205], [-70.46716359899389, 18.723306305686677], [-70.4668761890937, 18.723175675838622], [-70.46653604925845, 18.723103406015817], [-70.46621950938196, 18.72298354618239], [-70.46558999969334, 18.72286127650998], [-70.46531452963764, 18.722468866664116], [-70.4651890296675, 18.72238762673123], [-70.46486851964248, 18.72200133690832], [-70.46462222967132, 18.721789347041717], [-70.46483316904488, 18.720908456961272], [-70.46436072925428, 18.720773897208463], [-70.4644964796528, 18.721622447111674], [-70.46444922980152, 18.721834567129232], [-70.46436218007437, 18.72222337716163], [-70.46402407071284, 18.72298965731114], [-70.46375957100484, 18.723222837439746], [-70.46358947124823, 18.72347094751934], [-70.46326520150187, 18.723572627682877], [-70.46296265176734, 18.723718357833853], [-70.46257700228584, 18.72422199801621], [-70.46238429236196, 18.724150698117587], [-70.46213013243589, 18.72400995825278], [-70.46188348266254, 18.7241468283753], [-70.46145437310358, 18.724467368585852], [-70.46124859341448, 18.72479649868126], [-70.46087236378025, 18.72504061886705], [-70.46072861392581, 18.725144118937713], [-70.46058292410828, 18.725310709007385], [-70.46002615466223, 18.72569423928166], [-70.4597639654854, 18.72686708937941], [-70.45929127636516, 18.727915129589434], [-70.45894780725823, 18.729124279727905], [-70.45895164776121, 18.73001569969773], [-70.45879395812037, 18.730481029764164], [-70.45897653828669, 18.730969139654764], [-70.4591109083447, 18.73121479957784], [-70.45955049820083, 18.731429899344814], [-70.45962617820646, 18.731520559302993], [-70.45996654813719, 18.7317614391202], [-70.46018959815157, 18.732024748997077], [-70.4603438781367, 18.7321630889133], [-70.46036302819468, 18.732285788899564], [-70.46057998815036, 18.732439048783053], [-70.46083838785802, 18.732199078657672], [-70.46243617650482, 18.731516637857133], [-70.4631621868827, 18.732957947437807], [-70.46339655680877, 18.733077647313408], [-70.4642052577187, 18.73554570681885], [-70.46420086892998, 18.737677396753366], [-70.46400676884811, 18.737325886864433], [-70.46375476899432, 18.737314846994476], [-70.46370345896537, 18.737209037024247], [-70.46358508877098, 18.736739917100067], [-70.4632995487496, 18.7363975172579], [-70.46300125892138, 18.736382167411904], [-70.46270037913446, 18.736436937565013], [-70.4623978692969, 18.736400667721867], [-70.46216482934489, 18.736236657847012], [-70.4618594895902, 18.736343508000783], [-70.4618167095276, 18.73618745802775], [-70.4618113993848, 18.735929998038646], [-70.46158429940526, 18.735723798162073], [-70.46142482886847, 18.734606928279558], [-70.46143026867009, 18.73426281828767], [-70.46143726860868, 18.73416201828726], [-70.46120671855202, 18.733816118416883], [-70.45848139926115, 18.73215976987193], [-70.4583010593279, 18.732085189967112], [-70.45742510853424, 18.72975117049169], [-70.45698445856772, 18.72934025073144], [-70.45684390874936, 18.72951081079838], [-70.4567827686133, 18.72920559083949], [-70.45663041859567, 18.729012010924006], [-70.4565576184517, 18.728680450971943], [-70.4563733885286, 18.72861965106867], [-70.4561482786014, 18.728508021188045], [-70.45603981844468, 18.728115911256236], [-70.45589747840921, 18.72790159133625], [-70.45580785829078, 18.727597101391975], [-70.45573281823445, 18.72741774143626], [-70.45525864801634, 18.72652740170835], [-70.45493979821912, 18.72654510187188], [-70.45470579832758, 18.72648696199413], [-70.45451992847853, 18.726555072087642], [-70.4541211086882, 18.726499732294634], [-70.45322987926527, 18.726567512751174], [-70.45137538082625, 18.72734391368128], [-70.44793584194261, 18.725647435505092], [-70.44665566295772, 18.726073626150825], [-70.44642562299877, 18.72590097627466], [-70.4462966930217, 18.725804026344072], [-70.44590745323337, 18.725762686545774], [-70.44569581342444, 18.72587413665125], [-70.44543033358208, 18.725869326788086], [-70.44521392358078, 18.725636506906792], [-70.4451819634548, 18.725380346931246], [-70.44511812337265, 18.725167506970767], [-70.44488826345244, 18.725063367092375], [-70.44482713341421, 18.724930857127987], [-70.4447345033749, 18.724762897180916], [-70.44426822368396, 18.724811227419487], [-70.44407576385366, 18.72490550751564], [-70.44371001423482, 18.72518799769514], [-70.4429788848688, 18.72552713806105], [-70.4424450152752, 18.725675098331354], [-70.44194626559717, 18.72571164858705], [-70.44175568574981, 18.725777838683136], [-70.44142437593685, 18.72575481885447], [-70.44073746634439, 18.72574188920864], [-70.4405208564586, 18.72571261932111], [-70.43997627670032, 18.725558999606356], [-70.43968933685971, 18.725534489754907], [-70.4395684969399, 18.725547199816752], [-70.43914094715738, 18.725475420039192], [-70.43885212721248, 18.725265160194475], [-70.43867734718683, 18.725033900291677], [-70.43844042717724, 18.724764850422062], [-70.43834947717131, 18.72465760047224], [-70.43811396715566, 18.72437938060217], [-70.43781818724078, 18.72421461075963], [-70.437611697184, 18.723894770875916], [-70.43754045712588, 18.723716520918135], [-70.4371542072227, 18.723476121124538], [-70.43764425689712, 18.723423780873755], [-70.4395709858275, 18.723588999876334], [-70.44010488543198, 18.7234601096054], [-70.44016858526479, 18.723233169579647], [-70.44067954482097, 18.722994679323946], [-70.44086458457924, 18.7227655192358], [-70.44056386445259, 18.722222019407564], [-70.44053415430731, 18.72193427943181], [-70.44029977418563, 18.721470199566937], [-70.44000151427593, 18.72131193972543], [-70.43970280429886, 18.721034369887867], [-70.43938248447247, 18.720999480053898], [-70.43903971461931, 18.72089353023369], [-70.43873476466497, 18.72064944039829], [-70.43855235468547, 18.720491390497127], [-70.43845057465442, 18.720328300554613], [-70.43821629467615, 18.720117250681803], [-70.43808714456136, 18.719777430758853], [-70.43843552408252, 18.719303930594165], [-70.43843127394162, 18.719050980604216], [-70.43860524383469, 18.719047600514752], [-70.43912644357502, 18.71914451024338], [-70.43943335363015, 18.719568460072182], [-70.44007631351306, 18.720046449726276], [-70.44032449339726, 18.720106429596633], [-70.44064916335087, 18.72037028942127], [-70.44100791315256, 18.72040254923556], [-70.4415009128494, 18.720392888982037], [-70.44181980270658, 18.720480548815132], [-70.44207778268672, 18.720720258674845], [-70.44262466279996, 18.721502228368923], [-70.44281399269158, 18.72151275827112], [-70.44413379147991, 18.72078148761451], [-70.44462501107428, 18.720589257367642], [-70.44632870979878, 18.720154306504302], [-70.44625207958194, 18.71969017655827], [-70.44566499963815, 18.719163946876876], [-70.44529325978544, 18.719027757072464], [-70.4450712498746, 18.718948537189206], [-70.4448641398662, 18.718713107303152], [-70.44479558973218, 18.718403687348108], [-70.44481420956245, 18.71812414734726], [-70.44454609957943, 18.71786849749323], [-70.4443972296145, 18.71777180757287], [-70.44418817968034, 18.717665267683795], [-70.44405554963616, 18.717446097758895], [-70.44405335955554, 18.717301547764535], [-70.44417119946486, 18.717267077704964], [-70.44475480897685, 18.71702782741208], [-70.44600628823385, 18.71705011676733], [-70.44727452791776, 18.717843606089858], [-70.44784109738883, 18.71751408580862], [-70.44786556739913, 18.717558345794654], [-70.44788953754771, 18.71784602577331], [-70.44806089763834, 18.718188495674404], [-70.44811548824232, 18.7193122856111], [-70.44812948825728, 18.7193535556026], [-70.44829999827374, 18.719564285508245], [-70.45214081684476, 18.721136513482474], [-70.4533758367928, 18.722361392808462], [-70.4535826467855, 18.722569022695513], [-70.45364589684701, 18.722744942657428]]]]}, "geometry_name": "the_geom", "properties": {"AREA": 1859248.097, "PARCELA": "328", "PROVINCIA": "San Jos? de Ocoa", "MUNICIPIO": "San Jos? de Ocoa", "DC": "2", "area_calc_m2": 1859248, "touches_family_land": false, "owner": "Negocios e Inversiones Diversos S.R.L. / Sr. Jos\u00e9 Ludovino S\u00e1nchez D\u00edaz", "owner_source": "plano catastral 2026 (colindante noreste)", "family": false, "shift_note": "RI historic layer shifted -11.0 m E, -10.5 m N to the plano 2026 frame"}}, {"type": "Feature", "id": "ParcelasHistoricas.257180", "geometry": {"type": "MultiPolygon", "coordinates": [[[[-70.46882874020118, 18.709551785269703], [-70.46884089019719, 18.709557755263276], [-70.4685044409003, 18.710441045407926], [-70.4684193810846, 18.710675925444125], [-70.46832747126349, 18.710893905484387], [-70.46852933122642, 18.711043955375878], [-70.46868505129815, 18.71133706528652], [-70.46901718112329, 18.711382775114423], [-70.46916129103313, 18.711377375040552], [-70.46922042109117, 18.71154306500488], [-70.46961498093128, 18.711681984797735], [-70.46989831078751, 18.711730544650617], [-70.47012842058983, 18.71162694453571], [-70.47033306051519, 18.7117136744278], [-70.47055100051156, 18.711940044308598], [-70.47090889033406, 18.71200867412254], [-70.47092931048442, 18.712296244102845], [-70.47090232073548, 18.71271106410344], [-70.47071117097806, 18.71293561419447], [-70.47048900118838, 18.71306996430431], [-70.47068880125632, 18.713403444190998], [-70.4708488412042, 18.713482284106245], [-70.47105315125299, 18.713786783991537], [-70.47116419149587, 18.714334583916955], [-70.47102080174393, 18.714619783981504], [-70.47098343185503, 18.71477615399571], [-70.47082301199622, 18.714854284075628], [-70.47018547252036, 18.715099374395386], [-70.47008282259237, 18.715117014447568], [-70.46977749289833, 18.715331434597616], [-70.46930152265934, 18.71440080487193], [-70.46956879245023, 18.714316774737274], [-70.46965816237254, 18.71427495469269], [-70.46912475216457, 18.71333774499671], [-70.46858526257651, 18.71348944526908], [-70.46848979256227, 18.713362335322195], [-70.46775903247664, 18.712430565727416], [-70.46745165265044, 18.712409475886044], [-70.46647546323885, 18.71240672638776], [-70.46594526354448, 18.71238060666105], [-70.46519480367685, 18.71181323706478], [-70.46481396365215, 18.711363017274813], [-70.46508635337199, 18.711158837141333], [-70.46530679318266, 18.7110596370312], [-70.46583648281, 18.710966726761978], [-70.46619605256052, 18.71090981657903], [-70.46660013225316, 18.71079817637495], [-70.46887226984043, 18.70896069526622], [-70.46896558974895, 18.70889865522026], [-70.46894193983884, 18.70903229522814], [-70.4688791000172, 18.709280425252498], [-70.46882874020118, 18.709551785269703]]]]}, "geometry_name": "the_geom", "properties": {"AREA": 161787.48, "PARCELA": "1167", "PROVINCIA": "Peravia", "MUNICIPIO": "San Jos? de Ocoa", "DC": "2", "area_calc_m2": 161787, "touches_family_land": false, "owner": null, "owner_source": null, "family": false, "shift_note": "RI historic layer shifted -11.0 m E, -10.5 m N to the plano 2026 frame"}}, {"type": "Feature", "id": "ParcelasHistoricas.158637", "geometry": {"type": "MultiPolygon", "coordinates": [[[[-70.46315149646779, 18.714562378027555], [-70.46334620627411, 18.71442806793174], [-70.4632996962686, 18.714368687957535], [-70.46347262608627, 18.71423122787301], [-70.46355429600973, 18.714183217832556], [-70.46341883596315, 18.713956337909387], [-70.46372036558525, 18.713610637765388], [-70.46382893531124, 18.713242527721285], [-70.46300713576893, 18.713173828145866], [-70.46300963571628, 18.713083508147456], [-70.46304699517238, 18.712162588157497], [-70.46352048483324, 18.712068867917125], [-70.46377649467962, 18.712070767785487], [-70.46449558454198, 18.712595217399233], [-70.46520019442906, 18.713147947019525], [-70.46552145462803, 18.71384243683231], [-70.46586967496036, 18.714801316622808], [-70.46575694505542, 18.714848856679236], [-70.46580253507211, 18.714927046653315], [-70.46570628516717, 18.714992186700705], [-70.4656240951722, 18.71491333674546], [-70.46542284510846, 18.71458587685932], [-70.46528899521125, 18.714624546926895], [-70.46508509538296, 18.714710187028963], [-70.46512579543507, 18.71484569700373], [-70.46500761553303, 18.71489257706298], [-70.46481584565424, 18.714901957161253], [-70.4646087757831, 18.714908517267475], [-70.46454714579518, 18.71486407730057], [-70.46444461581753, 18.714794107355505], [-70.46440547582544, 18.714766287376502], [-70.46433370585203, 18.71473662741433], [-70.46419477589909, 18.714671457487817], [-70.46411822592123, 18.71462883752852], [-70.46395671608802, 18.714751047607653], [-70.46365506614872, 18.71453629776953], [-70.46355576623871, 18.714589257818893], [-70.46327836650832, 18.714769357955763], [-70.46312303651106, 18.71460841804072], [-70.46315149646779, 18.714562378027555]]]]}, "geometry_name": "the_geom", "properties": {"AREA": 56691.886, "PARCELA": "3679", "PROVINCIA": "Peravia", "MUNICIPIO": "San Jos? de Ocoa", "DC": "2", "area_calc_m2": 56692, "touches_family_land": false, "owner": null, "owner_source": null, "family": false, "shift_note": "RI historic layer shifted -11.0 m E, -10.5 m N to the plano 2026 frame"}}, {"type": "Feature", "id": "ParcelasHistoricas.317499", "geometry": {"type": "MultiPolygon", "coordinates": [[[[-70.46270621802802, 18.71684265818403], [-70.46278384806483, 18.71699053813943], [-70.46446365762083, 18.717999377243768], [-70.4646635173662, 18.717763057148545], [-70.46494753737315, 18.718078496992494], [-70.46519506737859, 18.718352346856538], [-70.46541768735071, 18.718540756736104], [-70.4650271976131, 18.718587276935352], [-70.4647542576955, 18.718441437080312], [-70.46441397814402, 18.718870257241623], [-70.46426389853882, 18.719407217301704], [-70.46396389894092, 18.719797027443565], [-70.46367220906184, 18.719699197596643], [-70.46291420942087, 18.719524157991952], [-70.4628204794824, 18.71953276803987], [-70.46265855911768, 18.718715958149062], [-70.46207297899196, 18.717869018477035], [-70.46219312891004, 18.71785261841578], [-70.4621221988373, 18.71764846845872], [-70.46270790804887, 18.716881278181948], [-70.46270621802802, 18.71684265818403]]]]}, "geometry_name": "the_geom", "properties": {"AREA": 55057.083, "PARCELA": "330", "PROVINCIA": "Peravia", "MUNICIPIO": "San Jos? de Ocoa", "DC": "2", "area_calc_m2": 55057, "touches_family_land": false, "owner": null, "owner_source": null, "family": false, "shift_note": "RI historic layer shifted -11.0 m E, -10.5 m N to the plano 2026 frame"}}, {"type": "Feature", "id": "ParcelasHistoricas.82265", "geometry": {"type": "MultiPolygon", "coordinates": [[[[-70.46114838632033, 18.712164059133332], [-70.46046454664864, 18.71201423948961], [-70.4597223366402, 18.711207379896692], [-70.45978655606545, 18.710260649893666], [-70.46015350521975, 18.70915824973998], [-70.46100867405852, 18.70801925933658], [-70.46197417274756, 18.706733298881222], [-70.46228476251841, 18.70665985872396], [-70.46249192248284, 18.706818088612497], [-70.4627622630647, 18.708134868431763], [-70.463069023725, 18.709628988226665], [-70.46399307441042, 18.711826397681943], [-70.463298254947, 18.712032648032487], [-70.46212494581319, 18.712310418626725], [-70.46114527632484, 18.712168719134787], [-70.46114838632033, 18.712164059133332]]]]}, "geometry_name": "the_geom", "properties": {"AREA": 169876.136, "PARCELA": "137", "PROVINCIA": "San Jose de Ocoa", "MUNICIPIO": "San Jose de Ocoa", "DC": "2", "area_calc_m2": 169876, "touches_family_land": false, "owner": null, "owner_source": null, "family": false, "shift_note": "RI historic layer shifted -11.0 m E, -10.5 m N to the plano 2026 frame"}}, {"type": "Feature", "id": "ParcelasHistoricas.21841", "geometry": {"type": "MultiPolygon", "coordinates": [[[[-70.46283487634766, 18.714012208207784], [-70.46270887632866, 18.713844198277883], [-70.4627950362277, 18.713757838236344], [-70.46273588622773, 18.71369474826875], [-70.46287267603711, 18.713504008204485], [-70.46372036558525, 18.713610637765388], [-70.46341883596315, 18.713956337909387], [-70.4630421061025, 18.713800368107993], [-70.46301178617915, 18.713903418120303], [-70.46283487634766, 18.714012208207784]]]]}, "geometry_name": "the_geom", "properties": {"AREA": 3488.7, "PARCELA": "3686", "PROVINCIA": "Peravia", "MUNICIPIO": "San Jose de Ocoa", "DC": "2", "area_calc_m2": 3489, "touches_family_land": false, "owner": null, "owner_source": null, "family": false, "shift_note": "RI historic layer shifted -11.0 m E, -10.5 m N to the plano 2026 frame"}}, {"type": "Feature", "id": "ParcelasHistoricas.21849", "geometry": {"type": "MultiPolygon", "coordinates": [[[[-70.46187240635327, 18.71299492873482], [-70.46185644617725, 18.712666968753428], [-70.46180087596127, 18.712226178795976], [-70.46304699517238, 18.712162588157497], [-70.46300963571628, 18.713083508147456], [-70.46300713576893, 18.713173828145866], [-70.46272395588733, 18.713080718294375], [-70.46209184623227, 18.71301535862137], [-70.46187240635327, 18.71299492873482]]]]}, "geometry_name": "the_geom", "properties": {"AREA": 11955, "PARCELA": "3709", "PROVINCIA": "Peravia", "MUNICIPIO": "San Jose de Ocoa", "DC": "2", "area_calc_m2": 11955, "touches_family_land": false, "owner": null, "owner_source": null, "family": false, "shift_note": "RI historic layer shifted -11.0 m E, -10.5 m N to the plano 2026 frame"}}, {"type": "Feature", "id": "ParcelasHistoricas.21844", "geometry": {"type": "MultiPolygon", "coordinates": [[[[-70.46249735634031, 18.71363900839313], [-70.46238420634377, 18.71352434845493], [-70.46249715619435, 18.713380968401424], [-70.46272395588733, 18.713080718294375], [-70.46300713576893, 18.713173828145866], [-70.46287267603711, 18.713504008204485], [-70.46273588622773, 18.71369474826875], [-70.4626127462172, 18.713544708336805], [-70.46249735634031, 18.71363900839313]]]]}, "geometry_name": "the_geom", "properties": {"AREA": 2316.4, "PARCELA": "3692", "PROVINCIA": "Peravia", "MUNICIPIO": "San Jose de Ocoa", "DC": "2", "area_calc_m2": 2316, "touches_family_land": false, "owner": null, "owner_source": null, "family": false, "shift_note": "RI historic layer shifted -11.0 m E, -10.5 m N to the plano 2026 frame"}}, {"type": "Feature", "id": "ParcelasHistoricas.173774", "geometry": {"type": "MultiPolygon", "coordinates": [[[[-70.4609187670813, 18.713263109216527], [-70.46105299708967, 18.71342112914251], [-70.46116553710401, 18.713566579080045], [-70.46144098686892, 18.713445288942292], [-70.46153829690893, 18.71361978888674], [-70.46168691676418, 18.713522748813418], [-70.46168890683971, 18.713658268808093], [-70.46178209693919, 18.71393341875146], [-70.46210875662808, 18.713732558589914], [-70.46219904643068, 18.71348027855151], [-70.46248005639059, 18.713709348399785], [-70.46222839665937, 18.713915508522614], [-70.4625940566997, 18.714377008319985], [-70.46285079643937, 18.714191188193915], [-70.46336774653119, 18.714905147905505], [-70.46289575689339, 18.715041098143818], [-70.46232044720871, 18.71498398844138], [-70.46193122709262, 18.71436355866115], [-70.46122357759374, 18.714493439020814], [-70.4608620876023, 18.714122799218405], [-70.46123379713528, 18.7136946390409], [-70.4610158971302, 18.71345311916057], [-70.46090298725399, 18.713551309215504], [-70.46080697721209, 18.713374829270446], [-70.4609187670813, 18.713263109216527]]]]}, "geometry_name": "the_geom", "properties": {"AREA": 20840.183, "PARCELA": "2193", "PROVINCIA": "Peravia", "MUNICIPIO": "San Jos? de Ocoa", "DC": "2", "area_calc_m2": 20840, "touches_family_land": false, "owner": null, "owner_source": null, "family": false, "shift_note": "RI historic layer shifted -11.0 m E, -10.5 m N to the plano 2026 frame"}}, {"type": "Feature", "id": "ParcelasHistoricas.21846", "geometry": {"type": "MultiPolygon", "coordinates": [[[[-70.46228965636261, 18.71345671850568], [-70.46210366640442, 18.713332038605238], [-70.46216266632814, 18.71326032857719], [-70.4620194663668, 18.71317575865348], [-70.46198470642774, 18.713246318669114], [-70.46184039646052, 18.713150198746337], [-70.46187240635327, 18.71299492873482], [-70.46209184623227, 18.71301535862137], [-70.46272395588733, 18.713080718294375], [-70.46249715619435, 18.713380968401424], [-70.4623984762097, 18.713302778454633], [-70.46228965636261, 18.71345671850568]]]]}, "geometry_name": "the_geom", "properties": {"AREA": 2528.7, "PARCELA": "3696", "PROVINCIA": "Peravia", "MUNICIPIO": "San Jose de Ocoa", "DC": "2", "area_calc_m2": 2529, "touches_family_land": false, "owner": null, "owner_source": null, "family": false, "shift_note": "RI historic layer shifted -11.0 m E, -10.5 m N to the plano 2026 frame"}}, {"type": "Feature", "id": "ParcelasHistoricas.282451", "geometry": {"type": "MultiPolygon", "coordinates": [[[[-70.45848966295392, 18.721040340219318], [-70.45862517300708, 18.721278670142087], [-70.45880959287402, 18.721240560048432], [-70.45928768265024, 18.72135559979888], [-70.45951558230576, 18.72099065969322], [-70.45956950191861, 18.7203648096853], [-70.45983729159765, 18.720083919556476], [-70.4599339412016, 18.719487879525644], [-70.46089407018394, 18.718715669056365], [-70.46090793994027, 18.718300259062403], [-70.46124953919116, 18.717342078917138], [-70.46137503891596, 18.71699002886377], [-70.46182952895624, 18.717546158612453], [-70.4620732289917, 18.717868848476908], [-70.46265851911771, 18.718715968149084], [-70.46282046948241, 18.71953276803988], [-70.46286268968089, 18.719928278005604], [-70.4625009798873, 18.719906648192286], [-70.46204955018905, 18.719957698422807], [-70.46181439037014, 18.720026448541546], [-70.46132618071783, 18.72011929878966], [-70.46127424083573, 18.72027203881152], [-70.46085275157455, 18.721126559001203], [-70.45909520429677, 18.724056229812422], [-70.45886030444231, 18.72406250993307], [-70.4571426553417, 18.723817540824466], [-70.45691976553488, 18.723920690935888], [-70.45630499604842, 18.724171211244276], [-70.45616090600869, 18.72394750132547], [-70.45578303606204, 18.723638661529634], [-70.45848845295728, 18.721044970219797], [-70.45848966295392, 18.721040340219318]]]]}, "geometry_name": "the_geom", "properties": {"AREA": 177026.074, "PARCELA": "332-A-1", "PROVINCIA": "Peravia", "MUNICIPIO": "San Jos? de Ocoa", "DC": "2", "area_calc_m2": 177026, "touches_family_land": true, "owner": null, "owner_source": null, "family": false, "shift_note": "RI historic layer shifted -11.0 m E, -10.5 m N to the plano 2026 frame"}}, {"type": "Feature", "id": "ParcelasHistoricas.336375", "geometry": {"type": "MultiPolygon", "coordinates": [[[[-70.45892873923928, 18.714950810186174], [-70.45966770877605, 18.714921209807166], [-70.46044515819158, 18.714718589413874], [-70.46074903847258, 18.71553909923163], [-70.46084453875895, 18.71614671916327], [-70.46086868875665, 18.716168409150164], [-70.45763341245448, 18.719245420716483], [-70.4571013724734, 18.718711331007007], [-70.45646522272295, 18.718473371341712], [-70.45893561924046, 18.714960260182337], [-70.45892873923928, 18.714950810186174]]]]}, "geometry_name": "the_geom", "properties": {"AREA": 104552.145, "PARCELA": "332-A-5", "PROVINCIA": "Peravia", "MUNICIPIO": "San Jos? de Ocoa", "DC": "2", "area_calc_m2": 104552, "touches_family_land": true, "owner": null, "owner_source": null, "family": false, "shift_note": "RI historic layer shifted -11.0 m E, -10.5 m N to the plano 2026 frame"}}, {"type": "Feature", "id": "ParcelasHistoricas.261329", "geometry": {"type": "MultiPolygon", "coordinates": [[[[-70.46087756875748, 18.716179349145257], [-70.46089446875587, 18.716194529136082], [-70.46136223891828, 18.716980478870656], [-70.4613738389193, 18.71699465886424], [-70.46124832919453, 18.717346708917603], [-70.46090672994363, 18.71830488906288], [-70.4608928601873, 18.718720299056837], [-70.45993273120496, 18.71949250952612], [-70.459836091601, 18.720088549556944], [-70.45956829192197, 18.72036943968578], [-70.4595143723091, 18.720995289693697], [-70.45928647265359, 18.721360229799362], [-70.45880838287738, 18.721245190048904], [-70.45862396301041, 18.72128330014256], [-70.45778379268101, 18.719805650621428], [-70.45763341245448, 18.719245420716483], [-70.46086828875711, 18.71616879915036], [-70.46087756875748, 18.716179349145257]]]]}, "geometry_name": "the_geom", "properties": {"AREA": 102246.112, "PARCELA": "332-A-6", "PROVINCIA": "Peravia", "MUNICIPIO": "San Jos? de Ocoa", "DC": "2", "area_calc_m2": 102246, "touches_family_land": true, "owner": null, "owner_source": null, "family": false, "shift_note": "RI historic layer shifted -11.0 m E, -10.5 m N to the plano 2026 frame"}}, {"type": "Feature", "id": "ParcelasHistoricas.371722", "geometry": {"type": "MultiPolygon", "coordinates": [[[[-70.46015596703897, 18.71237437963682], [-70.46001914718283, 18.712482509703726], [-70.46007094723012, 18.712621299672705], [-70.45975780753587, 18.712827179827162], [-70.45952868746036, 18.71244934995691], [-70.45987060711865, 18.7122106397887], [-70.46015596703897, 18.71237437963682]]]]}, "geometry_name": "the_geom", "properties": {"AREA": 2413.265, "PARCELA": "3731", "PROVINCIA": "Peravia", "MUNICIPIO": "San J?se de Ocoa", "DC": "2", "area_calc_m2": 2413, "touches_family_land": false, "owner": null, "owner_source": null, "family": false, "shift_note": "RI historic layer shifted -11.0 m E, -10.5 m N to the plano 2026 frame"}}, {"type": "Feature", "id": "ParcelasHistoricas.207654", "geometry": {"type": "MultiPolygon", "coordinates": [[[[-70.45995569809077, 18.714018339687694], [-70.46038139808422, 18.714460989454814], [-70.46048629809893, 18.71459888939651], [-70.46027307827212, 18.71467722950365], [-70.45864351940409, 18.714937580333245], [-70.4585698981112, 18.712575880445815], [-70.45905894787361, 18.712678040191157], [-70.45927983781131, 18.712803670073626], [-70.45937624778472, 18.712859560022288], [-70.45961313758158, 18.712753569903867], [-70.45991004758889, 18.713083239740786], [-70.46011214764847, 18.71340412962672], [-70.45983449792729, 18.713600269763248], [-70.45963935790529, 18.713353239871395], [-70.45945164812711, 18.71354471996183], [-70.45966076813149, 18.713775549847014], [-70.4595532682643, 18.71389541989849], [-70.45962290826618, 18.71397300986022], [-70.45970245826378, 18.71405366981677], [-70.45981676824377, 18.714140259755258], [-70.45994711809387, 18.71401465969223], [-70.45995569809077, 18.714018339687694]]]]}, "geometry_name": "the_geom", "properties": {"AREA": 32529.91, "PARCELA": "3702", "PROVINCIA": "Peravia", "MUNICIPIO": "San Jos? de Ocoa", "DC": "2", "area_calc_m2": 32530, "touches_family_land": false, "owner": "Colindres S.R.L.", "owner_source": "plano catastral 2026 (colindante sur)", "family": false, "shift_note": "RI historic layer shifted -11.0 m E, -10.5 m N to the plano 2026 frame"}}, {"type": "Feature", "id": "ParcelasHistoricas.193391", "geometry": {"type": "MultiPolygon", "coordinates": [[[[-70.45980892812001, 18.713913389766475], [-70.45973863812091, 18.71383995980494], [-70.4596607681309, 18.713774509847042], [-70.45983449792729, 18.713600269763248], [-70.46011214764847, 18.71340412962672], [-70.46003571776448, 18.71352743966211], [-70.46015433780343, 18.713722809594938], [-70.46012811784058, 18.71376043960722], [-70.45993683804207, 18.71391220970075], [-70.45981992811339, 18.71391341976082], [-70.45980892812001, 18.713913389766475]]]]}, "geometry_name": "the_geom", "properties": {"AREA": 1438.632, "PARCELA": "3718", "PROVINCIA": "Peravia", "MUNICIPIO": "San Jos? de Ocoa", "DC": "2", "area_calc_m2": 1439, "touches_family_land": false, "owner": null, "owner_source": null, "family": false, "shift_note": "RI historic layer shifted -11.0 m E, -10.5 m N to the plano 2026 frame"}}, {"type": "Feature", "id": "ParcelasHistoricas.207653", "geometry": {"type": "MultiPolygon", "coordinates": [[[[-70.45962290826618, 18.71397300986022], [-70.45974453812289, 18.713849769801595], [-70.45981536811753, 18.713915859763087], [-70.45970245826378, 18.71405366981677], [-70.45962290826618, 18.71397300986022]]]]}, "geometry_name": "the_geom", "properties": {"AREA": 214.979, "PARCELA": "3719", "PROVINCIA": "Peravia", "MUNICIPIO": "San Jos? de Ocoa", "DC": "2", "area_calc_m2": 215, "touches_family_land": false, "owner": null, "owner_source": null, "family": false, "shift_note": "RI historic layer shifted -11.0 m E, -10.5 m N to the plano 2026 frame"}}, {"type": "Feature", "id": "ParcelasHistoricas.193392", "geometry": {"type": "MultiPolygon", "coordinates": [[[[-70.45890653775143, 18.712299650281494], [-70.45890599775194, 18.712299970281755], [-70.45890619775119, 18.712298850281694], [-70.45890653775143, 18.712299650281494]]], [[[-70.45890653775143, 18.712299650281494], [-70.45903108763474, 18.71222645021978], [-70.45911011766515, 18.712364450174785], [-70.4589846578089, 18.712484490235475], [-70.45890653775143, 18.712299650281494]]]]}, "geometry_name": "the_geom", "properties": {"AREA": 324.135, "PARCELA": "3737", "PROVINCIA": "Peravia", "MUNICIPIO": "San Jos? de Ocoa", "DC": "2", "area_calc_m2": 324, "touches_family_land": false, "owner": null, "owner_source": null, "family": false, "shift_note": "RI historic layer shifted -11.0 m E, -10.5 m N to the plano 2026 frame"}}, {"type": "Feature", "id": "ParcelasHistoricas.207650", "geometry": {"type": "MultiPolygon", "coordinates": [[[[-70.45939785750227, 18.71238378002624], [-70.45927989760908, 18.712446570084897], [-70.45923887768974, 18.712545280102866], [-70.45905894787361, 18.712678040191157], [-70.4585698981112, 18.712575880445815], [-70.45862767794016, 18.712335440423725], [-70.45890619775119, 18.712298840281687], [-70.4589846478089, 18.71248449023548], [-70.45911010766514, 18.71236445017479], [-70.45903108763474, 18.712226440219776], [-70.45920898746375, 18.71211423013187], [-70.45930621747146, 18.712231610078174], [-70.45939745750248, 18.712383710026458], [-70.45939785750227, 18.71238378002624]]]]}, "geometry_name": "the_geom", "properties": {"AREA": 2747.071, "PARCELA": "3736", "PROVINCIA": "Peravia", "MUNICIPIO": "San Jos? de Ocoa", "DC": "2", "area_calc_m2": 2747, "touches_family_land": false, "owner": null, "owner_source": null, "family": false, "shift_note": "RI historic layer shifted -11.0 m E, -10.5 m N to the plano 2026 frame"}}, {"type": "Feature", "id": "ParcelasHistoricas.82263", "geometry": {"type": "MultiPolygon", "coordinates": [[[[-70.45811268706133, 18.710233850754943], [-70.4583132969275, 18.71021151065253], [-70.45833658698733, 18.71034200063643], [-70.45816386709542, 18.710348660725003], [-70.4581133370611, 18.710234140754608], [-70.45811268706133, 18.710233850754943]]]]}, "geometry_name": "the_geom", "properties": {"AREA": 273.178, "PARCELA": "3782", "PROVINCIA": "San Jose de Ocoa", "MUNICIPIO": "San Jose de Ocoa", "DC": "2", "area_calc_m2": 273, "touches_family_land": false, "owner": null, "owner_source": null, "family": false, "shift_note": "RI historic layer shifted -11.0 m E, -10.5 m N to the plano 2026 frame"}}, {"type": "Feature", "id": "ParcelasHistoricas.306146", "geometry": {"type": "MultiPolygon", "coordinates": [[[[-70.45561124104778, 18.714605391903003], [-70.45602077082232, 18.714644091691174], [-70.45653094049051, 18.714602361430142], [-70.45656395083793, 18.715250971392692], [-70.4587532393548, 18.71496757027589], [-70.45893561924046, 18.714960260182337], [-70.45646522272295, 18.718473371341712], [-70.45574204300665, 18.718202861722226], [-70.45533609323125, 18.718166401932177], [-70.45479815318875, 18.717517752229334], [-70.45561373103976, 18.714593871902082], [-70.45561124104778, 18.714605391903003]]]]}, "geometry_name": "the_geom", "properties": {"AREA": 101900.518, "PARCELA": "332-A-4", "PROVINCIA": "Peravia", "MUNICIPIO": "San Jos? de Ocoa", "DC": "2", "area_calc_m2": 101900, "touches_family_land": false, "owner": "Sra. Sara Margarita Altagracia Berm\u00fadez Henr\u00edquez", "owner_source": "plano catastral 2026 (colindante sureste)", "family": false, "shift_note": "RI historic layer shifted -11.0 m E, -10.5 m N to the plano 2026 frame"}}, {"type": "Feature", "id": "ParcelasHistoricas.319978", "geometry": {"type": "MultiPolygon", "coordinates": [[[[-70.45533609323125, 18.718166401932177], [-70.45574204300665, 18.718202861722226], [-70.4571013724734, 18.718711331007007], [-70.45763341245448, 18.719245420716483], [-70.45778379268101, 18.719805650621428], [-70.45848845295728, 18.721044970219797], [-70.45578303606204, 18.723638661529634], [-70.45425717627731, 18.722391492354035], [-70.45438917585498, 18.721787062305165], [-70.4543331258092, 18.721646512338427], [-70.45416405572232, 18.721312922435928], [-70.45393270575862, 18.721130332560694], [-70.45362753580883, 18.72089357272517], [-70.45533665323285, 18.71816979193178], [-70.45533609323125, 18.718166401932177]]]]}, "geometry_name": "the_geom", "properties": {"AREA": 181456.276, "PARCELA": "332-A-2", "PROVINCIA": "Peravia", "MUNICIPIO": "San Jos? de Ocoa", "DC": "2", "area_calc_m2": 181456, "touches_family_land": true, "owner": null, "owner_source": null, "family": false, "shift_note": "RI historic layer shifted -11.0 m E, -10.5 m N to the plano 2026 frame"}}, {"type": "Feature", "id": "ParcelasHistoricas.321705", "geometry": {"type": "MultiPolygon", "coordinates": [[[[-70.45359623582625, 18.720890952741357], [-70.45251382600429, 18.720051163324694], [-70.45218030470555, 18.717403753579553], [-70.45264874309503, 18.715060553412304], [-70.45365486188557, 18.713998252928267], [-70.45371652195354, 18.714183982890702], [-70.4537875119442, 18.71424321285233], [-70.45407969179675, 18.714294432700445], [-70.45434336167467, 18.714360082562774], [-70.45534385118833, 18.714568362041675], [-70.45561373103976, 18.714593871902082], [-70.45479815318875, 18.717517752229334], [-70.45533609323125, 18.718166401932177], [-70.45362697580725, 18.720890182725572], [-70.45359623582625, 18.720890952741357]]]]}, "geometry_name": "the_geom", "properties": {"AREA": 180514.179, "PARCELA": "332-A-3", "PROVINCIA": "Peravia", "MUNICIPIO": "San Jos? de Ocoa", "DC": "2", "area_calc_m2": 180514, "touches_family_land": false, "owner": "Sra. Sara Margarita Altagracia Berm\u00fadez Henr\u00edquez", "owner_source": "plano catastral 2026 (colindante este)", "family": false, "shift_note": "RI historic layer shifted -11.0 m E, -10.5 m N to the plano 2026 frame"}}, {"type": "Feature", "id": "ParcelasHistoricas.266792", "geometry": {"type": "MultiPolygon", "coordinates": [[[[-70.43777790972182, 18.72854409064602], [-70.43827363952974, 18.72873321038477], [-70.43838926961851, 18.729012710316525], [-70.43878027970305, 18.729577800097534], [-70.43924802943253, 18.729598979855904], [-70.43994515915266, 18.729847809489037], [-70.44012572909045, 18.729930379393444], [-70.44070313846774, 18.729447709111014], [-70.44082794791345, 18.728603739072984], [-70.44096476760656, 18.728208509014806], [-70.44092748747272, 18.727932949042586], [-70.44086049747351, 18.727863009079265], [-70.44084771735068, 18.72763292909301], [-70.44123195701647, 18.72745294890071], [-70.44237874574311, 18.726429408341968], [-70.44280873546401, 18.726395268121607], [-70.44324050501439, 18.72606237790964], [-70.4434512448789, 18.726047937801564], [-70.44361288461093, 18.725747657727702], [-70.44381417437526, 18.72554651763033], [-70.444086894115, 18.72537810749516], [-70.44435441385978, 18.725213027362564], [-70.44468056363066, 18.725156377196406], [-70.44522720337703, 18.725291426910736], [-70.44544812337342, 18.72552035678984], [-70.44571365321244, 18.725519336653157], [-70.44592391302088, 18.72540554654846], [-70.44631394280452, 18.72543948634659], [-70.44644496277888, 18.725533856276183], [-70.44667882273284, 18.725701776150533], [-70.44795191171133, 18.725256725509063], [-70.45161418047348, 18.726976323569918], [-70.45176839036598, 18.72695103349134], [-70.45266227983517, 18.72696764303072], [-70.45305356965088, 18.72705967282643], [-70.45324592950676, 18.727010562728974], [-70.45347254941537, 18.727090932609805], [-70.45379163923003, 18.727104212445152], [-70.45417483952525, 18.728033462218665], [-70.4542312695963, 18.728218912183785], [-70.45428918973784, 18.728530292144153], [-70.45440789979479, 18.72875730207591], [-70.45447606998054, 18.729157572028203], [-70.45468837992728, 18.72929001191476], [-70.45486569986389, 18.729367251821056], [-70.4549047200312, 18.729703931790365], [-70.45503698006837, 18.729910501715775], [-70.45506701022565, 18.730219901690557], [-70.45495056032058, 18.73026316174914], [-70.45472590066734, 18.730635151853054], [-70.45443826085948, 18.7306673520001], [-70.45406433109459, 18.730683322192082], [-70.4538337712105, 18.730641952312073], [-70.45367434135103, 18.730719792391692], [-70.45360408148336, 18.73087826242287], [-70.45336145175797, 18.731103862540667], [-70.45332245182188, 18.731174982558514], [-70.45319340193295, 18.731233272623104], [-70.4527744523004, 18.73143461283246], [-70.45266023249414, 18.73165446288435], [-70.45246603265919, 18.73173846298169], [-70.45232718288199, 18.731983303045475], [-70.45207953313081, 18.732158103167485], [-70.45200534329834, 18.732374353198885], [-70.45181906361096, 18.732726963283707], [-70.45176181382594, 18.733044973303194], [-70.4517710638925, 18.733172153294433], [-70.45170630406913, 18.733414523320164], [-70.4518301141368, 18.73366577324851], [-70.45181320429025, 18.73391825324929], [-70.45174056439781, 18.734030443283164], [-70.45147900461785, 18.734139583414418], [-70.44963778739067, 18.73706475427084], [-70.4481986898123, 18.73979857492649], [-70.44891258036162, 18.74152677450454], [-70.44896496037134, 18.741599704475266], [-70.44985666013855, 18.742139533998916], [-70.44989505028202, 18.742433173969925], [-70.44994100037047, 18.74263798393983], [-70.45019989044224, 18.743040213793826], [-70.45050485027049, 18.743062573636], [-70.4508386400928, 18.743105193462682], [-70.45097324008034, 18.743226673389522], [-70.45107221009062, 18.743350213334654], [-70.45109771015687, 18.743494103316994], [-70.45121884024891, 18.743785323245437], [-70.45126279029698, 18.74391678321867], [-70.45137824023043, 18.743922583159], [-70.45172839002292, 18.74393015297837], [-70.45200887978679, 18.743813042837534], [-70.45216456968411, 18.743798062757794], [-70.452493939463, 18.74375953258932], [-70.45271947925553, 18.74363439247706], [-70.45281397912537, 18.743505732432418], [-70.45329401871585, 18.743295862191726], [-70.45347743855265, 18.743203802100133], [-70.45361405840079, 18.743081852033598], [-70.45369655830703, 18.743004571993538], [-70.4537649982761, 18.743023021957693], [-70.45673252671631, 18.74343792041607], [-70.45677941674523, 18.743538890388734], [-70.45667594709612, 18.744046870425997], [-70.45659334735561, 18.744416070456893], [-70.45664034754397, 18.744798090420627], [-70.45669054762179, 18.744988700388756], [-70.45668539777937, 18.74526089038281], [-70.45676117790546, 18.745563850334214], [-70.45688780794325, 18.74576542026263], [-70.45688740807108, 18.745990220255738], [-70.45685472822849, 18.746232730264914], [-70.45677598833255, 18.746332100302347], [-70.45664296854245, 18.74656010036367], [-70.45649379873097, 18.746733220435047], [-70.45604958934734, 18.74734555064458], [-70.45625686929841, 18.74748032053354], [-70.4563596693178, 18.747624060476042], [-70.45650235931201, 18.747765980398057], [-70.45661025929317, 18.74784779033989], [-70.45694154922931, 18.748088490161617], [-70.45720805913167, 18.748200640020777], [-70.45737092903808, 18.74820939993659], [-70.45768749875465, 18.748047569778617], [-70.45785946867338, 18.74808774968876], [-70.45828563828114, 18.747851119476696], [-70.458337548191, 18.747747669453226], [-70.45842286805983, 18.747607539413696], [-70.45869137787692, 18.747571579276528], [-70.45900950781778, 18.74780663910522], [-70.45921815771828, 18.747853808996254], [-70.45915633804324, 18.748360439012075], [-70.45958979792839, 18.748620288780575], [-70.4596946380992, 18.74903303871351], [-70.45993303815628, 18.749387898579467], [-70.46007184809652, 18.749430598506613], [-70.46037835793254, 18.749468598347523], [-70.46095761774654, 18.749758688039943], [-70.4614794777733, 18.750362437752003], [-70.46219626744838, 18.750554547376694], [-70.46237574745884, 18.750764407277583], [-70.46253992761382, 18.7512126171788], [-70.46280296762555, 18.751513877033744], [-70.46269437778597, 18.75168064708439], [-70.46269061783742, 18.75176730708358], [-70.46303902780284, 18.752078036894254], [-70.46312679803782, 18.752585666832925], [-70.46338603798898, 18.75277616669334], [-70.4636497982575, 18.75353061653351], [-70.46360999836031, 18.75366927654961], [-70.46370151856468, 18.754126906487944], [-70.46361667885365, 18.75454545651835], [-70.46340841916312, 18.754868416615388], [-70.46381285919644, 18.755358536391462], [-70.46389700930203, 18.75563435633935], [-70.46386705959316, 18.756115186339507], [-70.46391326961833, 18.75620880631273], [-70.46431245972468, 18.756822016087586], [-70.46427202003592, 18.75732706609238], [-70.4640617803523, 18.75765998619013], [-70.46409595039829, 18.757777446168795], [-70.46451282021542, 18.757900095950102], [-70.46457341023856, 18.758005495915544], [-70.4648964001802, 18.75824728574144], [-70.46451269062571, 18.758622555927214], [-70.46422063106233, 18.759079926063176], [-70.46402627152949, 18.759695256143782], [-70.4638899616982, 18.759846956209202], [-70.46371587189763, 18.760012436293668], [-70.46335150215289, 18.7600732464795], [-70.46314220234402, 18.760186526583762], [-70.46281705279522, 18.76063419673713], [-70.46282818288543, 18.76080490672598], [-70.46305783284744, 18.760982986601977], [-70.46322282285217, 18.76116730651109], [-70.46326083297265, 18.761419976483488], [-70.46340462318167, 18.761941326392833], [-70.46334492332133, 18.762123576417814], [-70.46364724328245, 18.76237757625394], [-70.46388382323308, 18.762542996126754], [-70.46423893341381, 18.7632400159216], [-70.4638501838188, 18.763538336112493], [-70.4635381841837, 18.763847946263475], [-70.46320069446762, 18.763987756432996], [-70.4627967946567, 18.763889836644292], [-70.46233604476853, 18.763595316891138], [-70.46196804503705, 18.763675517078287], [-70.46193194527234, 18.764051177084983], [-70.46170420563766, 18.76445134718971], [-70.46162138578536, 18.764623017226963], [-70.46148118610931, 18.765043697285908], [-70.46135182622179, 18.765103717350694], [-70.46124001651077, 18.765493117396], [-70.46126594661943, 18.7657120073757], [-70.46116530670875, 18.765761877426005], [-70.46118522679097, 18.765927857410478], [-70.46099027708753, 18.76624190750104], [-70.4608307374799, 18.766762287566817], [-70.46088208701859, 18.766005177564328], [-70.46079693705937, 18.765986157608825], [-70.4605605071858, 18.76595658773166], [-70.46035806731494, 18.765967997835673], [-70.46019149737354, 18.76589351792391], [-70.45986518745235, 18.765684278098774], [-70.45975231748504, 18.765621498158957], [-70.45957692746215, 18.76539421825657], [-70.4594786875016, 18.765358898308346], [-70.45940450749787, 18.7652732383493], [-70.45928866750799, 18.76516755841237], [-70.45905895758726, 18.765062178534148], [-70.45898942761457, 18.76503604857082], [-70.45873570767988, 18.76488050870655], [-70.45863397772152, 18.764845338760114], [-70.45802679811702, 18.76489409907165], [-70.45789967819168, 18.764889979137326], [-70.45777045829375, 18.764931849202632], [-70.45758019834514, 18.76481949930429], [-70.4574455284002, 18.764772809375206], [-70.45727527850205, 18.76477059946306], [-70.45705159867828, 18.764842239576144], [-70.45674015896172, 18.76500907973147], [-70.456556559121, 18.765093629823486], [-70.4564644292275, 18.765182839868178], [-70.45613537943723, 18.765201200037282], [-70.45558804971206, 18.765101440322688], [-70.45531009985403, 18.765055080467494], [-70.45191195233296, 18.765795512196878], [-70.45175516239567, 18.76573883227953], [-70.44962246164306, 18.762143213492422], [-70.44955902159425, 18.76198979352995], [-70.44717614351066, 18.76282341473304], [-70.44701264361103, 18.7628258548173], [-70.4468328938078, 18.762980564905195], [-70.44665347404458, 18.763205994990717], [-70.44664721413275, 18.763354414989305], [-70.44657298445897, 18.763849125012136], [-70.44651941455092, 18.763953825036506], [-70.44526335502896, 18.763457365700074], [-70.44450280552597, 18.763521796090483], [-70.44354702569062, 18.762794056606356], [-70.4419221064238, 18.76235403745853], [-70.4412466262751, 18.761373747837602], [-70.44097750631497, 18.7611574679832], [-70.44081717644374, 18.761213358064193], [-70.44026439560889, 18.75915702841336], [-70.44032887548094, 18.759000598384944], [-70.44020094543052, 18.75877580845794], [-70.44010693526678, 18.758387818518504], [-70.43992058521206, 18.758093298623805], [-70.44035760413846, 18.756669958442565], [-70.44056726363324, 18.75600437835509], [-70.44009467266082, 18.75379085866769], [-70.44026874234454, 18.75341961858944], [-70.44030762211452, 18.753056298580677], [-70.44112901105804, 18.752071508187647], [-70.44115737070965, 18.75148863819115], [-70.4409675207141, 18.751294438295105], [-70.44088704057069, 18.750956428347134], [-70.44039483047986, 18.750272798622234], [-70.44090648992106, 18.749833958372008], [-70.44109754971953, 18.749682598278184], [-70.44135981951852, 18.749607978145267], [-70.44184935906064, 18.749323157901685], [-70.44215278862444, 18.74887836775907], [-70.44232598848123, 18.74881064767188], [-70.44245392839578, 18.748796447606352], [-70.44273123833125, 18.7489780374577], [-70.4429975882071, 18.749043037318348], [-70.44331525805765, 18.749118137152212], [-70.44345027797777, 18.749121287082495], [-70.44365222781497, 18.749049686980605], [-70.44391407739047, 18.748581226860207], [-70.44400701726684, 18.748462526815995], [-70.44431771625024, 18.74700367670133], [-70.44427497619286, 18.746857156727934], [-70.44411286612555, 18.74656607682059], [-70.44408665603291, 18.74637506684006], [-70.44406052589902, 18.746111506861748], [-70.44384620580833, 18.74572365698432], [-70.44421350558802, 18.74572682679489], [-70.44452184540546, 18.745733676635737], [-70.44472338527882, 18.745725306532112], [-70.44485676517749, 18.74568887646449], [-70.4452456750223, 18.745829756259624], [-70.44574163480186, 18.745969725999608], [-70.44602192466273, 18.746023175853466], [-70.44635050440688, 18.745922585687246], [-70.44672338417838, 18.745917325495224], [-70.44702944392088, 18.74578984534147], [-70.44731155363615, 18.74558891520235], [-70.44767022332621, 18.745425085022628], [-70.44779124318629, 18.745307574963938], [-70.44780558301713, 18.74502491496539], [-70.44785493287819, 18.744832804945975], [-70.4481419925118, 18.74449329480867], [-70.44812877230957, 18.744123054827078], [-70.44799592221867, 18.74382145490498], [-70.4478220421649, 18.74354152500335], [-70.44772096214832, 18.743404675059722], [-70.44747516216901, 18.74317931519344], [-70.44740957211138, 18.7430079252326], [-70.4474753320417, 18.742955235200373], [-70.44755788194574, 18.742874175160377], [-70.44776428168275, 18.74263078506163], [-70.44784449159016, 18.742553115022726], [-70.44796967135407, 18.742270594967074], [-70.4483382309352, 18.741925354787977], [-70.44867541051944, 18.74155213462594], [-70.44835245069847, 18.741523494793235], [-70.4481369707283, 18.7413464849098], [-70.44799219079495, 18.741309694985553], [-70.4477839307613, 18.741028595101668], [-70.44750175090998, 18.740989935248265], [-70.44727562095865, 18.740834835369636], [-70.44730679082356, 18.740630065359976], [-70.44711284100094, 18.740735955456607], [-70.44697711105557, 18.74068759552805], [-70.44678163113814, 18.74062485563074], [-70.44660718106287, 18.740306475730584], [-70.44626587115003, 18.740096495913015], [-70.44588897127771, 18.739920056112734], [-70.44555082135425, 18.73969473629401], [-70.44532751135704, 18.739461866416352], [-70.44508676142058, 18.739317416544917], [-70.44488559135695, 18.738991146658762], [-70.44473008138642, 18.738877446742446], [-70.44452987121416, 18.738360826861733], [-70.44439724124587, 18.738275426932734], [-70.44399280137401, 18.738070527147524], [-70.44381381140876, 18.737941157243792], [-70.44376489130343, 18.737703537276406], [-70.44340630131327, 18.73733904747255], [-70.44327533137223, 18.73730349754114], [-70.44299189150132, 18.73722910768951], [-70.44266847154236, 18.73695709786464], [-70.4425200816149, 18.736926867942046], [-70.44229962176928, 18.73696414805448], [-70.44195009193179, 18.736878308237266], [-70.441672532017, 18.736732908384827], [-70.44151846208142, 18.73668240846579], [-70.44130603221078, 18.7366840985752], [-70.44123032228775, 18.7367391186125], [-70.44100908234891, 18.73661134873049], [-70.44080097239487, 18.736470778842104], [-70.44031697264334, 18.736393299093926], [-70.43627706617072, 18.738306331116785], [-70.43613745629389, 18.738374671186637], [-70.4359217464856, 18.738482771294503], [-70.43561820664671, 18.738443481452194], [-70.43527651664412, 18.738075451639745], [-70.43473353651204, 18.73726535194473], [-70.43429415668099, 18.737095462176494], [-70.43387090672897, 18.736729742406002], [-70.43385668664489, 18.736566582418373], [-70.43340397691506, 18.736560772651934], [-70.4331225069513, 18.736325262804325], [-70.43239825730736, 18.73618187318214], [-70.43260611704841, 18.73594702308223], [-70.43268254696982, 18.735889943044587], [-70.43285992681368, 18.7358036729558], [-70.43296652654162, 18.73543802291214], [-70.43305560635137, 18.735197782873637], [-70.43313127616794, 18.734955272842125], [-70.43333521588525, 18.73467439274567], [-70.43347992571833, 18.734534362675404], [-70.4336883554397, 18.734265412576278], [-70.43413628475813, 18.73354156236777], [-70.43444865447223, 18.73337035221206], [-70.43471851409274, 18.732989032084774], [-70.4350401835031, 18.732292711940534], [-70.43468092339998, 18.73172889214314], [-70.43433291334684, 18.731265082336833], [-70.43431096335553, 18.73125704234839], [-70.43472733297607, 18.73103158214079], [-70.43608172222979, 18.73115786143893], [-70.43671717197394, 18.7313832811045], [-70.43704171170577, 18.731256180941205], [-70.4371599214327, 18.730900900891317], [-70.43735235053357, 18.729521580834945], [-70.43777790972182, 18.72854409064602]]]]}, "geometry_name": "the_geom", "properties": {"AREA": 7046737.5, "PARCELA": "130", "PROVINCIA": "San Jos? de Ocoa", "MUNICIPIO": "San Jos? de Ocoa", "DC": "2", "area_calc_m2": 7046737, "touches_family_land": false, "owner": null, "owner_source": null, "family": false, "shift_note": "RI historic layer shifted -11.0 m E, -10.5 m N to the plano 2026 frame"}}]}