{"type": "FeatureCollection", "features": [{"type": "Feature", "id": "Aprobados.302745", "geometry": {"type": "MultiPolygon", "coordinates": [[[[-70.4670468793725, 18.717298792947883], [-70.46698345938262, 18.716948392947778], [-70.46696050938641, 18.716835462947763], [-70.46717037934108, 18.716804562945804], [-70.46732496930755, 18.71676972294433], [-70.4673803092955, 18.7167505129438], [-70.46750802926788, 18.71672830294259], [-70.46764917923721, 18.71669033294125], [-70.46774279921696, 18.716672792940365], [-70.46792388917764, 18.716626722938635], [-70.46803916915262, 18.71659914293754], [-70.46812749913347, 18.716578292936696], [-70.46829839909763, 18.71666172293532], [-70.46830930909641, 18.716774482935435], [-70.46831760909622, 18.71693407293567], [-70.4683015991008, 18.717048322936037], [-70.46799093916802, 18.717106042938962], [-70.46778788921199, 18.717146502940878], [-70.46766867923776, 18.717165782941997], [-70.46754055926557, 18.71719785294321], [-70.46742889928971, 18.717215572944248], [-70.46736007930465, 18.717232632944913], [-70.46725999932633, 18.71725311294586], [-70.46715444934918, 18.71727418294686], [-70.4670468793725, 18.717298792947883]]]]}, "geometry_name": "the_geom", "properties": {"Posicional": "304750215477", "Expediente": "6642021094564-02", "Area": 7235.16, "Municipio": "RANCHO ARRIBA", "Provincia": "San Jos\u00e9 de Ocoa", "Operacion": "Deslinde", "FechaInsc": "21/2/2022 10:46:34 a.\u00a0m.", "area_calc_m2": 7235, "touches_family_land": false, "owner": null, "owner_source": null, "family": false, "shift_note": "RI approved layer shifted -0.5 m E, -4.0 m N to the plano 2026 frame"}}, {"type": "Feature", "id": "Aprobados.294234", "geometry": {"type": "MultiPolygon", "coordinates": [[[[-70.47004110873327, 18.71762197292143], [-70.46996979874845, 18.717611062922057], [-70.46989404876473, 18.717612372922744], [-70.46958452883102, 18.71760107292551], [-70.46944246886162, 18.717611582926825], [-70.4693670488782, 18.717651842927577], [-70.46930554889165, 18.717679072928185], [-70.46926225890122, 18.717706242928628], [-70.4692285389085, 18.717710482928936], [-70.46916532892202, 18.717704652929495], [-70.4690923789373, 18.71766899293009], [-70.46903570894915, 18.717639352930547], [-70.46891821897374, 18.717574402931486], [-70.46873296901244, 18.717469322932953], [-70.46869419902056, 18.717449482933265], [-70.46867933902367, 18.717441192933386], [-70.46864946902997, 18.71743103293363], [-70.46864698903049, 18.717429432933656], [-70.46849877906239, 18.71744053293501], [-70.46842497907832, 18.7174492429357], [-70.46833929909685, 18.71746518293651], [-70.46826402911314, 18.71747887293721], [-70.46820712912546, 18.717489082937753], [-70.4681649091346, 18.71749790293815], [-70.46810232914815, 18.717509772938737], [-70.46804197916128, 18.717527422939316], [-70.46802453916501, 18.71752827293948], [-70.46799817917069, 18.71752803293972], [-70.46796656917753, 18.717535872940015], [-70.4678170692099, 18.717563152941423], [-70.46775047922436, 18.717582202942065], [-70.46768821923787, 18.717597772942657], [-70.46756968926354, 18.717620932943774], [-70.4675315392718, 18.717628372944137], [-70.46745731928789, 18.717643042944836], [-70.467391969302, 18.717652052945443], [-70.46730527932077, 18.71767179294627], [-70.46722189933887, 18.717691602947056], [-70.46719048934571, 18.71770016294736], [-70.46716109935201, 18.717701022947626], [-70.46711090936111, 18.717532992947763], [-70.46707017936846, 18.717394802947855], [-70.46704765937237, 18.717301272947875], [-70.46712334935593, 18.71728234294716], [-70.46718375934286, 18.717271932946595], [-70.46727764932251, 18.717250682945703], [-70.4673751593014, 18.717232212944786], [-70.4675164992708, 18.71720372294344], [-70.46759813925318, 18.717192602942678], [-70.46767959923547, 18.717170192941904], [-70.4677205792266, 18.717161822941517], [-70.4678497991986, 18.717135512940295], [-70.46801300916327, 18.717104422938764], [-70.46830438910017, 18.71704602293601], [-70.46831985909655, 18.71701491293581], [-70.46831764909611, 18.71692348293565], [-70.46830811909689, 18.716796702935486], [-70.46830216909679, 18.716657062935273], [-70.4683281490912, 18.716657032935032], [-70.46839026907799, 18.7166686529345], [-70.4685014490543, 18.71668468293352], [-70.46859300903505, 18.716723632932773], [-70.46875533900095, 18.71679807293145], [-70.4687557390009, 18.71680087293145], [-70.46890669896871, 18.716822732930126], [-70.46901598894532, 18.716828292929144], [-70.46910333892647, 18.716818022928333], [-70.46917726891058, 18.71681446292767], [-70.46928087888797, 18.716777152926667], [-70.46933794887529, 18.716731612926058], [-70.469379198866, 18.716687742925597], [-70.46941985885724, 18.716685342925224], [-70.46955649882783, 18.716673332923975], [-70.46958359882208, 18.71668171292374], [-70.46968174880125, 18.716704252922902], [-70.46983518876856, 18.71672735292156], [-70.46993652874677, 18.716723842920633], [-70.46994612874563, 18.716814212920728], [-70.46994677874557, 18.716823152920732], [-70.4699886887403, 18.717196362921086], [-70.47002407873566, 18.717494612921346], [-70.47004110873327, 18.71762197292143]]]]}, "geometry_name": "the_geom", "properties": {"Posicional": "304750113870", "Expediente": "6642021028121-05", "Area": 22269.48, "Municipio": "RANCHO ARRIBA", "Provincia": "San Jos\u00e9 de Ocoa", "Operacion": "Deslinde de excepci\u00f3n", "FechaInsc": "20/5/2022 11:44:55 a.\u00a0m.", "area_calc_m2": 22269, "touches_family_land": false, "owner": null, "owner_source": null, "family": false, "shift_note": "RI approved layer shifted -0.5 m E, -4.0 m N to the plano 2026 frame"}}, {"type": "Feature", "id": "Aprobados.261505", "geometry": {"type": "MultiPolygon", "coordinates": [[[[-70.45839307115813, 18.710245343012925], [-70.45846754114264, 18.710293013012333], [-70.4585810711191, 18.710373183011452], [-70.45859017111727, 18.71038377301139], [-70.45863016110899, 18.710414543011083], [-70.45867502109971, 18.710448263010736], [-70.4587631410814, 18.710506753010044], [-70.45875792108264, 18.710517643010114], [-70.45906644101863, 18.710733903007714], [-70.46078244064667, 18.710342932991292], [-70.4608449006327, 18.7102843429906], [-70.4615765404741, 18.71011609298361], [-70.46159023047063, 18.710064122983386], [-70.46140031050396, 18.709326032983668], [-70.46139947050328, 18.709239572983517], [-70.46111819055335, 18.708219202984083], [-70.46116504054298, 18.7081876629836], [-70.46229919031502, 18.709706742976234], [-70.46319787012904, 18.71038291296937], [-70.46325249011787, 18.710437872968978], [-70.4632160501282, 18.710688982969803], [-70.46321727012837, 18.710731442969866], [-70.46322529012706, 18.710770592969872], [-70.46329543011308, 18.71087784296945], [-70.46331598010896, 18.710907682969317], [-70.46340985009047, 18.711071752968785], [-70.46363183005025, 18.7118101329682], [-70.46372262003216, 18.71194730296764], [-70.46367478004292, 18.711996742968175], [-70.4635844900616, 18.71192922296887], [-70.46333865011503, 18.71199963297124], [-70.4629624901964, 18.712067362974793], [-70.46293561020278, 18.712128832975154], [-70.46286700021754, 18.71213352297579], [-70.46278007023633, 18.71214793297661], [-70.4627195502494, 18.71215645297718], [-70.46263690026728, 18.712171552977956], [-70.4621827203653, 18.712230662982208], [-70.46211218037755, 18.711944602982292], [-70.4620149503945, 18.711554842982423], [-70.46184592042405, 18.710886622982656], [-70.46159009047948, 18.710941932985094], [-70.46143372051334, 18.71097504298658], [-70.4611004005856, 18.711051282989782], [-70.46057959069849, 18.711169012994752], [-70.46016260078886, 18.711262802998736], [-70.4598819908497, 18.711326883001423], [-70.45974486087943, 18.711358673002746], [-70.45968809089074, 18.711273723003092], [-70.45966460089548, 18.711243183003248], [-70.4596040009079, 18.711186823003693], [-70.45954856091939, 18.711146773004117], [-70.45948585093248, 18.711110043004624], [-70.4594331909434, 18.711072953005026], [-70.45939213095187, 18.711039573005337], [-70.45921841098792, 18.710918763006692], [-70.4590283610273, 18.71078335300816], [-70.45896023104143, 18.710733733008688], [-70.45872317109058, 18.710567873010536], [-70.45870390109447, 18.710543633010662], [-70.45848650114034, 18.710469153012504], [-70.45849397113851, 18.71044460301239], [-70.45839307115813, 18.710245343012925]]]]}, "geometry_name": "the_geom", "properties": {"Posicional": "304659846593", "Expediente": "6642021105248-04", "Area": 69244.48382568, "Municipio": "RANCHO ARRIBA", "Provincia": "San Jos\u00e9 de Ocoa", "Operacion": "Subdivisi\u00f3n", "FechaInsc": "4/2/2022 10:27:27 a.\u00a0m.", "area_calc_m2": 69244, "touches_family_land": false, "owner": null, "owner_source": null, "family": false, "shift_note": "RI approved layer shifted -0.5 m E, -4.0 m N to the plano 2026 frame"}}, {"type": "Feature", "id": "Aprobados.18527", "geometry": {"type": "MultiPolygon", "coordinates": [[[[-70.4627660202697, 18.71517575298263], [-70.46286689025057, 18.7154254129822], [-70.46287315024985, 18.715488212982265], [-70.46263977030054, 18.71554989298451], [-70.46247027033728, 18.715587082986133], [-70.46228699037688, 18.715614172987852], [-70.46226079038108, 18.71547414298781], [-70.46222998038579, 18.715283582987723], [-70.46241839034508, 18.715253972985945], [-70.46256548031316, 18.715218952984547], [-70.46270031028396, 18.715191212983267], [-70.4627660202697, 18.71517575298263]]]]}, "geometry_name": "the_geom", "properties": {"Posicional": "304659799742", "Expediente": "663201610263", "Area": 2278.30761719, "Municipio": "RANCHO ARRIBA", "Provincia": "SAN JOS\u00c9 DE OCOA", "Operacion": "Saneamiento", "FechaInsc": "24/11/2016 1:46:28 p.\u00a0m.", "area_calc_m2": 2278, "touches_family_land": false, "owner": null, "owner_source": null, "family": false, "shift_note": "RI approved layer shifted -0.5 m E, -4.0 m N to the plano 2026 frame"}}, {"type": "Feature", "id": "Aprobados.29106", "geometry": {"type": "MultiPolygon", "coordinates": [[[[-70.46277658026652, 18.71508273298236], [-70.46269858028342, 18.715099602983106], [-70.4626245002975, 18.714920552983422], [-70.46261817029878, 18.714912202983466], [-70.46252825031837, 18.714941812984343], [-70.46251079032223, 18.714951802984515], [-70.46252307032009, 18.71500149298451], [-70.46234927035783, 18.71504820298618], [-70.46233144036152, 18.715036142986317], [-70.46229215036993, 18.715032932986677], [-70.4622548503779, 18.715029512987], [-70.46220346038837, 18.714974252987354], [-70.462151180399, 18.714915842987715], [-70.462091170411, 18.7148288429881], [-70.46201146042682, 18.714701702988584], [-70.46198521043205, 18.714659892988738], [-70.46186724045546, 18.714471792989446], [-70.46184398046006, 18.71443474298958], [-70.46190677044639, 18.71441492298898], [-70.46175226047508, 18.713969312989516], [-70.46177311047047, 18.7139565029893], [-70.4618237604593, 18.713925292988776], [-70.46199290042198, 18.71382133298703], [-70.46211974039593, 18.713938432986108], [-70.46214111039184, 18.713986702986006], [-70.46226476036686, 18.714141332985175], [-70.4623676203461, 18.714270822984503], [-70.46250281031882, 18.714442702983604], [-70.46246916032628, 18.71446673298395], [-70.46259535030094, 18.71463977298315], [-70.46268962028252, 18.714818392982632], [-70.4626767302855, 18.71484108298279], [-70.46277658026652, 18.71508273298236]]]]}, "geometry_name": "the_geom", "properties": {"Posicional": "304659882782", "Expediente": "663201610681", "Area": 6970.3, "Municipio": "RANCHO ARRIBA", "Provincia": "SAN JOS\u00c9 DE OCOA", "Operacion": "Subdivisi\u00f3n", "FechaInsc": "24/3/2017 12:25:54 p.\u00a0m.", "area_calc_m2": 6970, "touches_family_land": false, "owner": null, "owner_source": null, "family": false, "shift_note": "RI approved layer shifted -0.5 m E, -4.0 m N to the plano 2026 frame"}}, {"type": "Feature", "id": "Aprobados.27004", "geometry": {"type": "MultiPolygon", "coordinates": [[[[-70.46186399046488, 18.715340322991164], [-70.46198814043792, 18.71530935298998], [-70.46204668042706, 18.715478672989775], [-70.46209358041828, 18.715606072989587], [-70.46198411044217, 18.71564578299067], [-70.46186399046488, 18.715340322991164]]]]}, "geometry_name": "the_geom", "properties": {"Posicional": "304659895840", "Expediente": "663201500580", "Area": 454.19274902, "Municipio": "RANCHO ARRIBA", "Provincia": "SAN JOS\u00c9 DE OCOA", "Operacion": "Saneamiento", "FechaInsc": "15/4/2015 11:50:55 a.\u00a0m.", "area_calc_m2": 454, "touches_family_land": false, "owner": null, "owner_source": null, "family": false, "shift_note": "RI approved layer shifted -0.5 m E, -4.0 m N to the plano 2026 frame"}}, {"type": "Feature", "id": "Aprobados.553905", "geometry": {"type": "MultiPolygon", "coordinates": [[[[-70.4619951004366, 18.71532447298994], [-70.46211424041074, 18.715296262988808], [-70.4621591104029, 18.71547463298874], [-70.46215929040297, 18.715484122988755], [-70.4621984403961, 18.715636692988696], [-70.46218956039804, 18.71564074298879], [-70.46215655040524, 18.715651392989113], [-70.46212232041269, 18.715662592989446], [-70.46209358041828, 18.715606072989587], [-70.46205493042554, 18.71550111298974], [-70.46200113043545, 18.715341962989918], [-70.4619951004366, 18.71532447298994]]]]}, "geometry_name": "the_geom", "properties": {"Posicional": "304659894810", "Expediente": "6642024037537-02", "Area": 437.73, "Municipio": "RANCHO ARRIBA", "Provincia": "San Jos\u00e9 de Ocoa", "Operacion": "Saneamiento", "FechaInsc": "27/8/2024 7:59:28 p.\u00a0m.", "area_calc_m2": 438, "touches_family_land": false, "owner": null, "owner_source": null, "family": false, "shift_note": "RI approved layer shifted -0.5 m E, -4.0 m N to the plano 2026 frame"}}, {"type": "Feature", "id": "Aprobados.29107", "geometry": {"type": "MultiPolygon", "coordinates": [[[[-70.46184398046006, 18.71443474298958], [-70.46172942048486, 18.714455792990673], [-70.46163427050544, 18.714473242991566], [-70.46135734056537, 18.7145240129942], [-70.46121106059702, 18.714550912995584], [-70.46097492064176, 18.71396345299659], [-70.46114647060298, 18.713765852994644], [-70.46104442062374, 18.713652622995358], [-70.46107824061633, 18.713637722995013], [-70.46130874056585, 18.713536262992715], [-70.46135371055601, 18.713516482992272], [-70.46143182054067, 18.71365665299183], [-70.46145098053692, 18.713690922991724], [-70.4614944505273, 18.713662662991265], [-70.46159959050406, 18.713593902990183], [-70.46160161050499, 18.713729422990422], [-70.46169482048775, 18.714004642990112], [-70.46175226047508, 18.713969312989516], [-70.46190677044639, 18.71441492298898], [-70.46184398046006, 18.71443474298958]]]]}, "geometry_name": "the_geom", "properties": {"Posicional": "304659981235", "Expediente": "663201610681", "Area": 6970.3, "Municipio": "RANCHO ARRIBA", "Provincia": "SAN JOS\u00c9 DE OCOA", "Operacion": "Subdivisi\u00f3n", "FechaInsc": "24/3/2017 12:25:54 p.\u00a0m.", "area_calc_m2": 6970, "touches_family_land": false, "owner": null, "owner_source": null, "family": false, "shift_note": "RI approved layer shifted -0.5 m E, -4.0 m N to the plano 2026 frame"}}, {"type": "Feature", "id": "Aprobados.585953", "geometry": {"type": "MultiPolygon", "coordinates": [[[[-70.4614210605766, 18.71700378299845], [-70.4613427505938, 18.71704317299924], [-70.46121719062417, 18.71738425300106], [-70.46091003069928, 18.71829933300564], [-70.46088809070802, 18.71870330300663], [-70.45998260090991, 18.71945797301637], [-70.45985992094263, 18.720091423018737], [-70.45957831100587, 18.720372093021854], [-70.4595759610082, 18.72055164302223], [-70.45955082101814, 18.721002723023343], [-70.45932671106978, 18.721353783026082], [-70.45885681116937, 18.721230313030137], [-70.45867702120864, 18.721298123031918], [-70.45853933123573, 18.7210546030327], [-70.45585803183783, 18.723694793062464], [-70.45426468216684, 18.722416283074626], [-70.45430844215542, 18.72221677307383], [-70.45436237214224, 18.722057873073013], [-70.45434020214488, 18.72184913307282], [-70.45423041216635, 18.721642173073423], [-70.45404240220458, 18.72143508307475], [-70.45389673223484, 18.721334473075895], [-70.45370891227394, 18.721217663077393], [-70.45356296230426, 18.721119053078542], [-70.4536994322722, 18.720845763076746], [-70.45389607222648, 18.72049809307426], [-70.45400796220049, 18.720303833072848], [-70.45418213216023, 18.72001677307068], [-70.45455312207436, 18.719399923066053], [-70.454753732028, 18.71907300306357], [-70.45488139199834, 18.718847073061948], [-70.45498749197367, 18.718658653060615], [-70.45508039195212, 18.718501693059444], [-70.45517056193133, 18.718357873058338], [-70.45527392190758, 18.718200063057072], [-70.45634130168224, 18.718565783047993], [-70.45696430153957, 18.717675753040528], [-70.45721947148098, 18.717295923037447], [-70.4575527714045, 18.71680085303343], [-70.45765982137986, 18.71663626303212], [-70.45797368130788, 18.716174643028346], [-70.45821189125314, 18.71581562302546], [-70.45836773121734, 18.715579983023574], [-70.45858793116682, 18.715254733020924], [-70.4587140611379, 18.7150699430194], [-70.45872378113562, 18.71505030301928], [-70.4587395711315, 18.714977483019002], [-70.45947102097394, 18.714912813012177], [-70.45998498086317, 18.714862813007382], [-70.46003749085183, 18.714856093006894], [-70.46008311084198, 18.714850253006464], [-70.46017154082259, 18.71480647300557], [-70.46030270079379, 18.71474153300425], [-70.4604380307641, 18.714674523002884], [-70.4605608007399, 18.71488785300217], [-70.46058590073517, 18.714954023002075], [-70.46063936072534, 18.715115903001895], [-70.46069742071494, 18.715320213001775], [-70.46076516070259, 18.715537643001582], [-70.46079293069768, 18.71564233300153], [-70.4608240306924, 18.715780373001508], [-70.46085331068751, 18.715917983001514], [-70.46091414067624, 18.716096103001306], [-70.46093737067173, 18.716142183001185], [-70.460977020664, 18.71622083300098], [-70.46119297062134, 18.716586292999718], [-70.46135927058837, 18.71685568299873], [-70.4614210605766, 18.71700378299845]]]]}, "geometry_name": "the_geom", "properties": {"Posicional": "304760331910", "Expediente": "6642024034813-07", "Area": 397483, "Municipio": "RANCHO ARRIBA", "Provincia": "San Jos\u00e9 de Ocoa", "Operacion": "Refundici\u00f3n", "FechaInsc": "2/2/2025 6:22:50 p.\u00a0m.", "area_calc_m2": 397493, "touches_family_land": true, "owner": "Vecinos \u2014 finca original 6642024034813_1-1-1 (parent parcel of expediente 6642024034813-07; not the family's)", "owner_source": "owner statement 2026-09-04", "family": false, "shift_note": "RI approved layer shifted -0.5 m E, -4.0 m N to the plano 2026 frame"}}, {"type": "Feature", "id": "Aprobados.585961", "geometry": {"type": "MultiPolygon", "coordinates": [[[[-70.4613968605812, 18.71694578299856], [-70.46133101059523, 18.716934112999134], [-70.46121891061892, 18.71689956300009], [-70.46111256064137, 18.716860823000992], [-70.4609083306841, 18.716754343002645], [-70.4607665007138, 18.716681273003797], [-70.46112191063537, 18.71646602300013], [-70.46119297062134, 18.716586292999718], [-70.46135927058837, 18.71685568299873], [-70.4613968605812, 18.71694578299856]]]]}, "geometry_name": "the_geom", "properties": {"Posicional": "304750914187", "Expediente": "6642024034813-07", "Area": 1517.26, "Municipio": "RANCHO ARRIBA", "Provincia": "San Jos\u00e9 de Ocoa", "Operacion": "Subdivisi\u00f3n", "FechaInsc": "2/2/2025 6:22:50 p.\u00a0m.", "area_calc_m2": 1517, "touches_family_land": true, "owner": "Vecinos \u2014 parcela resultante _8 (expediente 6642024034813-07)", "owner_source": "owner statement 2026-09-04", "family": false, "shift_note": "RI approved layer shifted -0.5 m E, -4.0 m N to the plano 2026 frame"}}, {"type": "Feature", "id": "Aprobados.261506", "geometry": {"type": "MultiPolygon", "coordinates": [[[[-70.45906644101863, 18.710733903007714], [-70.45875792108264, 18.710517643010114], [-70.4587631410814, 18.710506753010044], [-70.45867502109971, 18.710448263010736], [-70.45863016110899, 18.710414543011083], [-70.45859017111727, 18.71038377301139], [-70.4585810711191, 18.710373183011452], [-70.45846754114264, 18.710293013012333], [-70.45839307115813, 18.710245343012925], [-70.4583877111589, 18.710206353012893], [-70.45839669115604, 18.71011457301264], [-70.4585673111187, 18.71004005301092], [-70.45858600111482, 18.710052833010778], [-70.45865938109894, 18.710039703010082], [-70.45868415109356, 18.71003137300984], [-70.4587494610793, 18.710006103009196], [-70.45886578105355, 18.70992532300797], [-70.45891873104145, 18.709852993007356], [-70.45898416102652, 18.709764203006575], [-70.45903570101476, 18.709692873005974], [-70.45910819099815, 18.709587763005104], [-70.45917414098305, 18.709493463004307], [-70.459304660953, 18.709287703002715], [-70.45933576094677, 18.70933236300252], [-70.45938135093664, 18.709297043002042], [-70.45940170093212, 18.709281343001827], [-70.45951136090788, 18.70920910300068], [-70.45956817089515, 18.709155353000053], [-70.45957920089293, 18.709169092999982], [-70.45961095088587, 18.709144992999647], [-70.45961546088476, 18.709129502999577], [-70.45969484086706, 18.70906410299872], [-70.45979814084409, 18.70898080299762], [-70.45996755080603, 18.70881024299574], [-70.46007240078252, 18.70870750299459], [-70.460253040742, 18.708531622992584], [-70.46022469074776, 18.708498502992782], [-70.4604183607045, 18.708325762990675], [-70.46042616070253, 18.708295892990545], [-70.46051756068223, 18.70822831298958], [-70.46069523064665, 18.70847947298845], [-70.46111819055335, 18.708219202984083], [-70.46139947050328, 18.709239572983517], [-70.46140031050396, 18.709325942983682], [-70.46159023047063, 18.710064122983386], [-70.4615765404741, 18.71011609298361], [-70.4608449006327, 18.7102843429906], [-70.46078244064667, 18.710343022991285], [-70.45906644101863, 18.710733903007714]]]]}, "geometry_name": "the_geom", "properties": {"Posicional": "304669033372", "Expediente": "6642021105248-04", "Area": 51269.56066895, "Municipio": "RANCHO ARRIBA", "Provincia": "San Jos\u00e9 de Ocoa", "Operacion": "Subdivisi\u00f3n", "FechaInsc": "4/2/2022 10:27:27 a.\u00a0m.", "area_calc_m2": 51270, "touches_family_land": false, "owner": null, "owner_source": null, "family": false, "shift_note": "RI approved layer shifted -0.5 m E, -4.0 m N to the plano 2026 frame"}}, {"type": "Feature", "id": "Aprobados.585954", "geometry": {"type": "MultiPolygon", "coordinates": [[[[-70.46076516070259, 18.715537643001582], [-70.45997756087849, 18.716226453010105], [-70.45968176094456, 18.716485463013328], [-70.45971414093805, 18.716528893013116], [-70.45977345092587, 18.716583393012673], [-70.45979776092075, 18.716594683012477], [-70.45985246090915, 18.716606603012004], [-70.46002110087302, 18.716611333010473], [-70.46010503085505, 18.716614323009708], [-70.45957518097376, 18.71711556301553], [-70.45922158105299, 18.71744965301941], [-70.45897525110816, 18.717680403022115], [-70.45864782118153, 18.717988153025715], [-70.45840824123519, 18.71821450302835], [-70.458159121291, 18.718446813031083], [-70.45775294138197, 18.718825053035545], [-70.45776626138019, 18.71893147303563], [-70.45886043116178, 18.720555533028783], [-70.45845716125217, 18.72093636303322], [-70.45849824124393, 18.72099548303297], [-70.45580317184917, 18.72365078306288], [-70.45426468216684, 18.722416283074626], [-70.45430844215542, 18.72221677307383], [-70.45436237214224, 18.722057873073013], [-70.45434020214488, 18.72184913307282], [-70.45423041216635, 18.721642173073423], [-70.45404240220458, 18.72143508307475], [-70.45389673223484, 18.721334473075895], [-70.45370891227394, 18.721217663077393], [-70.45356296230426, 18.721119053078542], [-70.4536994322722, 18.720845763076746], [-70.45389607222648, 18.72049809307426], [-70.45400796220049, 18.720303833072848], [-70.45418213216023, 18.72001677307068], [-70.45455312207436, 18.719399923066053], [-70.454753732028, 18.71907300306357], [-70.45488139199834, 18.718847073061948], [-70.45498749197367, 18.718658653060615], [-70.45508039195212, 18.718501693059444], [-70.45517056193133, 18.718357873058338], [-70.45527392190758, 18.718200063057072], [-70.45634130168224, 18.718565783047993], [-70.45696430153957, 18.717675753040528], [-70.45721947148098, 18.717295923037447], [-70.4575527714045, 18.71680085303343], [-70.45765982137986, 18.71663626303212], [-70.45797368130788, 18.716174643028346], [-70.45821189125314, 18.71581562302546], [-70.45836773121734, 18.715579983023574], [-70.45858793116682, 18.715254733020924], [-70.4587140611379, 18.7150699430194], [-70.45872378113562, 18.71505030301928], [-70.45878151112328, 18.71505563301876], [-70.4590143710731, 18.715031883016582], [-70.45933075100487, 18.714997023013627], [-70.45955548095655, 18.714986293011545], [-70.45975992091269, 18.71498528300968], [-70.45993667087515, 18.715024063008144], [-70.45998944086416, 18.715057763007728], [-70.46012701083583, 18.715174343006698], [-70.46021300081742, 18.715177883005914], [-70.46026042080706, 18.715159583005452], [-70.46027177080433, 18.715129663005282], [-70.4603058407967, 18.715098773004915], [-70.46040544077465, 18.715029603003867], [-70.46052864074764, 18.714972493002637], [-70.46058590073517, 18.714954023002075], [-70.46063936072534, 18.715115903001895], [-70.46069742071494, 18.715320213001775], [-70.46076516070259, 18.715537643001582]]]]}, "geometry_name": "the_geom", "properties": {"Posicional": "304760349243", "Expediente": "6642024034813-07", "Area": 282452.35, "Municipio": "RANCHO ARRIBA", "Provincia": "San Jos\u00e9 de Ocoa", "Operacion": "Subdivisi\u00f3n", "FechaInsc": "2/2/2025 6:22:50 p.\u00a0m.", "area_calc_m2": 282452, "touches_family_land": true, "owner": "Vecinos \u2014 parcela resultante _1 (expediente 6642024034813-07)", "owner_source": "owner statement 2026-09-04", "family": false, "shift_note": "RI approved layer shifted -0.5 m E, -4.0 m N to the plano 2026 frame"}}, {"type": "Feature", "id": "Aprobados.585955", "geometry": {"type": "MultiPolygon", "coordinates": [[[[-70.46076516070259, 18.715537643001582], [-70.46079293069768, 18.71564233300153], [-70.4608240306924, 18.715780373001508], [-70.46085331068751, 18.715917983001514], [-70.46010503085505, 18.716614323009708], [-70.46002110087302, 18.716611333010473], [-70.45985246090915, 18.716606603012004], [-70.45979776092075, 18.716594683012477], [-70.45977345092587, 18.716583393012673], [-70.45971414093805, 18.716528893013116], [-70.45968176094456, 18.716485463013328], [-70.45997756087849, 18.716226453010105], [-70.46076516070259, 18.715537643001582]]]]}, "geometry_name": "the_geom", "properties": {"Posicional": "304760003504", "Expediente": "6642024034813-07", "Area": 5395.34, "Municipio": "RANCHO ARRIBA", "Provincia": "San Jos\u00e9 de Ocoa", "Operacion": "Subdivisi\u00f3n", "FechaInsc": "2/2/2025 6:22:50 p.\u00a0m.", "area_calc_m2": 5395, "touches_family_land": true, "owner": "Vecinos \u2014 parcela resultante _2 (expediente 6642024034813-07)", "owner_source": "owner statement 2026-09-04", "family": false, "shift_note": "RI approved layer shifted -0.5 m E, -4.0 m N to the plano 2026 frame"}}, {"type": "Feature", "id": "Aprobados.585956", "geometry": {"type": "MultiPolygon", "coordinates": [[[[-70.46085331068751, 18.715917983001514], [-70.46091414067624, 18.716096103001306], [-70.46093737067173, 18.716142183001185], [-70.460977020664, 18.71622083300098], [-70.46112191063537, 18.71646602300013], [-70.4607665007138, 18.716681273003797], [-70.4609083306841, 18.716754343002645], [-70.46111256064137, 18.716860823000992], [-70.46121891061892, 18.71689956300009], [-70.46133101059523, 18.716934112999134], [-70.4613968605812, 18.71694578299856], [-70.4614210605766, 18.71700378299845], [-70.4613427505938, 18.71704317299924], [-70.46121719062417, 18.71738425300106], [-70.46091003069928, 18.71829933300564], [-70.46088809070802, 18.71870330300663], [-70.45998260090991, 18.71945797301637], [-70.45985992094263, 18.720091423018737], [-70.45957831100587, 18.720372093021854], [-70.4595759610082, 18.72055164302223], [-70.45955082101814, 18.721002723023343], [-70.45932671106978, 18.721353783026082], [-70.45885681116937, 18.721230313030137], [-70.45867702120864, 18.721298123031918], [-70.45853933123573, 18.7210546030327], [-70.45585803183783, 18.723694793062464], [-70.45580317184917, 18.72365078306288], [-70.45849824124393, 18.72099548303297], [-70.45845716125217, 18.72093636303322], [-70.45886043116178, 18.720555533028783], [-70.45776626138019, 18.71893147303563], [-70.45775294138197, 18.718825053035545], [-70.458159121291, 18.718446813031083], [-70.45840824123519, 18.71821450302835], [-70.45864782118153, 18.717988153025715], [-70.45897525110816, 18.717680403022115], [-70.45922158105299, 18.71744965301941], [-70.45957518097376, 18.71711556301553], [-70.46010503085505, 18.716614323009708], [-70.46085331068751, 18.715917983001514]]]]}, "geometry_name": "the_geom", "properties": {"Posicional": "304760131359", "Expediente": "6642024034813-07", "Area": 104744.43, "Municipio": "RANCHO ARRIBA", "Provincia": "San Jos\u00e9 de Ocoa", "Operacion": "Subdivisi\u00f3n", "FechaInsc": "2/2/2025 6:22:50 p.\u00a0m.", "area_calc_m2": 104745, "touches_family_land": true, "owner": "Familia (parcela resultante _3)", "owner_source": "plano catastral 2026; confirmed by the owner 2026-09-04", "family": true, "shift_note": "RI approved layer shifted -0.5 m E, -4.0 m N to the plano 2026 frame"}}, {"type": "Feature", "id": "Aprobados.704262", "geometry": {"type": "MultiPolygon", "coordinates": [[[[-70.45810203121968, 18.710159223015413], [-70.45810660121873, 18.71016195301538], [-70.4581954312007, 18.710263663014768], [-70.45815177121042, 18.710299853015233], [-70.45810511122046, 18.71030193301566], [-70.45795400125297, 18.71031175301707], [-70.45794176125517, 18.710270753017102], [-70.45798575124547, 18.710244063016646], [-70.45803728123406, 18.71020727301611], [-70.45810203121968, 18.710159223015413]]]]}, "geometry_name": "the_geom", "properties": {"Posicional": "304669236919", "Expediente": "6642026006191-04", "Area": 254.68, "Municipio": "RANCHO ARRIBA", "Provincia": "San Jos\u00e9 de Ocoa", "Operacion": "Saneamiento", "FechaInsc": "7/5/2026 10:56:50 p.\u00a0m.", "area_calc_m2": 255, "touches_family_land": false, "owner": null, "owner_source": null, "family": false, "shift_note": "RI approved layer shifted -0.5 m E, -4.0 m N to the plano 2026 frame"}}, {"type": "Feature", "id": "Aprobados.76929", "geometry": {"type": "MultiPolygon", "coordinates": [[[[-70.45413124207656, 18.710682533052854], [-70.45415716206944, 18.710527253052316], [-70.45450044199605, 18.710550503049205], [-70.45478467193557, 18.710599473046695], [-70.45533089182054, 18.710808103042083], [-70.45555631177201, 18.710790923039976], [-70.45609382165586, 18.710702433034882], [-70.45645010157855, 18.710614023031432], [-70.45649929156937, 18.710748873031246], [-70.45657917155421, 18.7109458530309], [-70.45685050149531, 18.71087482302827], [-70.456853731495, 18.710911453028316], [-70.45705040145228, 18.710859963026405], [-70.45715394142985, 18.710838443025423], [-70.45720166141966, 18.710840243024997], [-70.4576589813238, 18.711061943021235], [-70.45808678123392, 18.711247483017686], [-70.45842790116244, 18.711415223014892], [-70.45844804115856, 18.711458053014784], [-70.45848602115117, 18.711532403014587], [-70.45854804113912, 18.711658233014262], [-70.45860670112809, 18.711811523014024], [-70.45860903112792, 18.71184342301406], [-70.45860282112977, 18.711895233014225], [-70.45853647114689, 18.712181483015385], [-70.45849197115817, 18.71235451301614], [-70.45846243116539, 18.71244289301658], [-70.45410498209604, 18.712048943055784], [-70.45411140209364, 18.71194873305552], [-70.45412288208493, 18.71133334305421], [-70.45413124207656, 18.710682533052854]]]]}, "geometry_name": "the_geom", "properties": {"Posicional": "304669455460", "Expediente": "663201709429", "Area": 72055.74, "Municipio": "RANCHO ARRIBA", "Provincia": "SAN JOS\u00c9 DE OCOA", "Operacion": "Subdivisi\u00f3n", "FechaInsc": "28/5/2018 9:49:46 a.\u00a0m.", "area_calc_m2": 72056, "touches_family_land": false, "owner": null, "owner_source": null, "family": false, "shift_note": "RI approved layer shifted -0.5 m E, -4.0 m N to the plano 2026 frame"}}, {"type": "Feature", "id": "Aprobados.197833", "geometry": {"type": "MultiPolygon", "coordinates": [[[[-70.45850265115675, 18.71244222301621], [-70.45811522123957, 18.7124126230197], [-70.45778373131036, 18.712381683022667], [-70.4577605813153, 18.712379423022874], [-70.45694455147496, 18.71085639302738], [-70.45704224145368, 18.710825363026423], [-70.45706805144806, 18.71081649302617], [-70.45713317143395, 18.710802073025544], [-70.45714956143043, 18.710801223025392], [-70.45721029141745, 18.710806263024846], [-70.45751936135254, 18.710942913022283], [-70.45769360131612, 18.71103643302087], [-70.45783715128599, 18.71110118301968], [-70.4579256812674, 18.711141163018944], [-70.45796806125853, 18.7111624230186], [-70.45811483122746, 18.71120438301734], [-70.45813293122369, 18.711214093017194], [-70.45843864115977, 18.711379683014716], [-70.45847452115271, 18.711439403014506], [-70.45853978113985, 18.711552383014137], [-70.45858602113087, 18.7116474330139], [-70.45862802112298, 18.71175797301372], [-70.45864225112038, 18.711802323013682], [-70.45865050111905, 18.711846353013698], [-70.45864232112133, 18.71189882301387], [-70.45860254113138, 18.712049033014523], [-70.45857586113851, 18.71218784301504], [-70.45854125114727, 18.71232103301562], [-70.45852906115037, 18.712369913015824], [-70.45850265115675, 18.71244222301621]]]]}, "geometry_name": "the_geom", "properties": {"Posicional": "304669258515", "Expediente": "6642020036358-04", "Area": 18001.81, "Municipio": "RANCHO ARRIBA", "Provincia": "San Jos\u00e9 de Ocoa", "Operacion": "Subdivisi\u00f3n", "FechaInsc": "11/11/2020 7:22:13 p.\u00a0m.", "area_calc_m2": 18006, "touches_family_land": false, "owner": null, "owner_source": null, "family": false, "shift_note": "RI approved layer shifted -0.5 m E, -4.0 m N to the plano 2026 frame"}}, {"type": "Feature", "id": "Aprobados.261679", "geometry": {"type": "MultiPolygon", "coordinates": [[[[-70.4582318912089, 18.711852143017534], [-70.45819349121736, 18.71187430301793], [-70.4581138512349, 18.71192037301875], [-70.45810536123678, 18.71192522301883], [-70.45799454125844, 18.71171845301945], [-70.45812107123058, 18.711645363018153], [-70.4582318912089, 18.711852143017534]]]]}, "geometry_name": "the_geom", "properties": {"Posicional": "304669255689", "Expediente": "6642021079298-08", "Area": 399.94555664, "Municipio": "RANCHO ARRIBA", "Provincia": "San Jos\u00e9 de Ocoa", "Operacion": "Subdivisi\u00f3n", "FechaInsc": "31/1/2022 2:33:48 p.\u00a0m.", "area_calc_m2": 400, "touches_family_land": false, "owner": null, "owner_source": null, "family": false, "shift_note": "RI approved layer shifted -0.5 m E, -4.0 m N to the plano 2026 frame"}}, {"type": "Feature", "id": "Aprobados.261680", "geometry": {"type": "MultiPolygon", "coordinates": [[[[-70.458326721188, 18.711797273016558], [-70.45827313119982, 18.711828323017112], [-70.4582318912089, 18.71185223301753], [-70.45812107123058, 18.711645453018146], [-70.45821599120967, 18.71159059301716], [-70.458326721188, 18.711797273016558]]]]}, "geometry_name": "the_geom", "properties": {"Posicional": "304669254662", "Expediente": "6642021079298-08", "Area": 299.92089844, "Municipio": "RANCHO ARRIBA", "Provincia": "San Jos\u00e9 de Ocoa", "Operacion": "Subdivisi\u00f3n", "FechaInsc": "31/1/2022 2:33:48 p.\u00a0m.", "area_calc_m2": 300, "touches_family_land": false, "owner": null, "owner_source": null, "family": false, "shift_note": "RI approved layer shifted -0.5 m E, -4.0 m N to the plano 2026 frame"}}, {"type": "Feature", "id": "Aprobados.76928", "geometry": {"type": "MultiPolygon", "coordinates": [[[[-70.45314677231062, 18.71294367306635], [-70.45317785229936, 18.712490843065176], [-70.45359268220801, 18.712258573060907], [-70.45408855210216, 18.712305123056424], [-70.45410498209604, 18.712048943055784], [-70.45846243116539, 18.71244289301658], [-70.45841266117758, 18.71259175301733], [-70.45840977118041, 18.712813503017784], [-70.4584025511835, 18.712964303018147], [-70.45838787119081, 18.713376433019075], [-70.45837966119547, 18.713665183019728], [-70.45327745228539, 18.713219843065687], [-70.45314677231062, 18.71294367306635]]]]}, "geometry_name": "the_geom", "properties": {"Posicional": "304669469845", "Expediente": "663201709429", "Area": 72054.14, "Municipio": "RANCHO ARRIBA", "Provincia": "SAN JOS\u00c9 DE OCOA", "Operacion": "Subdivisi\u00f3n", "FechaInsc": "28/5/2018 9:49:46 a.\u00a0m.", "area_calc_m2": 72054, "touches_family_land": false, "owner": null, "owner_source": null, "family": false, "shift_note": "RI approved layer shifted -0.5 m E, -4.0 m N to the plano 2026 frame"}}, {"type": "Feature", "id": "Aprobados.76927", "geometry": {"type": "MultiPolygon", "coordinates": [[[[-70.45343847226242, 18.714360753066437], [-70.45343719226005, 18.714100463065943], [-70.4534315422601, 18.713984693065772], [-70.453447412256, 18.713915303065487], [-70.45343957225512, 18.713663773065072], [-70.4533556022703, 18.71338500306529], [-70.45327745228539, 18.713219843065687], [-70.45837966119547, 18.713665183019728], [-70.45837005120093, 18.71400345302047], [-70.45837012120444, 18.714352223021155], [-70.45837066120689, 18.714605923021647], [-70.45844117119518, 18.71494495302166], [-70.45836771121101, 18.714952103022355], [-70.45826706123248, 18.714941423023248], [-70.45786077131932, 18.714907553026908], [-70.45684442153639, 18.714812603036037], [-70.45603435170929, 18.71472615304329], [-70.45513775190047, 18.714612913051305], [-70.45445677204566, 18.71452700305739], [-70.45385445217391, 18.71443254306275], [-70.45343847226242, 18.714360753066437]]]]}, "geometry_name": "the_geom", "properties": {"Posicional": "304669488290", "Expediente": "663201709429", "Area": 72055.12, "Municipio": "RANCHO ARRIBA", "Provincia": "SAN JOS\u00c9 DE OCOA", "Operacion": "Subdivisi\u00f3n", "FechaInsc": "28/5/2018 9:49:46 a.\u00a0m.", "area_calc_m2": 72055, "touches_family_land": false, "owner": null, "owner_source": null, "family": false, "shift_note": "RI approved layer shifted -0.5 m E, -4.0 m N to the plano 2026 frame"}}, {"type": "Feature", "id": "Aprobados.261687", "geometry": {"type": "MultiPolygon", "coordinates": [[[[-70.45758319133921, 18.71097720302176], [-70.45753893134895, 18.711002763022222], [-70.45749468135871, 18.71102831302267], [-70.45735239139006, 18.711110653024132], [-70.45730960139842, 18.71103074302437], [-70.45748662135942, 18.71092844302255], [-70.45751936135254, 18.710942913022283], [-70.45758319133921, 18.71097720302176]]]]}, "geometry_name": "the_geom", "properties": {"Posicional": "304669342893", "Expediente": "6642021079298-08", "Area": 250.05383301, "Municipio": "RANCHO ARRIBA", "Provincia": "San Jos\u00e9 de Ocoa", "Operacion": "Subdivisi\u00f3n", "FechaInsc": "31/1/2022 2:33:48 p.\u00a0m.", "area_calc_m2": 250, "touches_family_land": false, "owner": null, "owner_source": null, "family": false, "shift_note": "RI approved layer shifted -0.5 m E, -4.0 m N to the plano 2026 frame"}}, {"type": "Feature", "id": "Aprobados.197834", "geometry": {"type": "MultiPolygon", "coordinates": [[[[-70.45413313207472, 18.710539483052564], [-70.45423305205324, 18.710536543051635], [-70.45444498200791, 18.71054727304971], [-70.45458800197737, 18.710561163048425], [-70.45482320192743, 18.710610033046358], [-70.45489378191256, 18.710635683045762], [-70.45525418183678, 18.710787033042745], [-70.45533060182062, 18.710808493042087], [-70.45543211179879, 18.710803273041147], [-70.45551616178068, 18.710795843040355], [-70.45576099172784, 18.710761773038048], [-70.45602848167, 18.710716593035496], [-70.45644821157903, 18.710620173031458], [-70.45649891156947, 18.710750353031248], [-70.45658237155348, 18.71093981303086], [-70.45687240149066, 18.710879453028085], [-70.45694455147496, 18.71085639302738], [-70.4577605813153, 18.712379423022874], [-70.45612207166526, 18.712233583037605], [-70.4541117120946, 18.71205005305572], [-70.45411686209093, 18.71179855305518], [-70.45412379208261, 18.711121903053787], [-70.45413313207472, 18.710539483052564]]]]}, "geometry_name": "the_geom", "properties": {"Posicional": "304669550394", "Expediente": "6642020036358-04", "Area": 55275.96, "Municipio": "RANCHO ARRIBA", "Provincia": "San Jos\u00e9 de Ocoa", "Operacion": "Subdivisi\u00f3n", "FechaInsc": "11/11/2020 7:22:13 p.\u00a0m.", "area_calc_m2": 55331, "touches_family_land": false, "owner": null, "owner_source": null, "family": false, "shift_note": "RI approved layer shifted -0.5 m E, -4.0 m N to the plano 2026 frame"}}, {"type": "Feature", "id": "Aprobados.261663", "geometry": {"type": "MultiPolygon", "coordinates": [[[[-70.45773235131536, 18.71178545302198], [-70.4575107013642, 18.71191350302426], [-70.45740017138581, 18.711706723024864], [-70.45755831135098, 18.711615313023245], [-70.45762162133703, 18.711578683022584], [-70.45765853132981, 18.711647603022385], [-70.45773235131536, 18.71178545302198]]]]}, "geometry_name": "the_geom", "properties": {"Posicional": "304669351664", "Expediente": "6642021079298-08", "Area": 700.02374268, "Municipio": "RANCHO ARRIBA", "Provincia": "San Jos\u00e9 de Ocoa", "Operacion": "Subdivisi\u00f3n", "FechaInsc": "31/1/2022 2:33:48 p.\u00a0m.", "area_calc_m2": 700, "touches_family_land": false, "owner": null, "owner_source": null, "family": false, "shift_note": "RI approved layer shifted -0.5 m E, -4.0 m N to the plano 2026 frame"}}]}